PlaceID,Name,SimplifiedChineseName,TradionalChineseName,Province/City,Source,Longtitude,Latitude,Area,DistrictByArea,DongByArea,LongtitudeByArea,LatitudeByArea,중문원문,문제종류
57,고궁,古宫,古宮,Seoul,2013 외래관광객실태조사,,,경복궁,종로구,세종로,126.977041,37.579617,,
58,박물관(기념관),博物馆(纪念馆),博物館(紀念館),Seoul,2013 외래관광객실태조사,,,국립중앙박물관,용산구,용산동6가,126.9804702,37.5238506,,
59,인사동,仁寺洞,仁寺洞,Seoul,2013 외래관광객실태조사,126.9860732,37.5717174,인사동,종로구,인사동,126.9860732,37.5717174,,
60,남산/N서울타워,南山/N首尔塔,南山/N首爾塔,Seoul,2013 외래관광객실태조사,,,남산,용산구,후암동,126.9809696,37.5537586,,
61,명동,明洞,明洞,Seoul,2013 외래관광객실태조사,126.9858296,37.55998,명동,중구,남산동2가,126.9858296,37.55998,,
62,남대문시장,南大门市场,南大門市場,Seoul,2013 외래관광객실태조사,126.9776692,37.5591786,남대문시장,중구,남창동,126.9776692,37.5591786,,
63,코엑스,COEX,COEX,Seoul,2013 외래관광객실태조사,127.0595931,37.5113686,코엑스,강남구,삼성동,127.0595931,37.5113686,,
64,동대문시장,东大门市场,東大門市場,Seoul,2013 외래관광객실태조사,127.0081119,37.5707806,동대문시장,종로구,종로6가,127.0081119,37.5707806,,
65,이태원,梨泰院,梨泰院,Seoul,2013 외래관광객실태조사,126.9925224,37.5385051,이태원,용산구,이태원동,126.9925224,37.5385051,,
66,롯데월드,乐天世界,樂天世界,Seoul,2013 외래관광객실태조사,127.098167,37.5111158,롯데월드,송파구,잠실동,127.098167,37.5111158,,
67,여의도/63빌딩/영등포,汝矣岛/63大厦/永登浦,汝矣島/63大廈/永登浦,Seoul,2013 외래관광객실태조사,,,영등포구,영등포구,영등포동2가,126.9101692,37.5223245,,
68,한강/유람선,汉江/游船,漢江/遊覽船,Seoul,2013 외래관광객실태조사,,,한강유람선,영등포구,여의도동,126.9384944,37.5257811,,
69,청계천/광화문광장,清溪川/光化门广场,清溪川/光化門廣場,Seoul,2013 외래관광객실태조사,,,광화문광장,종로구,세종로,126.9769117,37.572389,,
70,신촌/홍대주변,新村/弘大周围,新村/弘大周圍,Seoul,2013 외래관광객실태조사,,,홍대거리,마포구,서교동,126.9241498,37.5558499,,
71,DMC/월드컵 경기장,DMC/世界杯体育场,DMC/世界盃體育場,Seoul,2013 외래관광객실태조사,126.8972735,37.5682617,월드컵 경기장,마포구,성산동,126.8972735,37.5682617,DMC/世界盃赛场,번체/간체 번역의 생소한 표현
72,한옥마을(남산),韩屋村(南山),韓屋村(南山),Seoul,2013 외래관광객실태조사,126.994477,37.559315,남산골 한옥마을,중구,필동2가,126.994477,37.559315,,
73,북촌,北村,北村,Seoul,2013 외래관광객실태조사,126.9849519,37.5814696,북촌,종로구,가회동,126.9849519,37.5814696,,
74,청담동,清潭洞,清潭洞,Seoul,2013 외래관광객실태조사,127.0479736,37.5233931,청담동,강남구,청담동,127.0479736,37.5233931,,
75,가로수길,林荫树街,林蔭樹街,Seoul,2013 외래관광객실태조사,127.0228686,37.5210566,가로수길,강남구,신사동,127.0228686,37.5210566,,
76,월미도/차이나타운·개항장/연안부두,月尾岛/唐人街/开港场/沿岸埠头,月尾島/唐人街/開港場/沿岸埠頭,Incheon,2013 외래관광객실태조사,,,인천 차이나타운,중구,북성동2가,126.6178849,37.475589,臨津閣/烏頭山統一瞭望台/沿岸埠頭,번체/간체 오역 사례
77,송도,松岛,松島,Incheon,2013 외래관광객실태조사,126.6389202,37.3860959,송도,연수구,송도동,126.6389202,37.3860959,,
78,강화도,江华岛,江華島,Incheon,2013 외래관광객실태조사,126.4511281,37.7131742,강화도,강화군,불은면,126.4511281,37.7131742,,
79,영종도/공항주변/인천대교,永宗岛/机场周边/仁川大桥,永宗島/機場周邊/仁川大橋,Incheon,2013 외래관광객실태조사,,,영종도,중구,운남동,126.5358479,37.5000629,,
80,소래포구,苏来浦口,蘇來浦口,Incheon,2013 외래관광객실태조사,126.7407213,37.3987976,소래포구,남동구,논현동,126.7407213,37.3987976,,
81,옹진,瓮津,瓮津,Incheon,2013 외래관광객실태조사,124.6778869,37.9535884,옹진군,옹진군,백령면,124.6778869,37.9535884,,
82,임진각/오두산 통일 전망대/판문점,临津阁/乌头山统一瞭望台/板门店,臨津閣/烏頭山統一瞭望台/板門店,Gyeonggi,2013 외래관광객실태조사,,,임진각,파주시,문산읍,126.7402185,37.8897444,休戰線/板門店,번체/간체 오역 사례
83,에버랜드,爱宝乐园,愛寶樂園,Gyeonggi,2013 외래관광객실태조사,127.2025664,37.2939104,에버랜드,용인시 처인구,포곡읍,127.2025664,37.2939104,,
84,수원화성,水原华城,水原華城,Gyeonggi,2013 외래관광객실태조사,127.0119379,37.2871202,수원화성,수원시 장안구,영화동,127.0119379,37.2871202,,
85,민속촌,民俗村,民俗村,Gyeonggi,2013 외래관광객실태조사,127.1181126,37.258939,한국민속촌,용인시 기흥구,보라동,127.1181126,37.258939,,
86,서울랜드,首尔乐园,首爾樂園,Gyeonggi,2013 외래관광객실태조사,127.0201267,37.4341563,서울랜드,과천시,막계동,127.0201267,37.4341563,,
87,서울시청,首尔市厅,首爾市廳,Seoul,2013 외래관광객실태조사,126.9782038,37.5665851,서울시청,중구,태평로1가,126.9782038,37.5665851,,
88,청와대,青瓦台,青瓦臺,Seoul,2013 외래관광객실태조사,126.974811,37.5866076,청와대,종로구,세종로,126.974811,37.5866076,,
89,한옥마을,韩屋村(南山),韓屋村(南山),Seoul,2013 외래관광객실태조사,126.994477,37.559315,남산골 한옥마을,중구,필동2가,126.994477,37.559315,,
90,사찰,寺庙,寺廟,,2013 외래관광객실태조사,,,,,,,,,
91,산,山,山,,2013 외래관광객실태조사,,,,,,,,,
92,온천,温泉,溫泉,,2013 외래관광객실태조사,,,,,,,,,
93,예술의전당,艺术殿堂,藝術殿堂,Seoul,2013 외래관광객실태조사,127.0128613,37.4792903,예술의전당,서초구,서초동,127.0128613,37.4792903,,
94,올림픽공원,奥林匹克公园,奧林匹克公園,Seoul,2013 외래관광객실태조사,127.1214941,37.5206868,올림픽공원,송파구,방이동,127.1214941,37.5206868,,
95,강,河,河,,2013 외래관광객실태조사,,,,,,,,,
96,병원,医院,醫院,,2013 외래관광객실태조사,,,,,,,,,
97,서울역,首尔站,首爾站,Seoul,2013 외래관광객실태조사,126.972317,37.555946,서울역,중구,봉래동2가,126.972317,37.555946,,
98,워커힐,华克山庄首尔大酒店,華克山莊首爾大酒店,Seoul,2013 외래관광객실태조사,127.1108905,37.5552126,그랜드 워커힐 서울,광진구,광장동,127.1108905,37.5552126,,
99,김치학교,泡菜学校,泡菜學校,Gyeonggi,2013 외래관광객실태조사,126.8786163,37.5958252,김치학교,고양시 덕양구,덕은동,126.8786163,37.5958252,,
100,영화및드라마촬영지,电影和戏剧的拍摄地点,電影和戲劇的拍攝地點,,2013 외래관광객실태조사,,,,,,,,,
101,공연,公演,公演,,2013 외래관광객실태조사,,,,,,,,,
102,카지노,赌场,賭場,,2013 외래관광객실태조사,,,,,,,,,
103,양지리조트,阳智Pine渡假村,陽智Pine渡假村,Gyeonggi,2013 외래관광객실태조사,127.2950572,37.2130027,양지리조트,용인시 처인구,양지면,127.2950572,37.2130027,,
104,지산리조트,芝山度假村,芝山度假村,Gyeonggi,2013 외래관광객실태조사,127.3448638,37.2172793,지산리조트,이천시,마장면,127.3448638,37.2172793,,
105,베어스타운,熊城渡假村,熊城渡假村,Gyeonggi,2013 외래관광객실태조사,127.248291,37.7967269,베어스타운,포천시,내촌면,127.248291,37.7967269,,
106,LG스키장,LG滑雪场,LG滑雪場,Gyeonggi,2013 외래관광객실태조사,127.2837987,37.331614,곤지암리조트 스키장,광주시,도척면,127.2837987,37.331614,,
107,곤지암리조트,昆池岩度假村,昆池岩度假村,Gyeonggi,2013 외래관광객실태조사,127.2953076,37.3372414,곤지암리조트,광주시,도척면,127.2953076,37.3372414,,
108,청평리조트,清平度假村,清平度假村,Gyeonggi,2013 외래관광객실태조사,,,청평면,가평군,청평면,127.4293452,37.7297832,,
109,스키장,滑雪场,滑雪場,,2013 외래관광객실태조사,,,,,,,,,
110,신사동,新沙洞,新沙洞,Seoul,2013 외래관광객실태조사,127.0230659,37.5235332,신사동,강남구,신사동,127.0230659,37.5235332,,
111,용산,龙山,龍山,Seoul,2013 외래관광객실태조사,126.9798839,37.5313805,용산구,용산구,용산동3가,126.9798839,37.5313805,,
112,강남,江南,江南,Seoul,2013 외래관광객실태조사,127.0629804,37.4966645,강남구,강남구,대치동,127.0629804,37.4966645,,
113,압구정동,狎鸥亭洞,狎鷗亭洞,Seoul,2013 외래관광객실태조사,127.0334517,37.5271478,압구정동,강남구,신사동,127.0334517,37.5271478,,
114,신당동,新堂洞,新堂洞,Seoul,2013 외래관광객실태조사,127.01367,37.5579144,신당동,중구,신당동,127.01367,37.5579144,,
115,제기동,祭基洞,祭基洞,Seoul,2013 외래관광객실태조사,127.0372351,37.5837593,제기동,동대문구,제기동,127.0372351,37.5837593,,
116,종로,钟路,鐘路,Seoul,2013 외래관광객실태조사,126.977339,37.5949159,종로구,종로구,삼청동,126.977339,37.5949159,,
117,목동,木洞,木洞,Seoul,2013 외래관광객실태조사,126.8745334,37.5360367,목동,양천구,목동,126.8745334,37.5360367,,
118,신도림동,新道林洞,新道林洞,Seoul,2013 외래관광객실태조사,126.8822494,37.5099675,신도림동,구로구,신도림동,126.8822494,37.5099675,,
119,삼성동,三成洞,三成洞,Seoul,2013 외래관광객실태조사,127.0561274,37.513975,삼성동,강남구,삼성동,127.0561274,37.513975,,
120,장안동,长安洞,長安洞,Seoul,2013 외래관광객실태조사,127.0700249,37.570207,장안동,동대문구,장안동,127.0700249,37.570207,,
121,삼청동,三清洞,三清洞,Seoul,2013 외래관광객실태조사,126.9810164,37.5907651,삼청동,종로구,삼청동,126.9810164,37.5907651,,
122,혜화동/ 대학로,惠化洞/大学路,惠化洞/大學路,Seoul,2013 외래관광객실태조사,127.0016013,37.5782763,대학로,종로구,연건동,127.0016013,37.5782763,,
123,반포동,盘浦洞,盤浦洞,Seoul,2013 외래관광객실태조사,127.0007494,37.5039744,반포동,서초구,반포동,127.0007494,37.5039744,,
124,노량진,鹭梁津,鷺梁津,Seoul,2013 외래관광객실태조사,126.941687,37.514082,노량진역,동작구,노량진동,126.941687,37.514082,,
125,구로,九老,九老,Seoul,2013 외래관광객실태조사,126.8563336,37.4944134,구로구,구로구,개봉동,126.8563336,37.4944134,,
126,성북동,城北洞,城北洞,Seoul,2013 외래관광객실태조사,126.9978087,37.5952093,성북동,성북구,성북동,126.9978087,37.5952093,,
127,석계동,石溪洞,石溪洞,Seoul,2013 외래관광객실태조사,127.0657675,37.6150815,석계역,노원구,월계동,127.0657675,37.6150815,,
128,성수동,圣水洞,聖水洞,Seoul,2013 외래관광객실태조사,127.0566319,37.5406846,성수동,성동구,성수동2가,127.0566319,37.5406846,,
129,한남동,汉南洞,漢南洞,Seoul,2013 외래관광객실태조사,127.0051334,37.5375279,한남동,용산구,한남동,127.0051334,37.5375279,,
130,잠실,蚕室,蠶室,Seoul,2013 외래관광객실태조사,127.1001336,37.5132612,잠실역,송파구,신천동,127.1001336,37.5132612,,
131,안국동,安国洞,安國洞,Seoul,2013 외래관광객실태조사,126.9836297,37.5773998,안국동,종로구,안국동,126.9836297,37.5773998,,
132,대림동,大林洞,大林洞,Seoul,2013 외래관광객실태조사,126.9001326,37.4954266,대림동,영등포구,대림동,126.9001326,37.4954266,,
133,홍제동,弘济洞,弘濟洞,Seoul,2013 외래관광객실태조사,126.9489545,37.5870737,홍제동,서대문구,홍제동,126.9489545,37.5870737,,
134,송파동,松坡洞,松坡洞,Seoul,2013 외래관광객실태조사,127.1135469,37.5051072,송파동,송파구,송파동,127.1135469,37.5051072,,
135,수유리,水踰里,水踰里,Seoul,2013 외래관광객실태조사,127.0073721,37.6383275,수유동,강북구,수유동,127.0073721,37.6383275,,
136,서초동,瑞草洞,瑞草洞,Seoul,2013 외래관광객실태조사,127.0167954,37.4883869,서초동,서초구,서초동,127.0167954,37.4883869,,
137,평창동,平昌洞,平昌洞,Seoul,2013 외래관광객실태조사,126.9745028,37.6130288,평창동,종로구,평창동,126.9745028,37.6130288,,
138,논현동,论岘洞,論峴洞,Seoul,2013 외래관광객실태조사,127.0317124,37.5136787,논현동,강남구,논현동,127.0317124,37.5136787,,
139,충무로,忠武路,忠武路,Seoul,2013 외래관광객실태조사,126.9927416,37.5648394,충무로,중구,초동,126.9927416,37.5648394,,
140,청량리동,清凉里洞,清涼裡洞,Seoul,2013 외래관광객실태조사,127.0452806,37.5888074,청량리동,동대문구,청량리동,127.0452806,37.5888074,,
141,번동,樊洞,樊洞,Seoul,2013 외래관광객실태조사,127.0367452,37.629038,번동,강북구,번동,127.0367452,37.629038,,
142,독산동,秃山洞,禿山洞,Seoul,2013 외래관광객실태조사,126.8982935,37.4674733,독산동,금천구,독산동,126.8982935,37.4674733,,
143,양재동,良才洞,良才洞,Seoul,2013 외래관광객실태조사,127.0374623,37.4719823,양재동,서초구,양재동,127.0374623,37.4719823,,
144,서대문,西大门,西大門,Seoul,2013 외래관광객실태조사,126.9390623,37.5777796,서대문구,서대문구,연희동,126.9390623,37.5777796,,
145,역삼동,驿三洞,驛三洞,Seoul,2013 외래관광객실태조사,127.0385419,37.5000776,역삼동,강남구,역삼동,127.0385419,37.5000776,,
146,장안평동,长安坪洞,長安坪洞,Seoul,2013 외래관광객실태조사,127.0700249,37.570207,장안동,동대문구,장안동,127.0700249,37.570207,,
147,신천동,新川洞,新川洞,Seoul,2013 외래관광객실태조사,127.0989719,37.5239227,신천동,송파구,신천동,127.0989719,37.5239227,,
148,회현동,会贤洞,會賢洞,Seoul,2013 외래관광객실태조사,126.9776955,37.5576619,회현동,중구,남창동,126.9776955,37.5576619,,
149,대치동,大峙洞,大峙洞,Seoul,2013 외래관광객실태조사,127.0633458,37.4991887,대치동,강남구,대치동,127.0633458,37.4991887,,
150,광장동,广藏洞,廣藏洞,Seoul,2013 외래관광객실태조사,127.1047149,37.5478239,광장동,광진구,광장동,127.1047149,37.5478239,,
151,천호동,千户洞,千戶洞,Seoul,2013 외래관광객실태조사,127.1276202,37.5443765,천호동,강동구,천호동,127.1276202,37.5443765,,
152,이촌동,二村洞,二村洞,Seoul,2013 외래관광객실태조사,126.9665337,37.5174531,이촌동,용산구,이촌동,126.9665337,37.5174531,,
153,잠원동,蚕院洞,蠶院洞,Seoul,2013 외래관광객실태조사,127.0137779,37.5151065,잠원동,서초구,잠원동,127.0137779,37.5151065,,
154,화양동,华阳洞,華陽洞,Seoul,2013 외래관광객실태조사,127.07341,37.5432534,화양동,광진구,화양동,127.07341,37.5432534,,
155,신대방동,新大方洞,新大方洞,Seoul,2013 외래관광객실태조사,126.9171843,37.4926743,신대방동,동작구,신대방동,126.9171843,37.4926743,,
156,답십리동,踏十里洞,踏十里洞,Seoul,2013 외래관광객실태조사,127.0566992,37.5710195,답십리동,동대문구,답십리동,127.0566992,37.5710195,,
157,강변/테크노마트,Techno Mart江边店,Techno Mart江邊店,Seoul,2013 외래관광객실태조사,127.095505,37.5355072,테크노마트,광진구,구의동,127.095505,37.5355072,,
158,도봉산,道峰山,道峰山,Seoul,2013 외래관광객실태조사,127.0156843,37.7004635,도봉산,도봉구,도봉동,127.0156843,37.7004635,,
159,서울예술회관,艺术殿堂,藝術殿堂,Seoul,2013 외래관광객실태조사,127.0128613,37.4792903,예술의전당,서초구,서초동,127.0128613,37.4792903,,
160,인왕산,仁王山,仁王山,Seoul,2013 외래관광객실태조사,126.9593042,37.5849489,인왕산,종로구,옥인동,126.9593042,37.5849489,,
161,북한산,北汉山,北漢山,Seoul,2013 외래관광객실태조사,126.993333,37.660833,북한산,강북구,우이동,126.993333,37.660833,,
162,소요산,逍遥山,逍遙山,Gyeonggi,2013 외래관광객실태조사,127.0878091,37.9426296,소요산,동두천시,상봉암동,127.0878091,37.9426296,,
163,강북,江北,江北,Seoul,2013 외래관광객실태조사,127.0111839,37.6434801,강북구,강북구,수유동,127.0111839,37.6434801,,
164,광장시장,广藏市场,廣藏市場,Seoul,2013 외래관광객실태조사,126.9996036,37.5700398,광장시장,종로구,예지동,126.9996036,37.5700398,,
165,경동시장,京东市场,京東市場,Seoul,2013 외래관광객실태조사,127.03854,37.57973,경동시장,동대문구,제기동,127.03854,37.57973,,
166,노량진수산시장,鹭梁津水产市场,鷺梁津水產市場,Seoul,2013 외래관광객실태조사,126.9389205,37.5149238,노량진수산시장,동작구,노량진동,126.9389205,37.5149238,,
167,국기원,国技院,國技院,Seoul,2013 외래관광객실태조사,127.0302469,37.501965,국기원,강남구,역삼동,127.0302469,37.501965,,
168,서대문형무소,西大门刑务所,西大門刑務所,Seoul,2013 외래관광객실태조사,126.956071,37.574271,서대문 형무소,서대문구,현저동,126.956071,37.574271,,
169,국립현충원,国立首尔显忠院,國立首爾顯忠院,Seoul,2013 외래관광객실태조사,126.9737649,37.5016918,국립현충원,동작구,동작동,126.9737649,37.5016918,,
170,종묘,宗庙,宗廟,Seoul,2013 외래관광객실태조사,126.994143,37.574583,종묘,종로구,훈정동,126.994143,37.574583,,
171,봉은사,奉恩寺,奉恩寺,Seoul,2013 외래관광객실태조사,127.0573766,37.514852,봉은사,강남구,삼성동,127.0573766,37.514852,,
172,조계사,曹溪寺,曹溪寺,Seoul,2013 외래관광객실태조사,126.982202,37.5738369,조계사,종로구,견지동,126.982202,37.5738369,,
173,능동,陵洞,陵洞,Seoul,2013 외래관광객실태조사,127.0817378,37.5505785,능동,광진구,능동,127.0817378,37.5505785,,
174,군자동,君子洞,君子洞,Seoul,2013 외래관광객실태조사,127.0736767,37.5530406,군자동,광진구,군자동,127.0736767,37.5530406,,
175,마포,麻浦,麻浦,Seoul,2013 외래관광객실태조사,126.9082589,37.5593115,마포구,마포구,성산동,126.9082589,37.5593115,,
176,가산디지털단지,加山数码园区,加山數碼園區,Seoul,2013 외래관광객실태조사,126.882652,37.48144,가산디지털단지역,금천구,가산동,126.882652,37.48144,,
177,평동,平洞,平洞,Seoul,2013 외래관광객실태조사,126.9668616,37.5679159,평동,종로구,평동,126.9668616,37.5679159,,
178,봉천동,奉天洞,奉天洞,Seoul,2013 외래관광객실태조사,126.9534883,37.4779671,봉천동,관악구,봉천동,126.9534883,37.4779671,,
179,방배동,方背洞,方背洞,Seoul,2013 외래관광객실태조사,126.9931207,37.4794939,방배동,서초구,방배동,126.9931207,37.4794939,,
180,문래동,文来洞,文來洞,Seoul,2013 외래관광객실태조사,126.891505,37.516637,문래동,영등포구,문래동3가,126.891505,37.516637,,
181,북창동,北仓洞,北倉洞,Seoul,2013 외래관광객실태조사,126.978205,37.5624528,북창동,중구,북창동,126.978205,37.5624528,,
182,사당동,舍堂洞,舍堂洞,Seoul,2013 외래관광객실태조사,126.9772568,37.4798074,사당동,동작구,사당동,126.9772568,37.4798074,,
183,구의동,九宜洞,九宜洞,Seoul,2013 외래관광객실태조사,127.092844,37.5444007,구의동,광진구,구의동,127.092844,37.5444007,,
184,합정동,合井洞,合井洞,Seoul,2013 외래관광객실태조사,126.9111751,37.5483014,합정동,마포구,합정동,126.9111751,37.5483014,,
185,신림동,新林洞,新林洞,Seoul,2013 외래관광객실태조사,126.9358124,37.4631968,신림동,관악구,신림동,126.9358124,37.4631968,,
186,암사동,岩寺洞,巖寺洞,Seoul,2013 외래관광객실태조사,127.1310675,37.5578058,암사동,강동구,암사동,127.1310675,37.5578058,,
187,가락동,可乐洞,可樂洞,Seoul,2013 외래관광객실태조사,127.1184047,37.4956865,가락동,송파구,가락동,127.1184047,37.4956865,,
188,옥수동,玉水洞,玉水洞,Seoul,2013 외래관광객실태조사,127.013956,37.5438285,옥수동,성동구,옥수동,127.013956,37.5438285,,
189,당산동,堂山洞,堂山洞,Seoul,2013 외래관광객실태조사,126.9040058,37.5364736,당산동,영등포구,당산동,126.9040058,37.5364736,,
190,홍은동,弘恩洞,弘恩洞,Seoul,2013 외래관광객실태조사,126.9385581,37.5930107,홍은동,서대문구,홍은동,126.9385581,37.5930107,,
191,가양동,加阳洞,加陽洞,Seoul,2013 외래관광객실태조사,126.8510787,37.5678802,가양동,강서구,가양동,126.8510787,37.5678802,,
192,개봉동,开峰洞,開峰洞,Seoul,2013 외래관광객실태조사,126.8519326,37.4942409,개봉동,구로구,개봉동,126.8519326,37.4942409,,
193,견지동,坚志洞,堅志洞,Seoul,2013 외래관광객실태조사,126.9830126,37.5735218,견지동,종로구,견지동,126.9830126,37.5735218,,
194,부암동,付岩洞,付巖洞,Seoul,2013 외래관광객실태조사,126.9624425,37.5975499,부암동,종로구,부암동,126.9624425,37.5975499,,
195,충정로,忠正路,忠正路,Seoul,2013 외래관광객실태조사,126.9645745,37.562683,충정로,서대문구,충정로3가,126.9645745,37.562683,,
196,공덕동,孔德洞,孔德洞,Seoul,2013 외래관광객실태조사,126.9549965,37.5481125,공덕동,마포구,공덕동,126.9549965,37.5481125,,
197,개포동,开浦洞,開浦洞,Seoul,2013 외래관광객실태조사,127.0626272,37.4802905,개포동,강남구,개포동,127.0626272,37.4802905,,
198,소공동,小公洞,小公洞,Seoul,2013 외래관광객실태조사,126.9749183,37.5644131,소공동,중구,서소문동,126.9749183,37.5644131,,
199,남영동,南营洞,南營洞,Seoul,2013 외래관광객실태조사,126.9745456,37.5458902,남영동,용산구,갈월동,126.9745456,37.5458902,,
200,연희동,延禧洞,延禧洞,Seoul,2013 외래관광객실태조사,126.9309364,37.5715365,연희동,서대문구,연희동,126.9309364,37.5715365,,
201,홍익대학교,弘益大学,弘益大學,Seoul,2013 외래관광객실태조사,126.9254901,37.5507563,홍익대학교,마포구,상수동,126.9254901,37.5507563,,
202,이화여자대학교,梨花女子大学,梨花女子大學,Seoul,2013 외래관광객실태조사,126.9468339,37.5618588,이화여자대학교,서대문구,대현동,126.9468339,37.5618588,,
203,서울대학교,首尔大学,首爾大學,Seoul,2013 외래관광객실태조사,126.9511364,37.4593505,서울대학교,관악구,신림동,126.9511364,37.4593505,,
204,숭실대학교,崇实大学,崇實大學,Seoul,2013 외래관광객실태조사,126.9572222,37.4963538,숭실대학교,동작구,상도동,126.9572222,37.4963538,,
205,성균관대학교,成均馆大学,成均館大學,Seoul,2013 외래관광객실태조사,126.993606,37.588227,성균관대학교,종로구,명륜3가,126.993606,37.588227,,
206,한양대학교,汉阳大学,漢陽大學,Seoul,2013 외래관광객실태조사,127.0454092,37.5571759,한양대학교,성동구,행당동,127.0454092,37.5571759,,
207,고려대학교,高丽大学,高麗大學,Seoul,2013 외래관광객실태조사,127.0324773,37.5893876,고려대학교,성북구,안암동5가,127.0324773,37.5893876,,
208,경희대학교,庆熙大学,慶熙大學,Seoul,2013 외래관광객실태조사,127.0518435,37.5968367,경희대학교,동대문구,회기동,127.0518435,37.5968367,,
209,연세대학교,延世大学,延世大學,Seoul,2013 외래관광객실태조사,126.9387066,37.5663937,연세대학교,서대문구,신촌동,126.9387066,37.5663937,,
210,한국체육대학교,韩国体育大学,韓國體育大學,Seoul,2013 외래관광객실태조사,127.1309837,37.5196266,한국체육대학교,송파구,방이동,127.1309837,37.5196266,,
211,숙명여자대학교,淑明女子大学,淑明女子大學,Seoul,2013 외래관광객실태조사,126.9646916,37.546475,숙명여자대학교,용산구,청파동2가,126.9646916,37.546475,,
212,서울시립대학교,首尔市立大学,首爾市立大學,Seoul,2013 외래관광객실태조사,127.0587771,37.5838657,서울시립대학교,동대문구,전농동,127.0587771,37.5838657,,
213,서강대학교,西江大学,西江大學,Seoul,2013 외래관광객실태조사,126.9410023,37.5509442,서강대학교,마포구,대흥동,126.9410023,37.5509442,,
214,폴리텍대학,韩国产业技术大学,韓國產業技術大學,Seoul,2013 외래관광객실태조사,126.996542,37.5290615,폴리텍대학,용산구,보광동,126.996542,37.5290615,,
215,동국대학교,东国大学,東國大學,Seoul,2013 외래관광객실태조사,127.0001671,37.5582876,동국대학교,중구,장충동2가,127.0001671,37.5582876,,
216,한국외국어대학교,韩国外国语大学,韓國外國語大學,Seoul,2013 외래관광객실태조사,127.0588002,37.5974453,한국외국어대학교,동대문구,이문동,127.0588002,37.5974453,,
217,건국대학교,建国大学,建國大學,Seoul,2013 외래관광객실태조사,127.0759204,37.5423265,건국대학교,광진구,화양동,127.0759204,37.5423265,,
218,성신여자대학교,诚信女子大学,誠信女子大學,Seoul,2013 외래관광객실태조사,127.0221068,37.5912999,성신여자대학교,성북구,돈암동,127.0221068,37.5912999,,
219,삼육대학교,三育大学,三育大學,Seoul,2013 외래관광객실태조사,127.1063459,37.6435824,삼육대학교,노원구,공릉동,127.1063459,37.6435824,,
220,인하대학교,仁荷大学,仁荷大學,Incheon,2013 외래관광객실태조사,126.653488,37.4500221,인하대학교,미추홀구,용현동,126.653488,37.4500221,,
221,세종대학교,世宗大学,世宗大學,Seoul,2013 외래관광객실태조사,127.0736345,37.5518018,세종대학교,광진구,군자동,127.0736345,37.5518018,,
222,흑석동,黑石洞,黑石洞,Seoul,2013 외래관광객실태조사,126.962349,37.5055033,흑석동,동작구,흑석동,126.962349,37.5055033,,
223,어린이대공원,儿童大公园,兒童大公園,Seoul,2013 외래관광객실태조사,127.0818126,37.549363,어린이대공원,광진구,능동,127.0818126,37.549363,,
224,서울숲,首尔林,首爾林,Seoul,2013 외래관광객실태조사,127.0374424,37.5443878,서울숲,성동구,성수동1가,127.0374424,37.5443878,,
225,연평도,延坪岛,延坪島,Incheon,2013 외래관광객실태조사,125.6898155,37.659501,연평도,옹진군,연평면,125.6898155,37.659501,,
226,인천,仁川,仁川,Incheon,2013 외래관광객실태조사,,,,,,,,,
227,부천,富川市,富川市,Gyeonggi,2013 외래관광객실태조사,126.7886531,37.5042687,부천시,부천시,춘의동,126.7886531,37.5042687,,
228,인천대학교,仁川大学,仁川大學,Incheon,2013 외래관광객실태조사,126.6322345,37.3749658,인천대학교,연수구,송도동,126.6322345,37.3749658,,
229,전등사,传灯寺,傳燈寺,Incheon,2013 외래관광객실태조사,126.4845478,37.6317933,전등사,강화군,길상면,126.4845478,37.6317933,,
230,오산,乌山,烏山,Gyeonggi,2013 외래관광객실태조사,127.0513324,37.1632991,오산시,오산시,궐동,127.0513324,37.1632991,,
231,가평,加平,加平,Gyeonggi,2013 외래관광객실태조사,127.4502156,37.8184719,가평군,가평군,가평읍,127.4502156,37.8184719,,
232,안양,安阳,安陽,Gyeonggi,2013 외래관광객실태조사,126.9279179,37.4027313,안양시,안양시 동안구,비산동,126.9279179,37.4027313,,
233,청평,清平,清平,Gyeonggi,2013 외래관광객실태조사,127.4293452,37.7297832,청평면,가평군,청평면,127.4293452,37.7297832,,
234,김포,金浦,金浦,Gyeonggi,2013 외래관광객실태조사,126.6265338,37.6818227,김포시,김포시,통진읍,126.6265338,37.6818227,,
235,이천,利川,利川,Gyeonggi,2013 외래관광객실태조사,127.4810494,37.2097769,이천시,이천시,대월면,127.4810494,37.2097769,,
236,광주 (경기),光州（京畿道）,光州（京畿道）,Gyeonggi,2013 외래관광객실태조사,127.3011624,37.4030854,경기 광주시,광주시,초월읍,127.3011624,37.4030854,,
237,양주,杨州,楊州,Gyeonggi,2013 외래관광객실태조사,127.001143,37.8086632,양주시,양주시,백석읍,127.001143,37.8086632,,
238,성남,城南,城南,Gyeonggi,2013 외래관광객실태조사,127.1162181,37.4073695,성남시,성남시 분당구,삼평동,127.1162181,37.4073695,,
239,평택,平泽,平澤,Gyeonggi,2013 외래관광객실태조사,126.9941853,37.0159677,평택시,평택시,오성면,126.9941853,37.0159677,,
240,안산,安山,安山,Gyeonggi,2013 외래관광객실태조사,126.8308848,37.3218778,안산시,안산시 단원구,고잔동,126.8308848,37.3218778,,
241,의정부,议政府,議政府,Gyeonggi,2013 외래관광객실태조사,127.0684356,37.7361884,의정부시,의정부시,신곡동,127.0684356,37.7361884,,
242,군포,军浦,軍浦,Gyeonggi,2013 외래관광객실태조사,126.9211003,37.3434691,군포시,군포시,산본동,126.9211003,37.3434691,,
243,용인,龙仁,龍仁,Gyeonggi,2013 외래관광객실태조사,127.2218612,37.2214872,용인시,용인시 처인구,남동,127.2218612,37.2214872,,
244,양평군,杨平郡,楊平郡,Gyeonggi,2013 외래관광객실태조사,127.5792445,37.5180465,양평군,양평군,용문면,127.5792445,37.5180465,,
245,일산,一山,一山,Gyeonggi,2013 외래관광객실태조사,126.7711774,37.6783756,일산,고양시 일산서구,일산동,126.7711774,37.6783756,,
246,남양주,南杨州,南楊州,Gyeonggi,2013 외래관광객실태조사,127.2436632,37.6625097,남양주시,남양주시,호평동,127.2436632,37.6625097,,
247,동두천,东豆川,東豆川,Gyeonggi,2013 외래관광객실태조사,127.0779171,37.916543,동두천시,동두천시,걸산동,127.0779171,37.916543,,
248,시흥,始兴,始興,Gyeonggi,2013 외래관광객실태조사,126.7841675,37.3864796,시흥시,시흥시,장곡동,126.7841675,37.3864796,,
249,파주,坡州,坡州,Gyeonggi,2013 외래관광객실태조사,126.8115232,37.8544244,파주시,파주시,파주읍,126.8115232,37.8544244,,
250,안성,安城,安城,Gyeonggi,2013 외래관광객실태조사,127.3027301,37.035033,안성시,안성시,보개면,127.3027301,37.035033,,
251,여주,骊州,驪州,Gyeonggi,2013 외래관광객실태조사,127.6157502,37.3024585,여주시,여주시,세종대왕면,127.6157502,37.3024585,,
252,의왕시,义王市,義王市,Gyeonggi,2013 외래관광객실태조사,126.9896996,37.3624626,의왕시,의왕시,오전동,126.9896996,37.3624626,,
253,포천,抱川,抱川,Gyeonggi,2013 외래관광객실태조사,127.2502925,37.9697852,포천시,포천시,영중면,127.2502925,37.9697852,,
254,광명시,光明市,光明市,Gyeonggi,2013 외래관광객실태조사,126.8646989,37.4451612,광명시,광명시,하안동,126.8646989,37.4451612,,
255,하남시,河南市,河南市,Gyeonggi,2013 외래관광객실태조사,127.2059921,37.5228824,하남시,하남시,교산동,127.2059921,37.5228824,,
256,화성시,华城市,華城市,Gyeonggi,2013 외래관광객실태조사,126.8654604,37.1616306,화성시,화성시,팔탄면,126.8654604,37.1616306,,
257,구리시,九里市,九里市,Gyeonggi,2013 외래관광객실태조사,127.1313079,37.5990186,구리시,구리시,교문동,127.1313079,37.5990186,,
258,연천,涟川,漣川,Gyeonggi,2013 외래관광객실태조사,127.0275846,38.0964416,연천군,연천군,군남면,127.0275846,38.0964416,,
259,과천,果川,果川,Gyeonggi,2013 외래관광객실태조사,127.0027656,37.4338294,과천시,과천시,막계동,127.0027656,37.4338294,,
260,킨택스,KINTEX,KINTEX,Gyeonggi,2013 외래관광객실태조사,126.7434475,37.6672007,킨텍스,고양시 일산서구,대화동,126.7434475,37.6672007,,
261,남한산성,南汉山城,南漢山城,Gyeonggi,2013 외래관광객실태조사,127.1846118,37.4815237,남한산성,광주시,남한산성면,127.1846118,37.4815237,,
262,청계산,清溪山,清溪山,Gyeonggi,2013 외래관광객실태조사,127.0415787,37.4141657,청계산,의왕시,청계동,127.0415787,37.4141657,,
263,제부도,济扶岛,濟扶島,Gyeonggi,2013 외래관광객실태조사,126.6241539,37.1707991,제부도,화성시,서신면,126.6241539,37.1707991,,
264,오이도,乌耳岛,烏耳島,Gyeonggi,2013 외래관광객실태조사,126.6874271,37.3455802,오이도,시흥시,정왕동,126.6874271,37.3455802,,
265,무의도,舞衣岛,舞衣島,Incheon,2013 외래관광객실태조사,126.4155849,37.3918796,무의도,중구,무의동,126.4155849,37.3918796,,
266,대진대학교,大真大学,大真大學,Gyeonggi,2013 외래관광객실태조사,127.1566485,37.871337,대진대학교,포천시,선단동,127.1566485,37.871337,,
267,아주대학교,亚洲大学,亞洲大學,Gyeonggi,2013 외래관광객실태조사,127.0463409,37.2820187,아주대학교,수원시 영통구,원천동,127.0463409,37.2820187,,
268,용인대학교,龙仁大学,龍仁大學,Gyeonggi,2013 외래관광객실태조사,127.1681805,37.2266747,용인대학교,용인시 처인구,삼가동,127.1681805,37.2266747,,
269,고궁,古宫,古宮,Seoul,2014 외래관광객실태조사,,,경복궁,종로구,세종로,126.977041,37.579617,,
270,박물관(기념관),博物馆(纪念馆),博物館(紀念館),Seoul,2014 외래관광객실태조사,,,국립중앙박물관,용산구,용산동6가,126.9804702,37.5238506,,
271,인사동,仁寺洞,仁寺洞,Seoul,2014 외래관광객실태조사,126.9860732,37.5717174,인사동,종로구,인사동,126.9860732,37.5717174,,
272,남산/N서울타워,南山/N首尔塔,南山/N首爾塔,Seoul,2014 외래관광객실태조사,,,남산,용산구,후암동,126.9809696,37.5537586,,
273,명동,明洞,明洞,Seoul,2014 외래관광객실태조사,126.9858296,37.55998,명동,중구,남산동2가,126.9858296,37.55998,,
274,남대문시장,南大门市场,南大門市場,Seoul,2014 외래관광객실태조사,126.9776692,37.5591786,남대문시장,중구,남창동,126.9776692,37.5591786,,
275,코엑스,COEX,COEX,Seoul,2014 외래관광객실태조사,127.0595931,37.5113686,코엑스,강남구,삼성동,127.0595931,37.5113686,,
276,동대문시장,东大门市场,東大門市場,Seoul,2014 외래관광객실태조사,127.0081119,37.5707806,동대문시장,종로구,종로6가,127.0081119,37.5707806,,
277,이태원,梨泰院,梨泰院,Seoul,2014 외래관광객실태조사,126.9925224,37.5385051,이태원,용산구,이태원동,126.9925224,37.5385051,,
278,잠실(롯데월드),蚕室(乐天世界),蠶室(樂天世界),Seoul,2014 외래관광객실태조사,127.098167,37.5111158,롯데월드,송파구,잠실동,127.098167,37.5111158,,
279,여의도(63빌딩),汝矣岛(63大厦),汝矣島(63大廈),Seoul,2014 외래관광객실태조사,126.9401255,37.5197159,63빌딩,영등포구,여의도동,126.9401255,37.5197159,,
280,한강/유람선,汉江/游船,漢江/遊覽船,Seoul,2014 외래관광객실태조사,,,한강유람선,영등포구,여의도동,126.9384944,37.5257811,,
281,청계천/광화문광장,清溪川/光化门广场,清溪川/光化門廣場,Seoul,2014 외래관광객실태조사,,,광화문광장,종로구,세종로,126.9769117,37.572389,,
282,신촌/홍대주변,新村/弘大周围,新村/弘大周圍,Seoul,2014 외래관광객실태조사,,,홍대거리,마포구,서교동,126.9241498,37.5558499,,
283,DMC/월드컵 경기장,DMC/世界杯体育场,DMC/世界盃體育場,Seoul,2014 외래관광객실태조사,126.8972735,37.5682617,월드컵 경기장,마포구,성산동,126.8972735,37.5682617,DMC/世界盃赛场,번체/간체 번역의 생소한 표현
284,한옥마을(남산),韩屋村(南山),韓屋村(南山),Seoul,2014 외래관광객실태조사,126.994477,37.559315,남산골 한옥마을,중구,필동2가,126.994477,37.559315,,
285,북촌/삼청동,北村/三清洞,北村/三清洞,Seoul,2014 외래관광객실태조사,,,북촌,종로구,가회동,126.9849519,37.5814696,,
286,청담동/압구정동,清潭洞/狎鸥亭洞,清潭洞/狎鷗亭洞,Seoul,2014 외래관광객실태조사,,,청담동,강남구,청담동,127.0479736,37.5233931,,
287,가로수길,林荫树街,林蔭樹街,Seoul,2014 외래관광객실태조사,127.0228686,37.5210566,가로수길,강남구,신사동,127.0228686,37.5210566,,
288,강남역,江南站,江南站,Seoul,2014 외래관광객실태조사,127.027619,37.497952,강남역,강남구,역삼동,127.027619,37.497952,,
289,월미도/차이나타운·개항장/연안부두,月尾岛/唐人街/开港场/沿岸埠头,月尾島/唐人街/開港場/沿岸埠頭,Incheon,2014 외래관광객실태조사,,,인천 차이나타운,중구,북성동2가,126.6178849,37.475589,,
290,송도,松岛,松島,Incheon,2014 외래관광객실태조사,126.6389202,37.3860959,송도,연수구,송도동,126.6389202,37.3860959,,
291,강화도(석모도/연등선원),江华岛(石母岛/莲灯禅院),江華島(石母島/蓮燈禪院),Incheon,2014 외래관광객실태조사,,,강화도,강화군,불은면,126.4511281,37.7131742,"江华岛(石母岛/联动船员)
江華島(石母島/聯動船員)",번체/간체 오역 사례
292,영종도/공항주변/인천대교,永宗岛/机场周边/仁川大桥,永宗島/機場周邊/仁川大橋,Incheon,2014 외래관광객실태조사,,,영종도,중구,운남동,126.5358479,37.5000629,,
293,소래포구,苏来浦口,蘇來浦口,Incheon,2014 외래관광객실태조사,126.7407213,37.3987976,소래포구,남동구,논현동,126.7407213,37.3987976,,
294,옹진(해수욕장),瓮津(海水浴场),瓮津(海水浴場),Incheon,2014 외래관광객실태조사,124.6778869,37.9535884,옹진군,옹진군,백령면,124.6778869,37.9535884,,
295,무의도,舞衣岛,舞衣島,Incheon,2014 외래관광객실태조사,126.4155849,37.3918796,무의도,중구,무의동,126.4155849,37.3918796,,
296,에버랜드/캐리비안베이,爱宝乐园/加勒比海湾,愛寶樂園/加勒比海灣,Gyeonggi,2014 외래관광객실태조사,,,에버랜드,용인시 처인구,포곡읍,127.2025664,37.2939104,,
297,수원화성/화성행궁,水原华城/华城行宫,水原華城行宮,Gyeonggi,2014 외래관광객실태조사,,,수원화성,수원시 장안구,영화동,127.0119379,37.2871202,,
298,임진각평화누리/제3땅꿀/오두산 통일전망대/판문점,临津阁/第三隧道/乌头山统一展望台/板门店,臨津閣/第三隧道/烏頭山統一展望台/板門店,Gyeonggi,2014 외래관광객실태조사,,,임진각,파주시,문산읍,126.7402185,37.8897444,"临津阁/第三蜜路/五斗山统一瞭望台/板门店
臨津閣/第三蜜路/五斗山統一瞭望台/板門店",간체 오역 사례
299,한국민속촌,韩国民俗村,民俗村,Gyeonggi,2014 외래관광객실태조사,127.1181126,37.258939,한국민속촌,용인시 기흥구,보라동,127.1181126,37.258939,,
300,서울랜드/서울대공원,首尔乐园/首尔大公园,首爾樂園/首爾大公園,Gyeonggi,2014 외래관광객실태조사,,,서울대공원,과천시,막계동,127.0170252,37.4275247,,
301,킨텍스,KINTEX,KINTEX,Gyeonggi,2014 외래관광객실태조사,126.7434475,37.6672007,킨텍스,고양시 일산서구,대화동,126.7434475,37.6672007,,
302,헤이리예술마을,HEYRI艺术村,HEYRI藝術村,Gyeonggi,2014 외래관광객실태조사,126.698722,37.7888414,헤이리예술마을,파주시,탄현면,126.698722,37.7888414,"国际艺术村
國際藝術村",번체/간체 번역의 생소한 표현
303,파주 쇼핑아울렛,坡州Outlet,坡州Outlet,Gyeonggi,2014 외래관광객실태조사,126.6970148,37.7691847,파주 쇼핑아울렛,파주시,탄현면,126.6970148,37.7691847,"坡州直销商场
坡州直銷商場",번체/간체 번역의 생소한 표현
304,여주 쇼핑아울렛,骊州Outlet,驪州Outlet,Gyeonggi,2014 외래관광객실태조사,127.6123488,37.2413256,여주 쇼핑아울렛,여주시,상거동,127.6123488,37.2413256,"骊州直销商场
驪州直銷商場",번체/간체 번역의 생소한 표현
305,포천(허브아일랜드),抱川(香草岛乐园),抱川(香草島樂園),Gyeonggi,2014 외래관광객실태조사,127.131773,37.9654806,포천 허브아일랜드,포천시,신북면,127.131773,37.9654806,"抱川(薰衣草鸟乐园)
抱川(薰衣草鳥樂園)",번체/간체 번역의 생소한 표현
306,부천(웅진플레이도시),富川(熊津游乐城),富川(熊津遊樂城),Gyeonggi,2014 외래관광객실태조사,126.7449357,37.4999116,부천 웅진플레이도시,부천시,상동,126.7449357,37.4999116,,
307,양평(두물머리/레일바이크),杨平(两水头/铁路自行车),楊平(兩水頭/鐵路自行車),Gyeonggi,2014 외래관광객실태조사,,,양평군,양평군,용문면,127.5792445,37.5180465,"杨萍(斗水头/铁路自行车)
楊萍(斗水頭/鐵路自行車)",번체/간체 번역의 생소한 표현
308,가평(자라섬/쁘띠프랑스),加平(龟岛/小法兰西),加平(鱉島/小法國村),Gyeonggi,2014 외래관광객실태조사,,,가평군,가평군,가평읍,127.4502156,37.8184719,"贾平(龟岛/小法兰西)
賈平(龜島/小法蘭西)",번체/간체 번역의 생소한 표현
309,안산(대부도/시화호),鞍山(大釜岛/始华湖),鞍山(大釜島/始華湖),Gyeonggi,2014 외래관광객실태조사,,,안산 대부도,안산시 단원구,대부북동,126.5786286,37.2415397,,
310,스키장(지산/양지/베어스타운),滑雪场(芝山/阳智/熊城),滑雪場(芝山/陽智/熊城滑雪場),Gyeonggi,2014 외래관광객실태조사,,,,,,,,"滑雪场(芝山/朝阳/熊塔)
滑雪場(芝山/朝陽/熊成滑雪場)",번체/간체 번역의 생소한 표현
311,동두천(한탄강),东斗川(汉滩江),東斗川(漢灘江),Gyeonggi,2014 외래관광객실태조사,127.010833,38.004722,동두천 한탄강,연천군,전곡읍,127.010833,38.004722,,
312,평택시(송탄 로데오거리),平泽(松丹路五岔口),平澤(松丹路五岔口),Gyeonggi,2014 외래관광객실태조사,127.0508323,37.076363,평택 송탄 로데오거리,평택시,신장동,127.0508323,37.076363,,
313,서대문,西大门,西大門,Seoul,2014 외래관광객실태조사,126.9390623,37.5777796,서대문구,서대문구,연희동,126.9390623,37.5777796,,
314,노원,芦原,蘆原,Seoul,2014 외래관광객실태조사,127.075042,37.6525076,노원구,노원구,중계동,127.075042,37.6525076,,
315,송파,松坡,松坡,Seoul,2014 외래관광객실태조사,127.1152992,37.5056205,송파구,송파구,송파동,127.1152992,37.5056205,,
316,혜화,惠化,惠化,Seoul,2014 외래관광객실태조사,127.001893,37.58217,혜화역,종로구,동숭동,127.001893,37.58217,,
317,서울역,首尔站,首爾站,Seoul,2014 외래관광객실태조사,126.972317,37.555946,서울역,중구,봉래동2가,126.972317,37.555946,,
318,종로,钟路,鐘路,Seoul,2014 외래관광객실태조사,126.977339,37.5949159,종로구,종로구,삼청동,126.977339,37.5949159,,
319,시청,市听,市聽,Seoul,2014 외래관광객실태조사,126.9782038,37.5665851,서울시청,중구,태평로1가,126.9782038,37.5665851,,
320,청와대,青瓦台,青瓦臺,Seoul,2014 외래관광객실태조사,126.974811,37.5866076,청와대,종로구,세종로,126.974811,37.5866076,,
321,대학로,大学路,大學路,Seoul,2014 외래관광객실태조사,127.0016013,37.5782763,대학로,종로구,연건동,127.0016013,37.5782763,,
322,마포,麻浦,麻浦,Seoul,2014 외래관광객실태조사,126.9082589,37.5593115,마포구,마포구,성산동,126.9082589,37.5593115,,
323,충무로,忠武路,忠武路,Seoul,2014 외래관광객실태조사,126.9927416,37.5648394,충무로,중구,초동,126.9927416,37.5648394,,
324,충무아트홀,忠武艺术中心,忠武藝術中心,Seoul,2014 외래관광객실태조사,127.0148592,37.5659291,충무아트홀,중구,흥인동,127.0148592,37.5659291,,
325,장충동,奖忠洞,獎忠洞,Seoul,2014 외래관광객실태조사,127.0035937,37.5580498,장충동,중구,장충동2가,127.0035937,37.5580498,,
326,상암동,上岩洞,上岩洞,Seoul,2014 외래관광객실태조사,126.8798744,37.5707485,상암동,마포구,상암동,126.8798744,37.5707485,,
327,이촌동,二村洞,二村洞,Seoul,2014 외래관광객실태조사,126.9665337,37.5174531,이촌동,용산구,이촌동,126.9665337,37.5174531,,
328,가산디지털단지,加山数码园区,加山數碼園區,Seoul,2014 외래관광객실태조사,126.882652,37.48144,가산디지털단지역,금천구,가산동,126.882652,37.48144,,
329,구로,九老,九老,Seoul,2014 외래관광객실태조사,126.8563336,37.4944134,구로구,구로구,개봉동,126.8563336,37.4944134,,
330,광장시장,广藏市场,廣藏市場,Seoul,2014 외래관광객실태조사,126.9996036,37.5700398,광장시장,종로구,예지동,126.9996036,37.5700398,,
331,금천,衿川,衿川,Seoul,2014 외래관광객실태조사,126.9008183,37.4605655,금천구,금천구,독산동,126.9008183,37.4605655,,
332,독산,秃山,禿山,Seoul,2014 외래관광객실태조사,126.8982935,37.4674733,독산동,금천구,독산동,126.8982935,37.4674733,,
333,노량진,鹭梁津,鷺梁津,Seoul,2014 외래관광객실태조사,126.941687,37.514082,노량진역,동작구,노량진동,126.941687,37.514082,,
334,답십리,踏十里,踏十里,Seoul,2014 외래관광객실태조사,127.052382,37.567072,답십리역,성동구,용답동,127.052382,37.567072,,
335,목동,木洞,木洞,Seoul,2014 외래관광객실태조사,126.8745334,37.5360367,목동,양천구,목동,126.8745334,37.5360367,,
336,장안평,长安坪,長安坪,Seoul,2014 외래관광객실태조사,127.064657,37.561472,장한평역,동대문구,장안동,127.064657,37.561472,,
337,신당동,新堂洞,新堂洞,Seoul,2014 외래관광객실태조사,127.01367,37.5579144,신당동,중구,신당동,127.01367,37.5579144,,
338,신천동,新川洞,新川洞,Seoul,2014 외래관광객실태조사,127.0989719,37.5239227,신천동,송파구,신천동,127.0989719,37.5239227,,
339,건대입구,建国大学入口,建國大學入口,Seoul,2014 외래관광객실태조사,127.069276,37.540372,건대입구역,광진구,자양동,127.069276,37.540372,,
340,이화여자대학교,梨花女子大学,梨花女子大學,Seoul,2014 외래관광객실태조사,126.9468339,37.5618588,이화여자대학교,서대문구,대현동,126.9468339,37.5618588,,
341,서울교육대학교,首尔教育大学,首爾教育大學,Seoul,2014 외래관광객실태조사,127.0162346,37.4901737,서울교육대학교,서초구,서초동,127.0162346,37.4901737,,
342,고속버스터미널,高速巴士总站,高速巴士總站,Seoul,2014 외래관광객실태조사,127.0049151,37.5049142,고속버스터미널,서초구,반포동,127.0049151,37.5049142,,
343,남부터미널,南部客运站,南部客運站,Seoul,2014 외래관광객실태조사,127.015564,37.484524,남부터미널,서초구,서초동,127.015564,37.484524,,
344,반포,盘浦,盤浦,Seoul,2014 외래관광객실태조사,127.011741,37.508221,반포역,서초구,잠원동,127.011741,37.508221,,
345,서초구,瑞草区,瑞草區,Seoul,2014 외래관광객실태조사,127.0312101,37.4732933,서초구,서초구,양재동,127.0312101,37.4732933,,
346,잠원동,蚕院洞,蠶院洞,Seoul,2014 외래관광객실태조사,127.0137779,37.5151065,잠원동,서초구,잠원동,127.0137779,37.5151065,,
347,역삼동,驿三洞,驛三洞,Seoul,2014 외래관광객실태조사,127.0385419,37.5000776,역삼동,강남구,역삼동,127.0385419,37.5000776,,
348,삼성동,三成洞,三成洞,Seoul,2014 외래관광객실태조사,127.0561274,37.513975,삼성동,강남구,삼성동,127.0561274,37.513975,,
349,중고차시장,二手车市场,二手車市場,Seoul,2014 외래관광객실태조사,127.06623,37.560173,중고차시장,성동구,용답동,127.06623,37.560173,,
350,인삼공장,人蔘工厂,人蔘工廠,,2014 외래관광객실태조사,,,,,,,,,
351,방화동,芳华洞,芳華洞,Seoul,2014 외래관광객실태조사,126.8135931,37.5759058,방화동,강서구,방화동,126.8135931,37.5759058,,
352,고려대학교,高丽大学,高麗大學,Seoul,2014 외래관광객실태조사,127.0324773,37.5893876,고려대학교,성북구,안암동5가,127.0324773,37.5893876,,
353,외국어대학교,外国语大学,外國語大學,Seoul,2014 외래관광객실태조사,127.0588002,37.5974453,한국외국어대학교,동대문구,이문동,127.0588002,37.5974453,,
354,한양대학교,汉阳大学,漢陽大學,Seoul,2014 외래관광객실태조사,127.0454092,37.5571759,한양대학교,성동구,행당동,127.0454092,37.5571759,,
355,동덕여자대학교,同德女子大学,同德女子大學,Seoul,2014 외래관광객실태조사,127.0423832,37.6068163,동덕여자대학교,성북구,하월곡동,127.0423832,37.6068163,,
356,서울대학교,首尔大学,首爾大學,Seoul,2014 외래관광객실태조사,126.9511364,37.4593505,서울대학교,관악구,신림동,126.9511364,37.4593505,,
357,숙명여자대학교,淑明女子大学,淑明女子大學,Seoul,2014 외래관광객실태조사,126.9646916,37.546475,숙명여자대학교,용산구,청파동2가,126.9646916,37.546475,,
358,리츠칼튼호텔,丽思卡尔顿酒店,麗思卡爾頓酒店,Seoul,2014 외래관광객실태조사,127.0278731,37.5052961,리츠칼튼호텔,강남구,역삼동,127.0278731,37.5052961,,
359,타임스퀘어,时代广场,時代廣場,Seoul,2014 외래관광객실태조사,126.9033411,37.5170751,타임스퀘어,영등포구,영등포동4가,126.9033411,37.5170751,,
360,신도림,新道林,新道林,Seoul,2014 외래관광객실태조사,126.8915131,37.5089833,신도림역,구로구,신도림동,126.8915131,37.5089833,,
361,용산,龙山,龍山,Seoul,2014 외래관광객실태조사,126.9798839,37.5313805,용산구,용산구,용산동3가,126.9798839,37.5313805,,
362,영등포,永登浦,永登浦,Seoul,2014 외래관광객실태조사,126.9101692,37.5223245,영등포구,영등포구,영등포동2가,126.9101692,37.5223245,,
363,대림,大林,大林,Seoul,2014 외래관광객실태조사,126.8973155,37.4932246,대림역,영등포구,대림동,126.8973155,37.4932246,,
364,올림픽경기장,奥林匹克主竞技场,奧林匹克主競技場,Seoul,2014 외래관광객실태조사,127.0727986,37.5158376,올림픽경기장,송파구,잠실동,127.0727986,37.5158376,,
365,힐튼호텔,希尔顿饭店,希爾頓飯店,,2014 외래관광객실태조사,,,,,,,,,
366,올림픽공원(경기장),奥林匹克公园（体育场）,奧林匹克公園（體育場）,Seoul,2014 외래관광객실태조사,127.1214941,37.5206868,올림픽공원,송파구,방이동,127.1214941,37.5206868,,
367,월드컵 경기장,世界杯体育场,世界盃體育場,Seoul,2014 외래관광객실태조사,126.8972735,37.5682617,월드컵 경기장,마포구,성산동,126.8972735,37.5682617,,
368,신라호텔,新罗酒店,新羅酒店,Seoul,2014 외래관광객실태조사,127.0052509,37.5559034,신라호텔,중구,장충동2가,127.0052509,37.5559034,,
369,롯데호텔,乐天饭店,樂天飯店,Seoul,2014 외래관광객실태조사,126.980979,37.5653,롯데호텔,중구,을지로1가,126.980979,37.5653,,
370,롯데시티김포호텔,金浦乐天城市饭店,金浦樂天城市飯店,Seoul,2014 외래관광객실태조사,126.8025163,37.5637783,롯데시티김포호텔,강서구,방화동,126.8025163,37.5637783,,
371,MBC드라마센타,MBC梦想中心,MBC夢想中心,Gyeonggi,2014 외래관광객실태조사,126.7706487,37.6554714,MBC일산드림센터,고양시 일산동구,장항동,126.7706487,37.6554714,,
372,워커힐 호텔,华克山庄酒店,華克山莊酒店,Seoul,2014 외래관광객실태조사,127.1108905,37.5552126,그랜드 워커힐 서울,광진구,광장동,127.1108905,37.5552126,,
373,JW메리어트 호텔,JW万豪酒店,JW萬豪酒店,Seoul,2014 외래관광객실태조사,,,,,,,,,
374,미즈매디병원,MizMedi妇幼综合医院,MizMedi婦幼綜合醫院,Seoul,2014 외래관광객실태조사,126.8359888,37.5521496,미즈매디병원,강서구,내발산동,126.8359888,37.5521496,,
375,수목원,植物园,植物園,,2014 외래관광객실태조사,,,,,,,,,
376,호텔,饭店,飯店,,2014 외래관광객실태조사,,,,,,,,,
377,한남동,汉南洞,漢南洞,Seoul,2014 외래관광객실태조사,127.0051334,37.5375279,한남동,용산구,한남동,127.0051334,37.5375279,,
378,회기동,回基洞,回基洞,Seoul,2014 외래관광객실태조사,127.0516746,37.5920886,회기동,동대문구,회기동,127.0516746,37.5920886,,
379,양재동,良才洞,良才洞,Seoul,2014 외래관광객실태조사,127.0374623,37.4719823,양재동,서초구,양재동,127.0374623,37.4719823,,
380,논현동,论岘洞,論峴洞,Seoul,2014 외래관광객실태조사,127.0317124,37.5136787,논현동,강남구,논현동,127.0317124,37.5136787,,
381,서래마을,瑞来村,瑞來村,Seoul,2014 외래관광객실태조사,126.9982698,37.4969306,서래마을,서초구,반포동,126.9982698,37.4969306,,
382,신설동,新设洞,新設洞,Seoul,2014 외래관광객실태조사,127.0255567,37.5749456,신설동,동대문구,신설동,127.0255567,37.5749456,,
383,충정로,忠正路,忠正路,Seoul,2014 외래관광객실태조사,126.9645745,37.562683,충정로,서대문구,충정로3가,126.9645745,37.562683,,
384,불광동,佛光洞,佛光洞,Seoul,2014 외래관광객실태조사,126.9355669,37.6191594,불광동,은평구,불광동,126.9355669,37.6191594,,
385,왕십리,往十里,往十里,Seoul,2014 외래관광객실태조사,127.0252724,37.568832,왕십리,성동구,상왕십리동,127.0252724,37.568832,,
386,을지로,乙支路,乙支路,Seoul,2014 외래관광객실태조사,126.9954924,37.5660286,을지로,중구,을지로4가,126.9954924,37.5660286,,
387,청량리동,清凉里洞,清涼里洞,Seoul,2014 외래관광객실태조사,127.0452806,37.5888074,청량리동,동대문구,청량리동,127.0452806,37.5888074,,
388,동서울 터미널,东首尔客运站,東首爾客運站,Seoul,2014 외래관광객실태조사,127.0933675,37.5333713,동서울 터미널,광진구,구의동,127.0933675,37.5333713,,
389,테크노마트,科技商场,科技商場,Seoul,2014 외래관광객실태조사,127.095505,37.5355072,테크노마트,광진구,구의동,127.095505,37.5355072,,
390,경동시장,京东市场,京東市場,Seoul,2014 외래관광객실태조사,127.03854,37.57973,경동시장,동대문구,제기동,127.03854,37.57973,,
391,성수동,圣水洞,聖水洞,Seoul,2014 외래관광객실태조사,127.0566319,37.5406846,성수동,성동구,성수동2가,127.0566319,37.5406846,,
392,양천구,阳川区,陽川區,Seoul,2014 외래관광객실태조사,126.8553909,37.5247402,양천구,양천구,신정동,126.8553909,37.5247402,,
393,코리아나 호텔,韩国饭店,韓國飯店,Seoul,2014 외래관광객실태조사,126.9765031,37.5681809,코리아나 호텔,중구,태평로1가,126.9765031,37.5681809,,
394,한국의집,韩国之家,韓國之家,Seoul,2014 외래관광객실태조사,126.9947198,37.5602041,한국의 집,중구,필동2가,126.9947198,37.5602041,,
395,예술의전당,艺术殿堂,藝術殿堂,Seoul,2014 외래관광객실태조사,127.0128613,37.4792903,예술의전당,서초구,서초동,127.0128613,37.4792903,,
396,서울미술관,首尔市立美术馆,首爾市立美術館,Seoul,2014 외래관광객실태조사,126.9738125,37.5640625,서울시립미술관,중구,서소문동,126.9738125,37.5640625,,
397,국제뮤지엄,国际博物馆,國際博物館,Seoul,2014 외래관광객실태조사,,,,,,,,,
398,DDP (동대문디자인플라자),DDP（东大门设计广场）,DDP（東大門設計廣場）,Seoul,2014 외래관광객실태조사,127.0092236,37.5665256,DDP 동대문디자인플라자,중구,을지로7가,127.0092236,37.5665256,,
399,경마장,首尔赛马公园,首爾賽馬公園,Gyeonggi,2014 외래관광객실태조사,127.0122176,37.4452762,경마장,과천시,주암동,127.0122176,37.4452762,,
400,세종문화회관,世宗文化会馆,世宗文化會館,Seoul,2014 외래관광객실태조사,126.9756429,37.5725254,세종문화회관,종로구,세종로,126.9756429,37.5725254,,
401,서울성곽길,首尔城墙路,首爾城牆路,Seoul,2014 외래관광객실태조사,127.0084459,37.5779633,서울성곽길,종로구,창신동,127.0084459,37.5779633,,
402,망우리묘지,忘忧里公墓,忘憂里公墓,Seoul,2014 외래관광객실태조사,127.1124001,37.5947282,망우리묘지,중랑구,망우동,127.1124001,37.5947282,,
403,봉은사,奉恩寺,奉恩寺,Seoul,2014 외래관광객실태조사,127.0573766,37.514852,봉은사,강남구,삼성동,127.0573766,37.514852,,
404,조계사,曹溪寺,曹溪寺,Seoul,2014 외래관광객실태조사,126.982202,37.5738369,조계사,종로구,견지동,126.982202,37.5738369,,
405,중부시장,中部市场,中部市場,Seoul,2014 외래관광객실태조사,127.0004122,37.5653903,중부시장,중구,오장동,127.0004122,37.5653903,,
406,서울,首尔,首爾,Seoul,2014 외래관광객실태조사,,,,,,,,,
407,절/사찰,寺庙,寺廟,,2014 외래관광객실태조사,,,,,,,,,
408,라마다호텔,华美达饭店,華美達飯店,,2014 외래관광객실태조사,,,,,,,,,
409,인터컨티넨탈호텔,洲际酒店及度假村,洲際酒店及度假村,Seoul,2014 외래관광객실태조사,127.0574219,37.5126864,인터컨티넨탈호텔,강남구,삼성동,127.0574219,37.5126864,,
410,김포시티호텔,金浦市酒店,金浦市酒店,Gyeonggi,2014 외래관광객실태조사,,,김포시,김포시,통진읍,126.6265338,37.6818227,,
411,르네상스호텔,万丽酒店,萬麗酒店,,2014 외래관광객실태조사,,,,,,,,,
412,그랜드호텔,大饭店,大飯店,,2014 외래관광객실태조사,,,,,,,,,
413,엠베서더호텔,大使酒店,大使酒店,,2014 외래관광객실태조사,,,,,,,,,
414,프라자호텔,广场饭店,廣場飯店,,2014 외래관광객실태조사,,,,,,,,,
415,하얏트호텔,首尔君悦酒店,首爾君悅酒店,,2014 외래관광객실태조사,,,,,,,,,
416,팔레스호텔,皇宫饭店,皇宮飯店,,2014 외래관광객실태조사,,,,,,,,,
417,콘래드호텔,首尔康莱德酒店,首爾康萊德酒店,Seoul,2014 외래관광객실태조사,126.9265549,37.5253343,콘래드호텔,영등포구,여의도동,126.9265549,37.5253343,,
418,웨스틴조선호텔,首尔威斯汀朝鲜酒店,首爾威斯汀朝鮮酒店,Seoul,2014 외래관광객실태조사,126.980058,37.564378,웨스틴조선호텔,중구,소공동,126.980058,37.564378,,
419,아르누보씨티,江南新艺术城市饭店,江南新藝術城市飯店,Seoul,2014 외래관광객실태조사,127.0281593,37.4933907,아르누보씨티,서초구,서초동,127.0281593,37.4933907,,
420,연세세브란스병원,延世大学 新村世福兰斯医院,延世大學 新村世福蘭斯醫院,Seoul,2014 외래관광객실태조사,126.9408692,37.5623371,연세세브란스병원,서대문구,신촌동,126.9408692,37.5623371,,
421,이화여자대학병원,梨花女子大学附属首尔医院,梨花女子附屬首爾醫院,Seoul,2014 외래관광객실태조사,126.8362637,37.55732,이화여자대학병원,강서구,마곡동,126.8362637,37.55732,,
422,경희대학병원,庆熙医疗院,慶熙大學醫院,Seoul,2014 외래관광객실태조사,127.0513235,37.5938755,경희대학병원,동대문구,회기동,127.0513235,37.5938755,,
423,강남성모병원,江南聖母醫院,江南聖母醫院,Seoul,2014 외래관광객실태조사,127.0047678,37.5016116,강남성모병원,서초구,반포동,127.0047678,37.5016116,,
424,한양대학병원,汉阳大学医疗院,漢陽大學醫院,Seoul,2014 외래관광객실태조사,127.0439991,37.5596514,한양대학병원,성동구,사근동,127.0439991,37.5596514,,
425,서울대학병원,首尔大学医院,首爾大學醫院,Seoul,2014 외래관광객실태조사,126.9990602,37.5795427,서울대학교병원,종로구,연건동,126.9990602,37.5795427,,
426,병원,医院,醫院,,2014 외래관광객실태조사,,,,,,,,,
427,절두산,切头山,切頭山,Seoul,2014 외래관광객실태조사,126.9116248,37.5444056,절두산,마포구,합정동,126.9116248,37.5444056,,
428,까치산,喜鹊山,喜鵲山,,2014 외래관광객실태조사,,,,,,,,,
429,북한산,北汉山,北漢山,Seoul,2014 외래관광객실태조사,126.993333,37.660833,북한산,강북구,우이동,126.993333,37.660833,,
430,청계산,清溪山,清溪山,Gyeonggi,2014 외래관광객실태조사,127.0415787,37.4141657,청계산,의왕시,청계동,127.0415787,37.4141657,,
431,관악산,冠岳山,冠岳山,Seoul,2014 외래관광객실태조사,126.9610024,37.4429385,관악산,관악구,신림동,126.9610024,37.4429385,,
432,소요산,牛余山,牛餘山,Gyeonggi,2014 외래관광객실태조사,127.0878091,37.9426296,소요산,동두천시,상봉암동,127.0878091,37.9426296,,
433,소공동,小公洞,小公洞,Seoul,2014 외래관광객실태조사,126.9749183,37.5644131,소공동,중구,서소문동,126.9749183,37.5644131,,
434,삼각지,三角地,三角地,Seoul,2014 외래관광객실태조사,126.972987,37.534547,삼각지역,용산구,한강로1가,126.972987,37.534547,,
435,발산동,钵山洞,缽山洞,Seoul,2014 외래관광객실태조사,126.8196088,37.5470548,발산동,강서구,외발산동,126.8196088,37.5470548,,
436,동숭동,东崇洞,東崇洞,Seoul,2014 외래관광객실태조사,127.0048867,37.581408,동숭동,종로구,동숭동,127.0048867,37.581408,,
437,봉천동,奉川洞,奉川洞,Seoul,2014 외래관광객실태조사,126.9534883,37.4779671,봉천동,관악구,봉천동,126.9534883,37.4779671,,
438,종묘,宗庙,宗廟,Seoul,2014 외래관광객실태조사,126.994143,37.574583,종묘,종로구,훈정동,126.994143,37.574583,,
439,제일병원,第一医院,第一醫院,Seoul,2014 외래관광객실태조사,126.995025,37.4878254,제일병원,서초구,방배동,126.995025,37.4878254,,
440,삼성병원 / 삼성의료원,三星首尔医院,三星首爾醫院,Seoul,2014 외래관광객실태조사,127.0849885,37.4881193,삼성병원,강남구,일원동,127.0849885,37.4881193,,
441,중앙대학병원(흑석동),中央大学医院（黑石洞）,中央大學醫院（黑石洞）,Seoul,2014 외래관광객실태조사,126.9607295,37.5066909,중앙대학병원,동작구,흑석동,126.9607295,37.5066909,,
442,중앙대학교,中央大学,中央大學,Seoul,2014 외래관광객실태조사,126.9571012,37.5050881,중앙대학교,동작구,흑석동,126.9571012,37.5050881,,
443,경희대학교,庆熙大学,慶熙大學,Seoul,2014 외래관광객실태조사,127.0518435,37.5968367,경희대학교,동대문구,회기동,127.0518435,37.5968367,,
444,연세대학교,延世大学,延世大學,Seoul,2014 외래관광객실태조사,126.9387066,37.5663937,연세대학교,서대문구,신촌동,126.9387066,37.5663937,,
445,홍익대학교,弘益大学,弘益大學,Seoul,2014 외래관광객실태조사,126.9254901,37.5507563,홍익대학교,마포구,상수동,126.9254901,37.5507563,,
446,서강대학교,西江大学,西江大學,Seoul,2014 외래관광객실태조사,126.9410023,37.5509442,서강대학교,마포구,대흥동,126.9410023,37.5509442,,
447,건국대학교,建国大学,建國大學,Seoul,2014 외래관광객실태조사,127.0759204,37.5423265,건국대학교,광진구,화양동,127.0759204,37.5423265,,
448,김포,金浦,金浦,Gyeonggi,2014 외래관광객실태조사,126.6265338,37.6818227,김포시,김포시,통진읍,126.6265338,37.6818227,,
449,부천,富川,富川,Gyeonggi,2014 외래관광객실태조사,126.7886531,37.5042687,부천시,부천시,춘의동,126.7886531,37.5042687,,
450,을왕,乙旺,乙旺,Incheon,2014 외래관광객실태조사,126.3725042,37.4477331,을왕리해수욕장,중구,을왕동,126.3725042,37.4477331,,
451,인천시내,仁川市内,仁川市內,Incheon,2014 외래관광객실태조사,,,,,,,,,
452,인천하얏트호텔,仁川凯悦酒店,仁川凱悅酒店,Incheon,2014 외래관광객실태조사,126.4574508,37.4404925,그랜드 하얏트 인천,중구,운서동,126.4574508,37.4404925,,
453,베스트웨스턴호텔,贝斯特韦斯特饭店,貝斯特韋斯特飯店,,2014 외래관광객실태조사,,,,,,,,,
454,운서동,云西洞,雲西洞,Incheon,2014 외래관광객실태조사,126.4507804,37.4695092,운서동,중구,운서동,126.4507804,37.4695092,,
455,계양동,桂阳洞,桂陽洞,Incheon,2014 외래관광객실태조사,126.734707,37.5572857,계양구,계양구,방축동,126.734707,37.5572857,,
456,연수동,延寿洞,延壽洞,Incheon,2014 외래관광객실태조사,126.6832981,37.420418,연수동,연수구,연수동,126.6832981,37.420418,,
457,부평구,富平区,富平區,Incheon,2014 외래관광객실태조사,126.7212089,37.4966725,부평구,부평구,부평동,126.7212089,37.4966725,,
458,남동공단,南洞产业园地,南洞產業園地,Incheon,2014 외래관광객실태조사,126.726484,37.4310147,남동구,남동구,수산동,126.726484,37.4310147,,
459,간석동,间石洞,間石洞,Incheon,2014 외래관광객실태조사,126.7072025,37.4655363,간석동,남동구,간석동,126.7072025,37.4655363,,
460,주안동,朱安洞,朱安洞,Incheon,2014 외래관광객실태조사,126.6809956,37.4569758,주안동,미추홀구,주안동,126.6809956,37.4569758,,
461,검단동,黔丹洞,黔丹洞,Incheon,2014 외래관광객실태조사,126.6522426,37.6121724,검단동,서구,금곡동,126.6522426,37.6121724,,
462,보문사,普门寺,普門寺,,2014 외래관광객실태조사,,,,,,,,,
463,흥륜사,兴轮寺,興輪寺,Incheon,2014 외래관광객실태조사,126.6595568,37.4161587,흥륜사,연수구,동춘동,126.6595568,37.4161587,,
464,인천공항호텔,仁川机场饭店,仁川機場飯店,Incheon,2014 외래관광객실태조사,,,,,,,,,
465,인천월드컵경기장,仁川世界杯体育场,仁川世界盃體育場,Incheon,2014 외래관광객실태조사,126.6430109,37.4660127,인천월드컵경기장,미추홀구,도원동,126.6430109,37.4660127,,
466,인천문학경기장,仁川文鹤体育场,仁川文鶴體育場,Incheon,2014 외래관광객실태조사,126.6907212,37.4350619,인천문학경기장,미추홀구,문학동,126.6907212,37.4350619,,
467,인천아시아드주경기장,仁川亚运主体育场,仁川亞運主體育場,Incheon,2014 외래관광객실태조사,126.6665509,37.5475394,인천아시아드주경기장,서구,연희동,126.6665509,37.5475394,,
468,인천대학교,仁川大学,仁川大學,Incheon,2014 외래관광객실태조사,126.6322345,37.3749658,인천대학교,연수구,송도동,126.6322345,37.3749658,,
469,인하대학교,仁荷大学,仁荷大學,Incheon,2014 외래관광객실태조사,126.653488,37.4500221,인하대학교,미추홀구,용현동,126.653488,37.4500221,,
470,시흥시,始兴市,始興市,Gyeonggi,2014 외래관광객실태조사,126.7841675,37.3864796,시흥시,시흥시,장곡동,126.7841675,37.3864796,,
471,일산시,一山市,一山市,Gyeonggi,2014 외래관광객실태조사,126.7711774,37.6783756,일산,고양시 일산서구,일산동,126.7711774,37.6783756,,
472,용인시,龙仁市,龍仁市,Gyeonggi,2014 외래관광객실태조사,127.2218612,37.2214872,용인시,용인시 처인구,남동,127.2218612,37.2214872,,
473,동탄시,东滩市,東灘市,Gyeonggi,2014 외래관광객실태조사,127.0970177,37.199327,동탄역,화성시,오산동,127.0970177,37.199327,,
474,동두천,东豆川,東豆川,Gyeonggi,2014 외래관광객실태조사,127.0779171,37.916543,동두천시,동두천시,걸산동,127.0779171,37.916543,,
475,남양주,南杨州,南楊州,Gyeonggi,2014 외래관광객실태조사,127.2436632,37.6625097,남양주시,남양주시,호평동,127.2436632,37.6625097,,
476,안양시,安阳市,安陽市,Gyeonggi,2014 외래관광객실태조사,126.9279179,37.4027313,안양시,안양시 동안구,비산동,126.9279179,37.4027313,,
477,화성시,华城市,華城市,Gyeonggi,2014 외래관광객실태조사,126.8654604,37.1616306,화성시,화성시,팔탄면,126.8654604,37.1616306,,
478,안산시,安山市,安山市,Gyeonggi,2014 외래관광객실태조사,126.8308848,37.3218778,안산시,안산시 단원구,고잔동,126.8308848,37.3218778,,
479,성남시,城南市,城南市,Gyeonggi,2014 외래관광객실태조사,127.1162181,37.4073695,성남시,성남시 분당구,삼평동,127.1162181,37.4073695,,
480,청평,清平,清平,Gyeonggi,2014 외래관광객실태조사,127.4293452,37.7297832,청평면,가평군,청평면,127.4293452,37.7297832,,
481,서현,西贤,西賢,Gyeonggi,2014 외래관광객실태조사,127.1344396,37.3822656,서현동,성남시 분당구,서현동,127.1344396,37.3822656,,
482,송탄,松炭,松炭,Gyeonggi,2014 외래관광객실태조사,127.0514265,37.0841853,송탄,평택시,신장동,127.0514265,37.0841853,,
483,의왕시,义王市,義王市,Gyeonggi,2014 외래관광객실태조사,126.9896996,37.3624626,의왕시,의왕시,오전동,126.9896996,37.3624626,,
484,군포,军浦,軍浦,Gyeonggi,2014 외래관광객실태조사,126.9211003,37.3434691,군포시,군포시,산본동,126.9211003,37.3434691,,
485,오산,乌山,烏山,Gyeonggi,2014 외래관광객실태조사,127.0513324,37.1632991,오산시,오산시,궐동,127.0513324,37.1632991,,
486,기흥,器兴,器興,Gyeonggi,2014 외래관광객실태조사,127.1213604,37.2674312,기흥구,용인시 기흥구,상갈동,127.1213604,37.2674312,,
487,광주(경기),光州（京畿道）,光州（京畿道）,Gyeonggi,2014 외래관광객실태조사,127.3011624,37.4030854,경기 광주시,광주시,초월읍,127.3011624,37.4030854,,
488,분당,盆堂,盆堂,Gyeonggi,2014 외래관광객실태조사,127.1060411,37.3793356,분당구,성남시 분당구,정자동,127.1060411,37.3793356,,
489,안성,安城,安城,Gyeonggi,2014 외래관광객실태조사,127.3027301,37.035033,안성시,안성시,보개면,127.3027301,37.035033,,
490,의정부,议政府,議政府,Gyeonggi,2014 외래관광객실태조사,127.0684356,37.7361884,의정부시,의정부시,신곡동,127.0684356,37.7361884,,
491,죽전,竹田,竹田,Gyeonggi,2014 외래관광객실태조사,127.1234646,37.3295528,죽전동,용인시 수지구,죽전동,127.1234646,37.3295528,,
492,과천,果川,果川,Gyeonggi,2014 외래관광객실태조사,127.0027656,37.4338294,과천시,과천시,막계동,127.0027656,37.4338294,,
493,광명,光明,光明,Gyeonggi,2014 외래관광객실태조사,126.8646989,37.4451612,광명시,광명시,하안동,126.8646989,37.4451612,,
494,평촌,坪村,坪村,Gyeonggi,2014 외래관광객실태조사,126.9680004,37.3887438,평촌동,안양시 동안구,평촌동,126.9680004,37.3887438,,
495,이천,利川,利川,Gyeonggi,2014 외래관광객실태조사,127.4810494,37.2097769,이천시,이천시,대월면,127.4810494,37.2097769,,
496,고양시,高阳市,高陽市,Gyeonggi,2014 외래관광객실태조사,126.8369961,37.6650719,고양시,고양시 덕양구,주교동,126.8369961,37.6650719,,
497,양주시,杨州市,楊州市,Gyeonggi,2014 외래관광객실태조사,127.001143,37.8086632,양주시,양주시,백석읍,127.001143,37.8086632,,
498,하남시,河南市,河南市,Gyeonggi,2014 외래관광객실태조사,127.2059921,37.5228824,하남시,하남시,교산동,127.2059921,37.5228824,,
499,구리시,九里市,九里市,Gyeonggi,2014 외래관광객실태조사,127.1313079,37.5990186,구리시,구리시,교문동,127.1313079,37.5990186,,
500,강화도,江华岛,江華島,Incheon,2014 외래관광객실태조사,126.4511281,37.7131742,강화도,강화군,불은면,126.4511281,37.7131742,,
501,경기도,京畿道,京畿道,Gyeonggi,2014 외래관광객실태조사,,,,,,,,,
502,와우정사,卧牛精舍,臥牛精舍,Gyeonggi,2014 외래관광객실태조사,127.2784719,37.1935802,와우정사,용인시 처인구,해곡동,127.2784719,37.1935802,,
503,드라마아트센타,戏剧艺术中心,戲劇藝術中心,,2014 외래관광객실태조사,,,,,,,,,
504,삼성디지털센터,三星数字中心,三星數位中心,,2014 외래관광객실태조사,,,,,,,,,
505,용인대학교,龙仁大学,龍仁大學,Gyeonggi,2014 외래관광객실태조사,127.1681805,37.2266747,용인대학교,용인시 처인구,삼가동,127.1681805,37.2266747,,
506,서울예술대학교,首尔艺术大学,首爾藝術大學,Gyeonggi,2014 외래관광객실태조사,126.8362407,37.3340318,서울예술대학교,안산시 단원구,고잔동,126.8362407,37.3340318,,
507,고궁,古宫,古宮,Seoul,2015 외래관광객실태조사,,,경복궁,종로구,세종로,126.977041,37.579617,,
508,박물관(기념관),博物馆(纪念馆),博物館(紀念館),Seoul,2015 외래관광객실태조사,,,국립중앙박물관,용산구,용산동6가,126.9804702,37.5238506,,
509,인사동,仁寺洞,仁寺洞,Seoul,2015 외래관광객실태조사,126.9860732,37.5717174,인사동,종로구,인사동,126.9860732,37.5717174,,
510,남산/N서울타워,南山/N首尔塔,南山/N首爾塔,Seoul,2015 외래관광객실태조사,,,남산,용산구,후암동,126.9809696,37.5537586,,
511,명동,明洞,明洞,Seoul,2015 외래관광객실태조사,126.9858296,37.55998,명동,중구,남산동2가,126.9858296,37.55998,,
512,남대문시장,南大门市场,南大門市場,Seoul,2015 외래관광객실태조사,126.9776692,37.5591786,남대문시장,중구,남창동,126.9776692,37.5591786,,
513,코엑스,COEX,COEX,Seoul,2015 외래관광객실태조사,127.0595931,37.5113686,코엑스,강남구,삼성동,127.0595931,37.5113686,,
514,동대문시장,东大门市场,東大門市場,Seoul,2015 외래관광객실태조사,127.0081119,37.5707806,동대문시장,종로구,종로6가,127.0081119,37.5707806,,
515,이태원,梨泰院,梨泰院,Seoul,2015 외래관광객실태조사,126.9925224,37.5385051,이태원,용산구,이태원동,126.9925224,37.5385051,,
516,잠실(롯데월드),蚕室(乐天世界),蠶室(樂天世界),Seoul,2015 외래관광객실태조사,127.098167,37.5111158,롯데월드,송파구,잠실동,127.098167,37.5111158,蚕市(乐天世界),번체/간체 번역의 생소한 표현
517,여의도(63빌딩),汝矣岛(63大厦),汝矣島(63大廈),Seoul,2015 외래관광객실태조사,126.9401255,37.5197159,63빌딩,영등포구,여의도동,126.9401255,37.5197159,,
518,한강/유람선,汉江/游船,漢江/遊覽船,Seoul,2015 외래관광객실태조사,,,한강유람선,영등포구,여의도동,126.9384944,37.5257811,,
519,청계천/광화문광장,清溪川/光化门广场,清溪川/光化門廣場,Seoul,2015 외래관광객실태조사,,,광화문광장,종로구,세종로,126.9769117,37.572389,,
520,신촌/홍대주변,新村/弘大周围,新村/弘大周圍,Seoul,2015 외래관광객실태조사,,,홍대거리,마포구,서교동,126.9241498,37.5558499,,
521,DMC/월드컵 경기장,DMC/世界杯体育场,DMC/世界盃體育場,Seoul,2015 외래관광객실태조사,126.8972735,37.5682617,월드컵 경기장,마포구,성산동,126.8972735,37.5682617,DMC/世界盃赛场,번체/간체 번역의 생소한 표현
522,한옥마을(남산),韩屋村(南山),韓屋村(南山),Seoul,2015 외래관광객실태조사,126.994477,37.559315,남산골 한옥마을,중구,필동2가,126.994477,37.559315,,
523,북촌/삼청동,北村/三清洞,北村/三清洞,Seoul,2015 외래관광객실태조사,,,북촌,종로구,가회동,126.9849519,37.5814696,,
524,청담동/압구정동,清潭洞/狎鸥亭洞,清潭洞/狎鷗亭洞,Seoul,2015 외래관광객실태조사,,,청담동,강남구,청담동,127.0479736,37.5233931,,
525,가로수길,林荫树街,林蔭樹街,Seoul,2015 외래관광객실태조사,127.0228686,37.5210566,가로수길,강남구,신사동,127.0228686,37.5210566,,
526,강남역,江南站,江南站,Seoul,2015 외래관광객실태조사,127.027619,37.497952,강남역,강남구,역삼동,127.027619,37.497952,,
527,월미도/차이나타운·개항장/연안부두,月尾岛/唐人街/开港场/沿岸埠头,月尾島/唐人街/開港場/沿岸埠頭,Incheon,2015 외래관광객실태조사,,,인천 차이나타운,중구,북성동2가,126.6178849,37.475589,,
528,송도,松岛,松島,Incheon,2015 외래관광객실태조사,126.6389202,37.3860959,송도,연수구,송도동,126.6389202,37.3860959,,
529,강화(석모도/연등선원),江华岛(石母岛/莲灯禅院),江華島(石母島/蓮燈禪院),Incheon,2015 외래관광객실태조사,,,강화도,강화군,불은면,126.4511281,37.7131742,"江华岛(石母岛/联动船员)
江華島(石母島/聯動船員)",번체/간체 오역 사례
530,영종도/공항주변/인천대교,永宗岛/机场周边/仁川大桥,永宗島/機場周邊/仁川大橋,Incheon,2015 외래관광객실태조사,,,영종도,중구,운남동,126.5358479,37.5000629,,
531,소래포구,苏来浦口,蘇來浦口,Incheon,2015 외래관광객실태조사,126.7407213,37.3987976,소래포구,남동구,논현동,126.7407213,37.3987976,,
532,옹진(해수욕장),瓮津(海水浴场),瓮津(海水浴場),Incheon,2015 외래관광객실태조사,124.6778869,37.9535884,옹진군,옹진군,백령면,124.6778869,37.9535884,,
533,무의도,舞衣岛,舞衣島,Incheon,2015 외래관광객실태조사,126.4155849,37.3918796,무의도,중구,무의동,126.4155849,37.3918796,,
534,에버랜드/캐리비안베이,爱宝乐园/加勒比海湾,愛寶樂園/加勒比海灣,Gyeonggi,2015 외래관광객실태조사,,,에버랜드,용인시 처인구,포곡읍,127.2025664,37.2939104,,
535,수원화성/화성행궁,水原华城/华城行宫,水原華城行宮,Gyeonggi,2015 외래관광객실태조사,,,수원화성,수원시 장안구,영화동,127.0119379,37.2871202,,
536,임진각평화누리/제3땅꿀/오두산 통일전망대/판문점,临津阁/第三隧道/乌头山统一展望台/板门店,臨津閣/第三隧道/烏頭山統一展望台/板門店,Gyeonggi,2015 외래관광객실태조사,,,임진각,파주시,문산읍,126.7402185,37.8897444,"临津阁/第三蜜路/五斗山统一瞭望台/板门店
臨津閣/第三蜜路/五斗山統一瞭望台/板門店",번체/간체 오역 사례
537,한국민속촌,韩国民俗村,民俗村,Gyeonggi,2015 외래관광객실태조사,127.1181126,37.258939,한국민속촌,용인시 기흥구,보라동,127.1181126,37.258939,,
538,서울랜드/서울대공원,首尔乐园/首尔大公园,首爾樂園/首爾大公園,Gyeonggi,2015 외래관광객실태조사,,,서울대공원,과천시,막계동,127.0170252,37.4275247,,
539,킨텍스,KINTEX,KINTEX,Gyeonggi,2015 외래관광객실태조사,126.7434475,37.6672007,킨텍스,고양시 일산서구,대화동,126.7434475,37.6672007,,
540,헤이리예술마을,HEYRI艺术村,HEYRI藝術村,Gyeonggi,2015 외래관광객실태조사,126.698722,37.7888414,헤이리예술마을,파주시,탄현면,126.698722,37.7888414,"国际艺术村
國際藝術村",번체/간체 번역의 생소한 표현
541,파주 쇼핑아울렛,坡州Outlet,坡州Outlet,Gyeonggi,2015 외래관광객실태조사,126.6970148,37.7691847,파주 쇼핑아울렛,파주시,탄현면,126.6970148,37.7691847,"坡州直销商场
坡州直銷商場",번체/간체 번역의 생소한 표현
542,여주 쇼핑아울렛,骊州Outlet,驪州Outlet,Gyeonggi,2015 외래관광객실태조사,127.6123488,37.2413256,여주 쇼핑아울렛,여주시,상거동,127.6123488,37.2413256,"骊州直销商场
驪州直銷商場",번체/간체 번역의 생소한 표현
543,포천(허브아일랜드),抱川(香草岛乐园),抱川(香草島樂園),Gyeonggi,2015 외래관광객실태조사,127.131773,37.9654806,포천 허브아일랜드,포천시,신북면,127.131773,37.9654806,"抱川(薰衣草鸟乐园)
抱川(薰衣草鳥樂園)",번체/간체 번역의 생소한 표현
544,부천(웅진플레이도시),富川(熊津游戏城),富川(熊津遊樂城),Gyeonggi,2015 외래관광객실태조사,126.7449357,37.4999116,부천 웅진플레이도시,부천시,상동,126.7449357,37.4999116,,
545,양평(두물머리/레일바이크),杨平(两水头/铁路自行车),楊平(兩水頭/鐵路自行車),Gyeonggi,2015 외래관광객실태조사,,,양평군,양평군,용문면,127.5792445,37.5180465,"杨萍(斗水头/铁路自行车)
楊萍(斗水頭/鐵路自行車)",번체/간체 번역의 생소한 표현
546,가평(자라섬/쁘띠프랑스),加平(龟岛/小法兰西),加平(鱉島/小法國村),Gyeonggi,2015 외래관광객실태조사,,,가평군,가평군,가평읍,127.4502156,37.8184719,"贾平(龟岛/小法兰西)
賈平(龜島/小法蘭西)",번체/간체 번역의 생소한 표현
547,안산(대부도/시화호),鞍山(大釜岛/始华湖),鞍山(大釜島/始華湖),Gyeonggi,2015 외래관광객실태조사,,,안산 대부도,안산시 단원구,대부북동,126.5786286,37.2415397,"鞍山(大釜岛/施华号)
鞍山(大釜島/施華號)",번체/간체 번역의 생소한 표현
548,스키장(지산/양지/베어스타운),滑雪场(芝山/阳智/熊城),滑雪場(芝山/陽智/熊城滑雪場),Gyeonggi,2015 외래관광객실태조사,,,,,,,,"滑雪场(芝山/朝阳/熊塔)
滑雪場(芝山/朝陽/熊成滑雪場)",번체/간체 번역의 생소한 표현
549,동두천(한탄강),东斗川(汉滩江),東斗川(漢灘江),Gyeonggi,2015 외래관광객실태조사,127.010833,38.004722,동두천 한탄강,연천군,전곡읍,127.010833,38.004722,,
550,평택시(송탄 로데오거리),平泽(松丹路五岔口),平澤(松丹路五岔口),Gyeonggi,2015 외래관광객실태조사,127.0508323,37.076363,평택 송탄 로데오거리,평택시,신장동,127.0508323,37.076363,,
551,서대문,西大门,西大門,Seoul,2015 외래관광객실태조사,126.9390623,37.5777796,서대문구,서대문구,연희동,126.9390623,37.5777796,,
552,노원,芦原,蘆原,Seoul,2015 외래관광객실태조사,127.075042,37.6525076,노원구,노원구,중계동,127.075042,37.6525076,,
553,송파,松坡,松坡,Seoul,2015 외래관광객실태조사,127.1152992,37.5056205,송파구,송파구,송파동,127.1152992,37.5056205,,
554,혜화,惠化,惠化,Seoul,2015 외래관광객실태조사,127.001893,37.58217,혜화역,종로구,동숭동,127.001893,37.58217,,
555,서울역,首尔站,首爾站,Seoul,2015 외래관광객실태조사,126.972317,37.555946,서울역,중구,봉래동2가,126.972317,37.555946,,
556,종로,钟路,鐘路,Seoul,2015 외래관광객실태조사,126.977339,37.5949159,종로구,종로구,삼청동,126.977339,37.5949159,,
557,시청,市厅,市廳,Seoul,2015 외래관광객실태조사,126.9782038,37.5665851,서울시청,중구,태평로1가,126.9782038,37.5665851,,
558,청와대,青瓦台,青瓦臺,Seoul,2015 외래관광객실태조사,126.974811,37.5866076,청와대,종로구,세종로,126.974811,37.5866076,,
559,대학로,大学路,大學路,Seoul,2015 외래관광객실태조사,127.0016013,37.5782763,대학로,종로구,연건동,127.0016013,37.5782763,,
560,마포,麻浦,麻浦,Seoul,2015 외래관광객실태조사,126.9082589,37.5593115,마포구,마포구,성산동,126.9082589,37.5593115,,
561,충무로,忠武路,忠武路,Seoul,2015 외래관광객실태조사,126.9927416,37.5648394,충무로,중구,초동,126.9927416,37.5648394,,
562,충무아트홀,忠武艺术中心,忠武藝術中心,Seoul,2015 외래관광객실태조사,127.0148592,37.5659291,충무아트홀,중구,흥인동,127.0148592,37.5659291,,
563,상암동,上岩洞,上岩洞,Seoul,2015 외래관광객실태조사,126.8798744,37.5707485,상암동,마포구,상암동,126.8798744,37.5707485,,
564,이촌동,二村洞,二村洞,Seoul,2015 외래관광객실태조사,126.9665337,37.5174531,이촌동,용산구,이촌동,126.9665337,37.5174531,,
565,가산디지털단지,加山数码园区,加山數碼園區,Seoul,2015 외래관광객실태조사,126.882652,37.48144,가산디지털단지역,금천구,가산동,126.882652,37.48144,,
566,구로,九老,九老,Seoul,2015 외래관광객실태조사,126.8563336,37.4944134,구로구,구로구,개봉동,126.8563336,37.4944134,,
567,광장시장,广藏市场,廣藏市場,Seoul,2015 외래관광객실태조사,126.9996036,37.5700398,광장시장,종로구,예지동,126.9996036,37.5700398,,
568,금천,衿川,衿川,Seoul,2015 외래관광객실태조사,126.9008183,37.4605655,금천구,금천구,독산동,126.9008183,37.4605655,,
569,독산,秃山,禿山,Seoul,2015 외래관광객실태조사,126.8982935,37.4674733,독산동,금천구,독산동,126.8982935,37.4674733,,
570,노량진,鹭梁津,鷺梁津,Seoul,2015 외래관광객실태조사,126.941687,37.514082,노량진역,동작구,노량진동,126.941687,37.514082,,
571,답십리,踏十里,踏十里,Seoul,2015 외래관광객실태조사,127.052382,37.567072,답십리역,성동구,용답동,127.052382,37.567072,,
572,목동,木洞,木洞,Seoul,2015 외래관광객실태조사,126.8745334,37.5360367,목동,양천구,목동,126.8745334,37.5360367,,
573,장안평,长安坪,長安坪,Seoul,2015 외래관광객실태조사,127.0652943,37.5616837,장안평역,동대문구,장안동,127.0652943,37.5616837,,
574,신당동,新堂洞,新堂洞,Seoul,2015 외래관광객실태조사,127.01367,37.5579144,신당동,중구,신당동,127.01367,37.5579144,,
575,신천동,新川洞,新川洞,Seoul,2015 외래관광객실태조사,127.0989719,37.5239227,신천동,송파구,신천동,127.0989719,37.5239227,,
576,건대입구,建国大学入口,建國大學入口,Seoul,2015 외래관광객실태조사,127.069276,37.540372,건대입구역,광진구,자양동,127.069276,37.540372,,
577,이화여자대학교,梨花女子大学,梨花女子大學,Seoul,2015 외래관광객실태조사,126.9468339,37.5618588,이화여자대학교,서대문구,대현동,126.9468339,37.5618588,,
578,서울교육대학교,首尔教育大学,首爾教育大學,Seoul,2015 외래관광객실태조사,127.0162346,37.4901737,서울교육대학교,서초구,서초동,127.0162346,37.4901737,,
579,고속버스터미널,高速巴士总站,高速巴士總站,Seoul,2015 외래관광객실태조사,127.0049151,37.5049142,고속버스터미널,서초구,반포동,127.0049151,37.5049142,,
580,남부터미널,南部客运站,南部客運站,Seoul,2015 외래관광객실태조사,127.015564,37.484524,남부터미널,서초구,서초동,127.015564,37.484524,,
581,반포,盘浦,盤浦,Seoul,2015 외래관광객실태조사,127.011741,37.508221,반포역,서초구,잠원동,127.011741,37.508221,,
582,서초구,瑞草区,瑞草區,Seoul,2015 외래관광객실태조사,127.0312101,37.4732933,서초구,서초구,양재동,127.0312101,37.4732933,,
583,잠원동,蚕院洞,蠶院洞,Seoul,2015 외래관광객실태조사,127.0137779,37.5151065,잠원동,서초구,잠원동,127.0137779,37.5151065,,
584,역삼동,驿三洞,驛三洞,Seoul,2015 외래관광객실태조사,127.0385419,37.5000776,역삼동,강남구,역삼동,127.0385419,37.5000776,,
585,삼성동,三成洞,三成洞,Seoul,2015 외래관광객실태조사,127.0561274,37.513975,삼성동,강남구,삼성동,127.0561274,37.513975,,
586,중고차시장,二手车市场,二手車市場,Seoul,2015 외래관광객실태조사,127.06623,37.560173,중고차시장,성동구,용답동,127.06623,37.560173,,
587,인삼공장,人蔘工厂,人蔘工廠,,2015 외래관광객실태조사,,,,,,,,,
588,방화동,芳华洞,芳華洞,Seoul,2015 외래관광객실태조사,126.8135931,37.5759058,방화동,강서구,방화동,126.8135931,37.5759058,,
589,고려대학교,高丽大学,高麗大學,Seoul,2015 외래관광객실태조사,127.0324773,37.5893876,고려대학교,성북구,안암동5가,127.0324773,37.5893876,,
590,외국어대학교,外国语大学,外國語大學,Seoul,2015 외래관광객실태조사,127.0588002,37.5974453,한국외국어대학교,동대문구,이문동,127.0588002,37.5974453,,
591,한양대학교,汉阳大学,漢陽大學,Seoul,2015 외래관광객실태조사,127.0454092,37.5571759,한양대학교,성동구,행당동,127.0454092,37.5571759,,
592,동덕여자대학교,同德女子大学,同德女子大學,Seoul,2015 외래관광객실태조사,127.0423832,37.6068163,동덕여자대학교,성북구,하월곡동,127.0423832,37.6068163,,
593,서울대학교,首尔大学,首爾大學,Seoul,2015 외래관광객실태조사,126.9511364,37.4593505,서울대학교,관악구,신림동,126.9511364,37.4593505,,
594,숙명여자대학교,淑明女子大学,淑明女子大學,Seoul,2015 외래관광객실태조사,126.9646916,37.546475,숙명여자대학교,용산구,청파동2가,126.9646916,37.546475,,
595,리츠칼튼호텔,丽思卡尔顿酒店,麗思卡爾頓酒店,Seoul,2015 외래관광객실태조사,127.0278731,37.5052961,리츠칼튼호텔,강남구,역삼동,127.0278731,37.5052961,,
596,타임스퀘어,时代广场,時代廣場,Seoul,2015 외래관광객실태조사,126.9033411,37.5170751,타임스퀘어,영등포구,영등포동4가,126.9033411,37.5170751,,
597,신도림,新道林,新道林,Seoul,2015 외래관광객실태조사,126.8915131,37.5089833,신도림역,구로구,신도림동,126.8915131,37.5089833,,
598,용산,龙山,龍山,Seoul,2015 외래관광객실태조사,126.9798839,37.5313805,용산구,용산구,용산동3가,126.9798839,37.5313805,,
599,영등포,永登浦,永登浦,Seoul,2015 외래관광객실태조사,126.9101692,37.5223245,영등포구,영등포구,영등포동2가,126.9101692,37.5223245,,
600,대림,大林,大林,Seoul,2015 외래관광객실태조사,126.8973155,37.4932246,대림역,영등포구,대림동,126.8973155,37.4932246,,
601,올림픽경기장,奥林匹克主竞技场,奧林匹克主競技場,Seoul,2015 외래관광객실태조사,127.0727986,37.5158376,올림픽경기장,송파구,잠실동,127.0727986,37.5158376,,
602,힐튼호텔,希尔顿饭店,希爾頓飯店,,2015 외래관광객실태조사,,,,,,,,,
603,올림픽공원(경기장),奥林匹克公园（体育场）,奧林匹克公園（體育場）,Seoul,2015 외래관광객실태조사,127.1214941,37.5206868,올림픽공원,송파구,방이동,127.1214941,37.5206868,,
604,월드컵 경기장,世界杯体育场,世界盃體育場,Seoul,2015 외래관광객실태조사,126.8972735,37.5682617,월드컵 경기장,마포구,성산동,126.8972735,37.5682617,,
605,신라호텔,新罗酒店,新羅酒店,Seoul,2015 외래관광객실태조사,127.0052509,37.5559034,신라호텔,중구,장충동2가,127.0052509,37.5559034,,
606,롯데호텔,乐天饭店,樂天飯店,Seoul,2015 외래관광객실태조사,126.980979,37.5653,롯데호텔,중구,을지로1가,126.980979,37.5653,,
607,롯데시티김포호텔,金浦乐天城市饭店,金浦樂天城市飯店,Seoul,2015 외래관광객실태조사,126.8025163,37.5637783,롯데시티김포호텔,강서구,방화동,126.8025163,37.5637783,,
608,MBC드라마센타,MBC梦想中心,MBC夢想中心,Gyeonggi,2015 외래관광객실태조사,126.7706487,37.6554714,MBC일산드림센터,고양시 일산동구,장항동,126.7706487,37.6554714,,
609,워커힐 호텔,华克山庄酒店,華克山莊酒店,Seoul,2015 외래관광객실태조사,127.1108905,37.5552126,그랜드 워커힐 서울,광진구,광장동,127.1108905,37.5552126,,
610,JW메리어트 호텔,JW万豪酒店,JW萬豪酒店,Seoul,2015 외래관광객실태조사,,,,,,,,,
611,미즈매디병원,MizMedi妇幼综合医院,MizMedi婦幼綜合醫院,Seoul,2015 외래관광객실태조사,126.8359888,37.5521496,미즈매디병원,강서구,내발산동,126.8359888,37.5521496,,
612,수목원,植物园,植物園,,2015 외래관광객실태조사,,,,,,,,,
613,호텔,饭店,飯店,,2015 외래관광객실태조사,,,,,,,,,
614,한남동,汉南洞,漢南洞,Seoul,2015 외래관광객실태조사,127.0051334,37.5375279,한남동,용산구,한남동,127.0051334,37.5375279,,
615,회기동,回基洞,回基洞,Seoul,2015 외래관광객실태조사,127.0516746,37.5920886,회기동,동대문구,회기동,127.0516746,37.5920886,,
616,양재동,良才洞,良才洞,Seoul,2015 외래관광객실태조사,127.0374623,37.4719823,양재동,서초구,양재동,127.0374623,37.4719823,,
617,논현동,论岘洞,論峴洞,Seoul,2015 외래관광객실태조사,127.0317124,37.5136787,논현동,강남구,논현동,127.0317124,37.5136787,,
618,서래마을,瑞来村,瑞來村,Seoul,2015 외래관광객실태조사,126.9982698,37.4969306,서래마을,서초구,반포동,126.9982698,37.4969306,,
619,신설동,新设洞,新設洞,Seoul,2015 외래관광객실태조사,127.0255567,37.5749456,신설동,동대문구,신설동,127.0255567,37.5749456,,
620,충정로,忠正路,忠正路,Seoul,2015 외래관광객실태조사,126.9645745,37.562683,충정로,서대문구,충정로3가,126.9645745,37.562683,,
621,불광동,佛光洞,佛光洞,Seoul,2015 외래관광객실태조사,126.9355669,37.6191594,불광동,은평구,불광동,126.9355669,37.6191594,,
622,왕십리,往十里,往十里,Seoul,2015 외래관광객실태조사,127.0252724,37.568832,왕십리,성동구,상왕십리동,127.0252724,37.568832,,
623,을지로,乙支路,乙支路,Seoul,2015 외래관광객실태조사,126.9954924,37.5660286,을지로,중구,을지로4가,126.9954924,37.5660286,,
624,청량리동,清凉里洞,清涼里洞,Seoul,2015 외래관광객실태조사,127.0452806,37.5888074,청량리동,동대문구,청량리동,127.0452806,37.5888074,,
625,동서울 터미널,东首尔客运站,東首爾客運站,Seoul,2015 외래관광객실태조사,127.0933675,37.5333713,동서울 터미널,광진구,구의동,127.0933675,37.5333713,,
626,테크노마트,科技商场,科技商場,Seoul,2015 외래관광객실태조사,127.095505,37.5355072,테크노마트,광진구,구의동,127.095505,37.5355072,,
627,경동시장,京东市场,京東市場,Seoul,2015 외래관광객실태조사,127.03854,37.57973,경동시장,동대문구,제기동,127.03854,37.57973,,
628,성수동,圣水洞,聖水洞,Seoul,2015 외래관광객실태조사,127.0566319,37.5406846,성수동,성동구,성수동2가,127.0566319,37.5406846,,
629,양천구,阳川区,陽川區,Seoul,2015 외래관광객실태조사,126.8553909,37.5247402,양천구,양천구,신정동,126.8553909,37.5247402,,
630,코리아나 호텔,韩国饭店,韓國飯店,Seoul,2015 외래관광객실태조사,126.9765031,37.5681809,코리아나 호텔,중구,태평로1가,126.9765031,37.5681809,,
631,한국의집,韩国之家,韓國之家,Seoul,2015 외래관광객실태조사,126.9947198,37.5602041,한국의 집,중구,필동2가,126.9947198,37.5602041,,
632,예술의전당,艺术殿堂,藝術殿堂,Seoul,2015 외래관광객실태조사,127.0128613,37.4792903,예술의전당,서초구,서초동,127.0128613,37.4792903,,
633,서울미술관,首尔市立美术馆,首爾市立美術館,Seoul,2015 외래관광객실태조사,126.9738125,37.5640625,서울시립미술관,중구,서소문동,126.9738125,37.5640625,,
634,국제뮤지엄,国际博物馆,國際博物館,Seoul,2015 외래관광객실태조사,,,,,,,,,
635,DDP (동대문디자인플라자),DDP（东大门设计广场）,DDP（東大門設計廣場）,Seoul,2015 외래관광객실태조사,127.0092236,37.5665256,DDP 동대문디자인플라자,중구,을지로7가,127.0092236,37.5665256,,
636,경마장,首尔赛马公园,首爾賽馬公園,Gyeonggi,2015 외래관광객실태조사,127.0122176,37.4452762,경마장,과천시,주암동,127.0122176,37.4452762,,
637,세종문화회관,世宗文化会馆,世宗文化會館,Seoul,2015 외래관광객실태조사,126.9756429,37.5725254,세종문화회관,종로구,세종로,126.9756429,37.5725254,,
638,서울성곽길,首尔城墙路,首爾城牆路,Seoul,2015 외래관광객실태조사,127.0084459,37.5779633,서울성곽길,종로구,창신동,127.0084459,37.5779633,,
639,망우리묘지,忘忧里公墓,忘憂里公墓,Seoul,2015 외래관광객실태조사,127.1124001,37.5947282,망우리묘지,중랑구,망우동,127.1124001,37.5947282,,
640,봉은사,奉恩寺,奉恩寺,Seoul,2015 외래관광객실태조사,127.0573766,37.514852,봉은사,강남구,삼성동,127.0573766,37.514852,,
641,조계사,曹溪寺,曹溪寺,Seoul,2015 외래관광객실태조사,126.982202,37.5738369,조계사,종로구,견지동,126.982202,37.5738369,,
642,중부시장,中部市场,中部市場,Seoul,2015 외래관광객실태조사,127.0004122,37.5653903,중부시장,중구,오장동,127.0004122,37.5653903,,
643,서울,首尔,首爾,Seoul,2015 외래관광객실태조사,,,,,,,,,
644,절/사찰,寺庙,寺廟,,2015 외래관광객실태조사,,,,,,,,,
645,라마다호텔,华美达饭店,華美達飯店,,2015 외래관광객실태조사,,,,,,,,,
646,인터컨티넨탈호텔,洲际酒店及度假村,洲際酒店及度假村,Seoul,2015 외래관광객실태조사,127.0574219,37.5126864,인터컨티넨탈호텔,강남구,삼성동,127.0574219,37.5126864,,
647,김포시티호텔,金浦市酒店,金浦市酒店,Gyeonggi,2015 외래관광객실태조사,,,김포시,김포시,통진읍,126.6265338,37.6818227,,
648,르네상스호텔,万丽酒店,萬麗酒店,,2015 외래관광객실태조사,,,,,,,,,
649,그랜드호텔,大饭店,大飯店,,2015 외래관광객실태조사,,,,,,,,,
650,엠베서더호텔,大使酒店,大使酒店,,2015 외래관광객실태조사,,,,,,,,,
651,프라자호텔,广场饭店,廣場飯店,,2015 외래관광객실태조사,,,,,,,,,
652,하얏트호텔,首尔君悦酒店,首爾君悅酒店,,2015 외래관광객실태조사,,,,,,,,,
653,팔레스호텔,皇宫饭店,皇宮飯店,,2015 외래관광객실태조사,,,,,,,,,
654,콘래드호텔,首尔康莱德酒店,首爾康萊德酒店,Seoul,2015 외래관광객실태조사,126.9265549,37.5253343,콘래드호텔,영등포구,여의도동,126.9265549,37.5253343,,
655,웨스틴조선호텔,首尔威斯汀朝鲜酒店,首爾威斯汀朝鮮酒店,Seoul,2015 외래관광객실태조사,126.980058,37.564378,웨스틴조선호텔,중구,소공동,126.980058,37.564378,,
656,아르누보씨티,江南新艺术城市饭店,江南新藝術城市飯店,Seoul,2015 외래관광객실태조사,127.0281593,37.4933907,아르누보씨티,서초구,서초동,127.0281593,37.4933907,,
657,연세세브란스병원,延世大学 新村世福兰斯医院,延世大學 新村世福蘭斯醫院,Seoul,2015 외래관광객실태조사,126.9408692,37.5623371,연세세브란스병원,서대문구,신촌동,126.9408692,37.5623371,,
658,이화여자대학병원,梨花女子附属首尔医院,梨花女子附屬首爾醫院,Seoul,2015 외래관광객실태조사,126.8362637,37.55732,이화여자대학병원,강서구,마곡동,126.8362637,37.55732,,
659,경희대학병원,庆熙大学医院,慶熙大學醫院,Seoul,2015 외래관광객실태조사,127.0513235,37.5938755,경희대학병원,동대문구,회기동,127.0513235,37.5938755,,
660,강남성모병원,江南圣母医院,江南聖母醫院,Seoul,2015 외래관광객실태조사,127.0047678,37.5016116,강남성모병원,서초구,반포동,127.0047678,37.5016116,,
661,한양대학병원,汉阳大学医院,漢陽大學醫院,Seoul,2015 외래관광객실태조사,127.0439991,37.5596514,한양대학병원,성동구,사근동,127.0439991,37.5596514,,
662,서울대학병원,首尔大学医院,首爾大學醫院,Seoul,2015 외래관광객실태조사,126.9990602,37.5795427,서울대학교병원,종로구,연건동,126.9990602,37.5795427,,
663,병원,医院,醫院,,2015 외래관광객실태조사,,,,,,,,,
664,절두산,切头山,切頭山,Seoul,2015 외래관광객실태조사,126.9116248,37.5444056,절두산,마포구,합정동,126.9116248,37.5444056,,
665,까치산,喜鹊山,喜鵲山,,2015 외래관광객실태조사,,,,,,,,,
666,북한산,北汉山,北漢山,Seoul,2015 외래관광객실태조사,126.993333,37.660833,북한산,강북구,우이동,126.993333,37.660833,,
667,청계산,清溪山,清溪山,Gyeonggi,2015 외래관광객실태조사,127.0415787,37.4141657,청계산,의왕시,청계동,127.0415787,37.4141657,,
668,관악산,冠岳山,冠岳山,Seoul,2015 외래관광객실태조사,126.9610024,37.4429385,관악산,관악구,신림동,126.9610024,37.4429385,,
669,소요산,牛余山,牛餘山,Gyeonggi,2015 외래관광객실태조사,127.0878091,37.9426296,소요산,동두천시,상봉암동,127.0878091,37.9426296,,
670,소공동,小公洞,小公洞,Seoul,2015 외래관광객실태조사,126.9749183,37.5644131,소공동,중구,서소문동,126.9749183,37.5644131,,
671,삼각지,三角地,三角地,Seoul,2015 외래관광객실태조사,126.972987,37.534547,삼각지역,용산구,한강로1가,126.972987,37.534547,,
672,발산동,钵山洞,缽山洞,Seoul,2015 외래관광객실태조사,126.8196088,37.5470548,발산동,강서구,외발산동,126.8196088,37.5470548,,
673,동숭동,东崇洞,東崇洞,Seoul,2015 외래관광객실태조사,127.0048867,37.581408,동숭동,종로구,동숭동,127.0048867,37.581408,,
674,봉천동,奉川洞,奉川洞,Seoul,2015 외래관광객실태조사,126.9534883,37.4779671,봉천동,관악구,봉천동,126.9534883,37.4779671,,
675,종묘,宗庙,宗廟,Seoul,2015 외래관광객실태조사,126.994143,37.574583,종묘,종로구,훈정동,126.994143,37.574583,,
676,제일병원,第一医院,第一醫院,Seoul,2015 외래관광객실태조사,126.995025,37.4878254,제일병원,서초구,방배동,126.995025,37.4878254,,
677,삼성병원 / 삼성의료원,三星首尔医院,三星首爾醫院,Seoul,2015 외래관광객실태조사,127.0849885,37.4881193,삼성병원,강남구,일원동,127.0849885,37.4881193,,
678,중앙대학병원(흑석동),中央大学医院（黑石洞）,中央大學醫院（黑石洞）,Seoul,2015 외래관광객실태조사,126.9607295,37.5066909,중앙대학병원,동작구,흑석동,126.9607295,37.5066909,,
679,명지대학교,明知大学,明知大學,Seoul,2015 외래관광객실태조사,126.9226047,37.5802219,명지대학교,서대문구,남가좌동,126.9226047,37.5802219,,
680,중앙대학교,中央大学,中央大學,Seoul,2015 외래관광객실태조사,126.9571012,37.5050881,중앙대학교,동작구,흑석동,126.9571012,37.5050881,,
681,경희대학교,庆熙大学,慶熙大學,Seoul,2015 외래관광객실태조사,127.0518435,37.5968367,경희대학교,동대문구,회기동,127.0518435,37.5968367,,
682,연세대학교,延世大学,延世大學,Seoul,2015 외래관광객실태조사,126.9387066,37.5663937,연세대학교,서대문구,신촌동,126.9387066,37.5663937,,
683,홍익대학교,弘益大学,弘益大學,Seoul,2015 외래관광객실태조사,126.9254901,37.5507563,홍익대학교,마포구,상수동,126.9254901,37.5507563,,
684,서강대학교,西江大学,西江大學,Seoul,2015 외래관광객실태조사,126.9410023,37.5509442,서강대학교,마포구,대흥동,126.9410023,37.5509442,,
685,건국대학교,建国大学,建國大學,Seoul,2015 외래관광객실태조사,127.0759204,37.5423265,건국대학교,광진구,화양동,127.0759204,37.5423265,,
686,김포,金浦,金浦,Gyeonggi,2015 외래관광객실태조사,126.6265338,37.6818227,김포시,김포시,통진읍,126.6265338,37.6818227,,
687,부천,富川,富川,Gyeonggi,2015 외래관광객실태조사,126.7886531,37.5042687,부천시,부천시,춘의동,126.7886531,37.5042687,,
688,을왕,乙旺,乙旺,Incheon,2015 외래관광객실태조사,126.3725042,37.4477331,을왕리해수욕장,중구,을왕동,126.3725042,37.4477331,,
689,인천시내,仁川市内,仁川市內,Incheon,2015 외래관광객실태조사,,,,,,,,,
690,인천하얏트호텔,仁川凯悦酒店,仁川凱悅酒店,Incheon,2015 외래관광객실태조사,126.4574508,37.4404925,그랜드 하얏트 인천,중구,운서동,126.4574508,37.4404925,,
691,베스트웨스턴호텔,贝斯特韦斯特饭店,貝斯特韋斯特飯店,,2015 외래관광객실태조사,,,,,,,,,
692,운서동,云西洞,雲西洞,Incheon,2015 외래관광객실태조사,126.4507804,37.4695092,운서동,중구,운서동,126.4507804,37.4695092,,
693,계양동,桂阳洞,桂陽洞,Incheon,2015 외래관광객실태조사,126.734707,37.5572857,계양구,계양구,방축동,126.734707,37.5572857,,
694,연수동,延寿洞,延壽洞,Incheon,2015 외래관광객실태조사,126.6832981,37.420418,연수동,연수구,연수동,126.6832981,37.420418,,
695,부평구,富平区,富平區,Incheon,2015 외래관광객실태조사,126.7212089,37.4966725,부평구,부평구,부평동,126.7212089,37.4966725,,
696,남동공단,南洞产业园地,南洞產業園地,Incheon,2015 외래관광객실태조사,126.726484,37.4310147,남동구,남동구,수산동,126.726484,37.4310147,,
697,간석동,间石洞,間石洞,Incheon,2015 외래관광객실태조사,126.7072025,37.4655363,간석동,남동구,간석동,126.7072025,37.4655363,,
698,주안동,朱安洞,朱安洞,Incheon,2015 외래관광객실태조사,126.6809956,37.4569758,주안동,미추홀구,주안동,126.6809956,37.4569758,,
699,인천검단,仁川黔丹,仁川黔丹,Incheon,2015 외래관광객실태조사,126.6522426,37.6121724,검단동,서구,금곡동,126.6522426,37.6121724,,
700,보문사,普门寺,普門寺,,2015 외래관광객실태조사,,,,,,,,,
701,흥륜사,兴轮寺,興輪寺,Incheon,2015 외래관광객실태조사,126.6595568,37.4161587,흥륜사,연수구,동춘동,126.6595568,37.4161587,,
702,인하대학교병원,仁荷大学医院,仁荷大學醫院,Incheon,2015 외래관광객실태조사,126.6341172,37.4588197,인하대학교병원,중구,신흥동3가,126.6341172,37.4588197,,
703,인천공항호텔,仁川机场饭店,仁川機場飯店,Incheon,2015 외래관광객실태조사,,,,,,,,,
704,인천월드컵경기장,仁川世界杯体育场,仁川世界盃體育場,Incheon,2015 외래관광객실태조사,126.6430109,37.4660127,인천월드컵경기장,미추홀구,도원동,126.6430109,37.4660127,,
705,인천문학경기장,仁川文鹤体育场,仁川文鶴體育場,Incheon,2015 외래관광객실태조사,126.6907212,37.4350619,인천문학경기장,미추홀구,문학동,126.6907212,37.4350619,,
706,아시안게임경기장/아시안게임참가,仁川亚运主体育场,仁川亞運主體育場,Incheon,2015 외래관광객실태조사,126.6665509,37.5475394,인천아시아드주경기장,서구,연희동,126.6665509,37.5475394,,
707,인천대공원,仁川大公园,仁川大公園,Incheon,2015 외래관광객실태조사,126.7522197,37.459244,인천대공원,남동구,장수동,126.7522197,37.459244,,
708,인천항,仁川港,仁川港,Incheon,2015 외래관광객실태조사,126.6256454,37.4594575,인천항,중구,항동7가,126.6256454,37.4594575,,
709,인천대학교,仁川大学,仁川大學,Incheon,2015 외래관광객실태조사,126.6322345,37.3749658,인천대학교,연수구,송도동,126.6322345,37.3749658,,
710,인하대학교,仁荷大学,仁荷大學,Incheon,2015 외래관광객실태조사,126.653488,37.4500221,인하대학교,미추홀구,용현동,126.653488,37.4500221,,
711,시흥시,始兴市,始興市,Gyeonggi,2015 외래관광객실태조사,126.7841675,37.3864796,시흥시,시흥시,장곡동,126.7841675,37.3864796,,
712,일산시,一山市,一山市,Gyeonggi,2015 외래관광객실태조사,126.7711774,37.6783756,일산,고양시 일산서구,일산동,126.7711774,37.6783756,,
713,용인시,龙仁市,龍仁市,Gyeonggi,2015 외래관광객실태조사,127.2218612,37.2214872,용인시,용인시 처인구,남동,127.2218612,37.2214872,,
714,동탄시,东滩市,東灘市,Gyeonggi,2015 외래관광객실태조사,127.0970177,37.199327,동탄역,화성시,오산동,127.0970177,37.199327,,
715,동두천,东豆川,東豆川,Gyeonggi,2015 외래관광객실태조사,127.0779171,37.916543,동두천시,동두천시,걸산동,127.0779171,37.916543,,
716,남양주,南杨州,南楊州,Gyeonggi,2015 외래관광객실태조사,127.2436632,37.6625097,남양주시,남양주시,호평동,127.2436632,37.6625097,,
717,안양시,安阳市,安陽市,Gyeonggi,2015 외래관광객실태조사,126.9279179,37.4027313,안양시,안양시 동안구,비산동,126.9279179,37.4027313,,
718,화성시,华城市,華城市,Gyeonggi,2015 외래관광객실태조사,126.8654604,37.1616306,화성시,화성시,팔탄면,126.8654604,37.1616306,,
719,안산시,安山市,安山市,Gyeonggi,2015 외래관광객실태조사,126.8308848,37.3218778,안산시,안산시 단원구,고잔동,126.8308848,37.3218778,,
720,성남시,城南市,城南市,Gyeonggi,2015 외래관광객실태조사,127.1162181,37.4073695,성남시,성남시 분당구,삼평동,127.1162181,37.4073695,,
721,청평,清平,清平,Gyeonggi,2015 외래관광객실태조사,127.4293452,37.7297832,청평면,가평군,청평면,127.4293452,37.7297832,,
722,서현,西贤,西賢,Gyeonggi,2015 외래관광객실태조사,127.1344396,37.3822656,서현동,성남시 분당구,서현동,127.1344396,37.3822656,,
723,송탄,松炭,松炭,Gyeonggi,2015 외래관광객실태조사,127.0514265,37.0841853,송탄,평택시,신장동,127.0514265,37.0841853,,
724,의왕시,义王市,義王市,Gyeonggi,2015 외래관광객실태조사,126.9896996,37.3624626,의왕시,의왕시,오전동,126.9896996,37.3624626,,
725,군포,军浦,軍浦,Gyeonggi,2015 외래관광객실태조사,126.9211003,37.3434691,군포시,군포시,산본동,126.9211003,37.3434691,,
726,오산,乌山,烏山,Gyeonggi,2015 외래관광객실태조사,127.0513324,37.1632991,오산시,오산시,궐동,127.0513324,37.1632991,,
727,기흥,器兴,器興,Gyeonggi,2015 외래관광객실태조사,127.1213604,37.2674312,기흥구,용인시 기흥구,상갈동,127.1213604,37.2674312,,
728,광주(경기),光州（京畿道）,光州（京畿道）,Gyeonggi,2015 외래관광객실태조사,127.3011624,37.4030854,경기 광주시,광주시,초월읍,127.3011624,37.4030854,,
729,분당,盆唐,盆唐,Gyeonggi,2015 외래관광객실태조사,127.1060411,37.3793356,분당구,성남시 분당구,정자동,127.1060411,37.3793356,,
730,안성,安城,安城,Gyeonggi,2015 외래관광객실태조사,127.3027301,37.035033,안성시,안성시,보개면,127.3027301,37.035033,,
731,의정부,议政府,議政府,Gyeonggi,2015 외래관광객실태조사,127.0684356,37.7361884,의정부시,의정부시,신곡동,127.0684356,37.7361884,,
732,죽전,竹田,竹田,Gyeonggi,2015 외래관광객실태조사,127.1234646,37.3295528,죽전동,용인시 수지구,죽전동,127.1234646,37.3295528,,
733,판교,板桥,板橋,Gyeonggi,2015 외래관광객실태조사,127.11116,37.394776,판교역,성남시 분당구,백현동,127.11116,37.394776,,
734,성남서울공항,城南首尔机场,城南首爾機場,Gyeonggi,2015 외래관광객실태조사,127.1078131,37.4449885,성남서울공항,성남시 수정구,심곡동,127.1078131,37.4449885,,
735,과천,果川,果川,Gyeonggi,2015 외래관광객실태조사,127.0027656,37.4338294,과천시,과천시,막계동,127.0027656,37.4338294,,
736,광명,光明,光明,Gyeonggi,2015 외래관광객실태조사,126.8646989,37.4451612,광명시,광명시,하안동,126.8646989,37.4451612,,
737,평촌,坪村,坪村,Gyeonggi,2015 외래관광객실태조사,126.9680004,37.3887438,평촌동,안양시 동안구,평촌동,126.9680004,37.3887438,,
738,서촌,西村,西村,Seoul,2015 외래관광객실태조사,126.968313,37.5814263,서촌,종로구,옥인동,126.968313,37.5814263,,
739,장안동,长安洞,長安洞,Seoul,2015 외래관광객실태조사,127.0700249,37.570207,장안동,동대문구,장안동,127.0700249,37.570207,,
740,한림대학병원,翰林大学医院,翰林大學醫院,,2015 외래관광객실태조사,,,,,,,,,
741,숭실대학교,崇实大学,崇實大學,Seoul,2015 외래관광객실태조사,126.9572222,37.4963538,숭실대학교,동작구,상도동,126.9572222,37.4963538,,
742,용산공원,龙山公园,龍山公園,Seoul,2015 외래관광객실태조사,126.9839378,37.5211389,용산가족공원,용산구,용산동6가,126.9839378,37.5211389,,
743,모던뮤지엄,现代美术馆,現代美術館,,2015 외래관광객실태조사,,,,,,,,,
744,동작구,铜雀区,銅雀區,Seoul,2015 외래관광객실태조사,126.9516345,37.4988794,동작구,동작구,상도동,126.9516345,37.4988794,,
745,마장동,马场洞,馬場洞,Seoul,2015 외래관광객실태조사,127.040228,37.5669747,마장동,성동구,마장동,127.040228,37.5669747,,
746,석촌동,石村洞,石村洞,Seoul,2015 외래관광객실태조사,127.1026694,37.5024352,석촌동,송파구,석촌동,127.1026694,37.5024352,,
747,염창동,盐仓洞,鹽倉洞,Seoul,2015 외래관광객실태조사,126.8707482,37.5527315,염창동,강서구,염창동,126.8707482,37.5527315,,
748,사당동,舍堂洞,舍堂洞,Seoul,2015 외래관광객실태조사,126.9772568,37.4798074,사당동,동작구,사당동,126.9772568,37.4798074,,
749,대치동,大峙洞,大峙洞,Seoul,2015 외래관광객실태조사,127.0633458,37.4991887,대치동,강남구,대치동,127.0633458,37.4991887,,
750,수유동,水踰洞,水踰洞,Seoul,2015 외래관광객실태조사,127.0073721,37.6383275,수유동,강북구,수유동,127.0073721,37.6383275,,
751,천호동,千户洞,千戶洞,Seoul,2015 외래관광객실태조사,127.1276202,37.5443765,천호동,강동구,천호동,127.1276202,37.5443765,,
752,망원동,望远洞,望遠洞,Seoul,2015 외래관광객실태조사,126.8998606,37.5554884,망원동,마포구,망원동,126.8998606,37.5554884,,
753,장충동,奖忠洞,獎忠洞,Seoul,2015 외래관광객실태조사,127.0035937,37.5580498,장충동,중구,장충동2가,127.0035937,37.5580498,,
754,구기동,旧基洞,舊基洞,Seoul,2015 외래관광객실태조사,126.9592855,37.6193848,구기동,종로구,구기동,126.9592855,37.6193848,,
755,오금동,梧琴洞,梧琴洞,Seoul,2015 외래관광객실태조사,127.1344585,37.5041934,오금동,송파구,오금동,127.1344585,37.5041934,,
756,중랑구,中浪区,中浪區,Seoul,2015 외래관광객실태조사,127.0928927,37.5978139,중랑구,중랑구,망우동,127.0928927,37.5978139,,
757,신촌 세브란스병원,延世大学 新村世福兰斯医院,延世大學 新村世福蘭斯醫院,Seoul,2015 외래관광객실태조사,126.9408692,37.5623371,연세세브란스병원,서대문구,신촌동,126.9408692,37.5623371,,
758,삼성 리움박물관,三星美术馆 Leeum,三星美術館 Leeum,Seoul,2015 외래관광객실태조사,126.9993937,37.5378932,리움미술관,용산구,한남동,126.9993937,37.5378932,,
759,김포공항,金浦国际机场,金浦國際機場,Seoul,2015 외래관광객실태조사,126.8013282,37.5655383,김포공항,강서구,방화동,126.8013282,37.5655383,,
760,이천,利川,利川,Gyeonggi,2015 외래관광객실태조사,127.4810494,37.2097769,이천시,이천시,대월면,127.4810494,37.2097769,,
761,고양시,高阳市,高陽市,Gyeonggi,2015 외래관광객실태조사,126.8369961,37.6650719,고양시,고양시 덕양구,주교동,126.8369961,37.6650719,,
762,양주시,杨州市,楊州市,Gyeonggi,2015 외래관광객실태조사,127.001143,37.8086632,양주시,양주시,백석읍,127.001143,37.8086632,,
763,하남시,河南市,河南市,Gyeonggi,2015 외래관광객실태조사,127.2059921,37.5228824,하남시,하남시,교산동,127.2059921,37.5228824,,
764,구리시,九里市,九里市,Gyeonggi,2015 외래관광객실태조사,127.1313079,37.5990186,구리시,구리시,교문동,127.1313079,37.5990186,,
765,곤지암리조트,昆池岩度假村,昆池岩度假村,Gyeonggi,2015 외래관광객실태조사,127.2953076,37.3372414,곤지암리조트,광주시,도척면,127.2953076,37.3372414,,
766,고궁,古宫,古宮,Seoul,2016 외래관광객실태조사,,,경복궁,종로구,세종로,126.977041,37.579617,,
767,박물관(기념관),博物馆(纪念馆),博物館(紀念館),Seoul,2016 외래관광객실태조사,,,국립중앙박물관,용산구,용산동6가,126.9804702,37.5238506,,
768,인사동,仁寺洞,仁寺洞,Seoul,2016 외래관광객실태조사,126.9860732,37.5717174,인사동,종로구,인사동,126.9860732,37.5717174,,
769,남산/N서울타워,南山/N首尔塔,南山/N首爾塔,Seoul,2016 외래관광객실태조사,,,남산,용산구,후암동,126.9809696,37.5537586,,
770,명동,明洞,明洞,Seoul,2016 외래관광객실태조사,126.9858296,37.55998,명동,중구,남산동2가,126.9858296,37.55998,,
771,남대문시장,南大门市场,南大門市場,Seoul,2016 외래관광객실태조사,126.9776692,37.5591786,남대문시장,중구,남창동,126.9776692,37.5591786,,
772,코엑스,COEX,COEX,Seoul,2016 외래관광객실태조사,127.0595931,37.5113686,코엑스,강남구,삼성동,127.0595931,37.5113686,,
773,동대문시장,东大门市场,東大門市場,Seoul,2016 외래관광객실태조사,127.0081119,37.5707806,동대문시장,종로구,종로6가,127.0081119,37.5707806,,
774,이태원,梨泰院,梨泰院,Seoul,2016 외래관광객실태조사,126.9925224,37.5385051,이태원,용산구,이태원동,126.9925224,37.5385051,,
775,잠실(롯데월드),蚕室(乐天世界),蠶室(樂天世界),Seoul,2016 외래관광객실태조사,127.098167,37.5111158,롯데월드,송파구,잠실동,127.098167,37.5111158,,
776,여의도(63빌딩),汝矣岛/63大厦/永登浦,汝矣島(63大廈/永登浦),Seoul,2016 외래관광객실태조사,126.9401255,37.5197159,63빌딩,영등포구,여의도동,126.9401255,37.5197159,,
777,한강/유람선,汉江/游船,漢江/遊覽船,Seoul,2016 외래관광객실태조사,,,한강유람선,영등포구,여의도동,126.9384944,37.5257811,,
778,청계천/광화문광장,清溪川/光化门广场,清溪川/光化門廣場,Seoul,2016 외래관광객실태조사,,,광화문광장,종로구,세종로,126.9769117,37.572389,,
779,신촌/홍대주변,新村/弘大周围,新村/弘大周圍,Seoul,2016 외래관광객실태조사,,,홍대거리,마포구,서교동,126.9241498,37.5558499,,
780,DMC/월드컵 경기장,DMC/世界杯体育场,DMC/世界盃體育場,Seoul,2016 외래관광객실태조사,126.8972735,37.5682617,월드컵 경기장,마포구,성산동,126.8972735,37.5682617,,
781,한옥마을(남산),韩屋村(南山),韓屋村(南山),Seoul,2016 외래관광객실태조사,126.994477,37.559315,남산골 한옥마을,중구,필동2가,126.994477,37.559315,,
782,북촌/삼청동,北村/三清洞,北村/三清洞,Seoul,2016 외래관광객실태조사,,,북촌,종로구,가회동,126.9849519,37.5814696,,
783,청담동/압구정동,清潭洞/狎鸥亭洞,清潭洞/狎鷗亭洞,Seoul,2016 외래관광객실태조사,,,청담동,강남구,청담동,127.0479736,37.5233931,,
784,가로수길,林荫树街,林蔭樹街,Seoul,2016 외래관광객실태조사,127.0228686,37.5210566,가로수길,강남구,신사동,127.0228686,37.5210566,,
785,강남역,江南站,江南站,Seoul,2016 외래관광객실태조사,127.027619,37.497952,강남역,강남구,역삼동,127.027619,37.497952,,
786,월미도/차이나타운·개항장/연안부두,月尾岛/唐人街/开港场/沿岸埠头,月尾島/唐人街/開港場/沿岸埠頭,Incheon,2016 외래관광객실태조사,,,인천 차이나타운,중구,북성동2가,126.6178849,37.475589,,
787,송도,松岛,松島,Incheon,2016 외래관광객실태조사,126.6389202,37.3860959,송도,연수구,송도동,126.6389202,37.3860959,,
788,강화(석모도/연등선원),江华岛(石母岛/莲灯禅院),江華島(石母島/蓮燈禪院),Incheon,2016 외래관광객실태조사,,,강화도,강화군,불은면,126.4511281,37.7131742,,
789,영종도/공항주변/인천대교,永宗岛/机场周边/仁川大桥,永宗島/機場周邊/仁川大橋,Incheon,2016 외래관광객실태조사,,,영종도,중구,운남동,126.5358479,37.5000629,,
790,소래포구,苏来浦口,蘇來浦口,Incheon,2016 외래관광객실태조사,126.7407213,37.3987976,소래포구,남동구,논현동,126.7407213,37.3987976,,
791,옹진(해수욕장),瓮津(海水浴场),瓮津(海水浴場),Incheon,2016 외래관광객실태조사,124.6778869,37.9535884,옹진군,옹진군,백령면,124.6778869,37.9535884,,
792,무의도,舞衣岛,舞衣島,Incheon,2016 외래관광객실태조사,126.4155849,37.3918796,무의도,중구,무의동,126.4155849,37.3918796,,
793,에버랜드/캐리비안베이,爱宝乐园/加勒比海湾,愛寶樂園/加勒比海灣,Gyeonggi,2016 외래관광객실태조사,,,에버랜드,용인시 처인구,포곡읍,127.2025664,37.2939104,,
794,수원화성/화성행궁,水原华城/华城行宫,水原華城行宮,Gyeonggi,2016 외래관광객실태조사,,,수원화성,수원시 장안구,영화동,127.0119379,37.2871202,,
795,임진각평화누리/제3땅꿀/오두산 통일전망대/판문점,临津阁/第三隧道/乌头山统一展望台/板门店,臨津閣/第三隧道/烏頭山統一展望台/板門店,Gyeonggi,2016 외래관광객실태조사,,,임진각,파주시,문산읍,126.7402185,37.8897444,,
796,한국민속촌,韩国民俗村,民俗村,Gyeonggi,2016 외래관광객실태조사,127.1181126,37.258939,한국민속촌,용인시 기흥구,보라동,127.1181126,37.258939,,
797,서울랜드/서울대공원,首尔乐园/首尔大公园,首爾樂園/首爾大公園,Gyeonggi,2016 외래관광객실태조사,,,서울대공원,과천시,막계동,127.0170252,37.4275247,,
798,킨텍스,KINTEX,KINTEX,Gyeonggi,2016 외래관광객실태조사,126.7434475,37.6672007,킨텍스,고양시 일산서구,대화동,126.7434475,37.6672007,,
799,헤이리예술마을,HEYRI艺术村,HEYRI藝術村,Gyeonggi,2016 외래관광객실태조사,126.698722,37.7888414,헤이리예술마을,파주시,탄현면,126.698722,37.7888414,,
800,파주 쇼핑아울렛,坡州Outlet,坡州Outlet,Gyeonggi,2016 외래관광객실태조사,126.6970148,37.7691847,파주 쇼핑아울렛,파주시,탄현면,126.6970148,37.7691847,,
801,여주 쇼핑아울렛,骊州Outlet,驪州Outlet,Gyeonggi,2016 외래관광객실태조사,127.6123488,37.2413256,여주 쇼핑아울렛,여주시,상거동,127.6123488,37.2413256,,
802,포천(허브아일랜드),抱川(香草岛乐园),抱川(香草島樂園),Gyeonggi,2016 외래관광객실태조사,127.131773,37.9654806,포천 허브아일랜드,포천시,신북면,127.131773,37.9654806,,
803,부천(웅진플레이도시),富川(熊津游戏城),富川(熊津遊樂城),Gyeonggi,2016 외래관광객실태조사,126.7449357,37.4999116,부천 웅진플레이도시,부천시,상동,126.7449357,37.4999116,,
804,양평(두물머리/레일바이크),杨平(两水头/铁路自行车),楊平(兩水頭/鐵路自行車),Gyeonggi,2016 외래관광객실태조사,,,양평군,양평군,용문면,127.5792445,37.5180465,,
805,가평(자라섬/쁘띠프랑스),加平(龟岛/小法兰西),加平(鱉島/小法國村),Gyeonggi,2016 외래관광객실태조사,,,가평군,가평군,가평읍,127.4502156,37.8184719,,
806,안산(대부도/시화호),鞍山(大釜岛/始华湖),鞍山(大釜島/始華湖),Gyeonggi,2016 외래관광객실태조사,,,안산 대부도,안산시 단원구,대부북동,126.5786286,37.2415397,,
807,스키장(지산/양지/베어스타운),滑雪场(芝山/阳智/熊城),滑雪場(芝山/陽智/熊城滑雪場),Gyeonggi,2016 외래관광객실태조사,,,,,,,,,
808,동두천(한탄강),东斗川(汉滩江),東斗川(漢灘江),Gyeonggi,2016 외래관광객실태조사,127.010833,38.004722,동두천 한탄강,연천군,전곡읍,127.010833,38.004722,,
809,평택시(송탄 로데오거리),平泽(松丹路五岔口),平澤(松丹路五岔口),Gyeonggi,2016 외래관광객실태조사,127.0508323,37.076363,평택 송탄 로데오거리,평택시,신장동,127.0508323,37.076363,,
810,서대문,西大门,西大門,Seoul,2016 외래관광객실태조사,126.9390623,37.5777796,서대문구,서대문구,연희동,126.9390623,37.5777796,,
811,노원,芦原,蘆原,Seoul,2016 외래관광객실태조사,127.075042,37.6525076,노원구,노원구,중계동,127.075042,37.6525076,,
812,송파,松坡,松坡,Seoul,2016 외래관광객실태조사,127.1152992,37.5056205,송파구,송파구,송파동,127.1152992,37.5056205,,
813,혜화,惠化,惠化,Seoul,2016 외래관광객실태조사,127.001893,37.58217,혜화역,종로구,동숭동,127.001893,37.58217,,
814,서울역/서울로,首尔站/首尔路,首爾站/首爾路,Seoul,2016 외래관광객실태조사,126.972317,37.555946,서울역,중구,봉래동2가,126.972317,37.555946,,
815,종로/통인시장,钟路/通仁市场,鐘路/通仁市場,Seoul,2016 외래관광객실태조사,126.977339,37.5949159,종로구,종로구,삼청동,126.977339,37.5949159,,
816,시청,市厅,市廳,Seoul,2016 외래관광객실태조사,126.9782038,37.5665851,서울시청,중구,태평로1가,126.9782038,37.5665851,,
817,청와대,青瓦台,青瓦臺,Seoul,2016 외래관광객실태조사,126.974811,37.5866076,청와대,종로구,세종로,126.974811,37.5866076,,
818,대학로,大学路,大學路,Seoul,2016 외래관광객실태조사,127.0016013,37.5782763,대학로,종로구,연건동,127.0016013,37.5782763,,
819,마포,麻浦,麻浦,Seoul,2016 외래관광객실태조사,126.9082589,37.5593115,마포구,마포구,성산동,126.9082589,37.5593115,,
820,충무로,忠武路,忠武路,Seoul,2016 외래관광객실태조사,126.9927416,37.5648394,충무로,중구,초동,126.9927416,37.5648394,,
821,충무아트홀,忠武艺术中心,忠武藝術中心,Seoul,2016 외래관광객실태조사,127.0148592,37.5659291,충무아트홀,중구,흥인동,127.0148592,37.5659291,,
822,남영동,南营洞,南營洞,Seoul,2016 외래관광객실태조사,126.9745456,37.5458902,남영동,용산구,갈월동,126.9745456,37.5458902,,
823,상암동,上岩洞,上岩洞,Seoul,2016 외래관광객실태조사,126.8798744,37.5707485,상암동,마포구,상암동,126.8798744,37.5707485,,
824,이촌동,二村洞,二村洞,Seoul,2016 외래관광객실태조사,126.9665337,37.5174531,이촌동,용산구,이촌동,126.9665337,37.5174531,,
825,가산디지털단지,加山数码园区,加山數碼園區,Seoul,2016 외래관광객실태조사,126.882652,37.48144,가산디지털단지역,금천구,가산동,126.882652,37.48144,,
826,구로,九老,九老,Seoul,2016 외래관광객실태조사,126.8563336,37.4944134,구로구,구로구,개봉동,126.8563336,37.4944134,,
827,광장시장,广藏市场,廣藏市場,Seoul,2016 외래관광객실태조사,126.9996036,37.5700398,광장시장,종로구,예지동,126.9996036,37.5700398,,
828,금천,衿川,衿川,Seoul,2016 외래관광객실태조사,126.9008183,37.4605655,금천구,금천구,독산동,126.9008183,37.4605655,,
829,독산,秃山,禿山,Seoul,2016 외래관광객실태조사,126.8982935,37.4674733,독산동,금천구,독산동,126.8982935,37.4674733,,
830,노량진,鹭梁津,鷺梁津,Seoul,2016 외래관광객실태조사,126.941687,37.514082,노량진역,동작구,노량진동,126.941687,37.514082,,
831,답십리,踏十里,踏十里,Seoul,2016 외래관광객실태조사,127.052382,37.567072,답십리역,성동구,용답동,127.052382,37.567072,,
832,목동,木洞,木洞,Seoul,2016 외래관광객실태조사,126.8745334,37.5360367,목동,양천구,목동,126.8745334,37.5360367,,
833,장안평,长安坪,長安坪,Seoul,2016 외래관광객실태조사,127.0652943,37.5616837,장안평역,동대문구,장안동,127.0652943,37.5616837,,
834,이화여자대학교,梨花女子大学,梨花女子大學,Seoul,2016 외래관광객실태조사,126.9468339,37.5618588,이화여자대학교,서대문구,대현동,126.9468339,37.5618588,,
835,고속버스터미널,高速巴士总站,高速巴士總站,Seoul,2016 외래관광객실태조사,127.0049151,37.5049142,고속버스터미널,서초구,반포동,127.0049151,37.5049142,,
836,반포,盘浦,盤浦,Seoul,2016 외래관광객실태조사,127.011741,37.508221,반포역,서초구,잠원동,127.011741,37.508221,,
837,서초구,瑞草区,瑞草區,Seoul,2016 외래관광객실태조사,127.0312101,37.4732933,서초구,서초구,양재동,127.0312101,37.4732933,,
838,역삼동,驿三洞,驛三洞,Seoul,2016 외래관광객실태조사,127.0385419,37.5000776,역삼동,강남구,역삼동,127.0385419,37.5000776,,
839,합정동,合井洞,合井洞,Seoul,2016 외래관광객실태조사,126.9111751,37.5483014,합정동,마포구,합정동,126.9111751,37.5483014,,
840,삼성동,三成洞,三成洞,Seoul,2016 외래관광객실태조사,127.0561274,37.513975,삼성동,강남구,삼성동,127.0561274,37.513975,,
841,고려대학교,高丽大学,高麗大學,Seoul,2016 외래관광객실태조사,127.0324773,37.5893876,고려대학교,성북구,안암동5가,127.0324773,37.5893876,,
842,외국어대학교,外国语大学,外國語大學,Seoul,2016 외래관광객실태조사,127.0588002,37.5974453,한국외국어대학교,동대문구,이문동,127.0588002,37.5974453,,
843,한양대학교,汉阳大学,漢陽大學,Seoul,2016 외래관광객실태조사,127.0454092,37.5571759,한양대학교,성동구,행당동,127.0454092,37.5571759,,
844,서울대학교,首尔大学,首爾大學,Seoul,2016 외래관광객실태조사,126.9511364,37.4593505,서울대학교,관악구,신림동,126.9511364,37.4593505,,
845,타임스퀘어,首尔时代广场,首爾時代廣場,Seoul,2016 외래관광객실태조사,126.9033411,37.5170751,타임스퀘어,영등포구,영등포동4가,126.9033411,37.5170751,,
846,신도림,新道林,新道林,Seoul,2016 외래관광객실태조사,126.8915131,37.5089833,신도림역,구로구,신도림동,126.8915131,37.5089833,,
847,용산,龙山,龍山,Seoul,2016 외래관광객실태조사,126.9798839,37.5313805,용산구,용산구,용산동3가,126.9798839,37.5313805,,
848,영등포,永登浦,永登浦,Seoul,2016 외래관광객실태조사,126.9101692,37.5223245,영등포구,영등포구,영등포동2가,126.9101692,37.5223245,,
849,힐튼호텔,希尔顿饭店,希爾頓飯店,,2016 외래관광객실태조사,,,,,,,,,
850,올림픽공원,奥林匹克公园,奧林匹克公園,Seoul,2016 외래관광객실태조사,127.1214941,37.5206868,올림픽공원,송파구,방이동,127.1214941,37.5206868,,
851,신라호텔,新罗酒店,新羅酒店,Seoul,2016 외래관광객실태조사,127.0052509,37.5559034,신라호텔,중구,장충동2가,127.0052509,37.5559034,,
852,롯데호텔,乐天饭店,樂天飯店,Seoul,2016 외래관광객실태조사,126.980979,37.5653,롯데호텔,중구,을지로1가,126.980979,37.5653,,
853,MBC 드라마센타,MBC梦想中心,MBC夢想中心,Gyeonggi,2016 외래관광객실태조사,126.7706487,37.6554714,MBC일산드림센터,고양시 일산동구,장항동,126.7706487,37.6554714,,
854,워커힐 호텔,华克山庄酒店,華克山莊酒店,Seoul,2016 외래관광객실태조사,127.1108905,37.5552126,그랜드 워커힐 서울,광진구,광장동,127.1108905,37.5552126,,
855,JW메리어트 호텔,JW万豪酒店,JW萬豪酒店,Seoul,2016 외래관광객실태조사,,,,,,,,,
856,미즈매디병원,MizMedi妇幼综合医院,MizMedi婦幼綜合醫院,Seoul,2016 외래관광객실태조사,126.8359888,37.5521496,미즈매디병원,강서구,내발산동,126.8359888,37.5521496,,
857,한남동,汉南洞,漢南洞,Seoul,2016 외래관광객실태조사,127.0051334,37.5375279,한남동,용산구,한남동,127.0051334,37.5375279,,
858,회기동,回基洞,回基洞,Seoul,2016 외래관광객실태조사,127.0516746,37.5920886,회기동,동대문구,회기동,127.0516746,37.5920886,,
859,양재동,良才洞,良才洞,Seoul,2016 외래관광객실태조사,127.0374623,37.4719823,양재동,서초구,양재동,127.0374623,37.4719823,,
860,서래마을,瑞来村,瑞來村,Seoul,2016 외래관광객실태조사,126.9982698,37.4969306,서래마을,서초구,반포동,126.9982698,37.4969306,,
861,신설동,新设洞,新設洞,Seoul,2016 외래관광객실태조사,127.0255567,37.5749456,신설동,동대문구,신설동,127.0255567,37.5749456,,
862,충정로,忠正路,忠正路,Seoul,2016 외래관광객실태조사,126.9645745,37.562683,충정로,서대문구,충정로3가,126.9645745,37.562683,,
863,불광동,佛光洞,佛光洞,Seoul,2016 외래관광객실태조사,126.9355669,37.6191594,불광동,은평구,불광동,126.9355669,37.6191594,,
864,왕십리,往十里,往十里,Seoul,2016 외래관광객실태조사,127.0252724,37.568832,왕십리,성동구,상왕십리동,127.0252724,37.568832,,
865,을지로,乙支路,乙支路,Seoul,2016 외래관광객실태조사,126.9954924,37.5660286,을지로,중구,을지로4가,126.9954924,37.5660286,,
866,청량리동,清凉里洞,清涼里洞,Seoul,2016 외래관광객실태조사,127.0452806,37.5888074,청량리동,동대문구,청량리동,127.0452806,37.5888074,,
867,테크노마트,科技商场,科技商場,Seoul,2016 외래관광객실태조사,127.095505,37.5355072,테크노마트,광진구,구의동,127.095505,37.5355072,,
868,경동시장,京东市场,京東市場,Seoul,2016 외래관광객실태조사,127.03854,37.57973,경동시장,동대문구,제기동,127.03854,37.57973,,
869,성수동,圣水洞,聖水洞,Seoul,2016 외래관광객실태조사,127.0566319,37.5406846,성수동,성동구,성수동2가,127.0566319,37.5406846,,
870,DDP(동대문 디자인 플라자),DDP（东大门设计广场）,DDP（東大門設計廣場）,Seoul,2016 외래관광객실태조사,127.0092236,37.5665256,DDP 동대문디자인플라자,중구,을지로7가,127.0092236,37.5665256,,
871,세종문화회관,世宗文化会馆,世宗文化會館,Seoul,2016 외래관광객실태조사,126.9756429,37.5725254,세종문화회관,종로구,세종로,126.9756429,37.5725254,,
872,봉은사,奉恩寺,奉恩寺,Seoul,2016 외래관광객실태조사,127.0573766,37.514852,봉은사,강남구,삼성동,127.0573766,37.514852,,
873,조계사,曹溪寺,曹溪寺,Seoul,2016 외래관광객실태조사,126.982202,37.5738369,조계사,종로구,견지동,126.982202,37.5738369,,
874,서울 중부시장,首尔中部市场,首爾中部市場,Seoul,2016 외래관광객실태조사,127.0004122,37.5653903,중부시장,중구,오장동,127.0004122,37.5653903,,
875,서울,首尔,首爾,Seoul,2016 외래관광객실태조사,,,,,,,,,
876,절/사찰,寺庙,寺廟,,2016 외래관광객실태조사,,,,,,,,,
877,인터컨티넨탈호텔,洲际酒店及度假村,洲際酒店及度假村,Seoul,2016 외래관광객실태조사,127.0574219,37.5126864,인터컨티넨탈호텔,강남구,삼성동,127.0574219,37.5126864,,
878,김포시티호텔,金浦市酒店,金浦市酒店,Gyeonggi,2016 외래관광객실태조사,,,김포시,김포시,통진읍,126.6265338,37.6818227,,
879,엠베서더호텔,大使酒店,大使酒店,,2016 외래관광객실태조사,,,,,,,,,
880,프라자호텔,广场饭店,廣場飯店,,2016 외래관광객실태조사,,,,,,,,,
881,하얏트호텔,首尔君悦酒店,首爾君悅酒店,,2016 외래관광객실태조사,,,,,,,,,
882,연세세브란스병원,延世大学 新村世福兰斯医院,延世大學 新村世福蘭斯醫院,Seoul,2016 외래관광객실태조사,126.9408692,37.5623371,연세세브란스병원,서대문구,신촌동,126.9408692,37.5623371,,
883,경희대학병원,庆熙大学医院,慶熙大學醫院,Seoul,2016 외래관광객실태조사,127.0513235,37.5938755,경희대학병원,동대문구,회기동,127.0513235,37.5938755,,
884,한양대학병원,汉阳大学医院,漢陽大學醫院,Seoul,2016 외래관광객실태조사,127.0439991,37.5596514,한양대학병원,성동구,사근동,127.0439991,37.5596514,,
885,북한산,北汉山,北漢山,Seoul,2016 외래관광객실태조사,126.993333,37.660833,북한산,강북구,우이동,126.993333,37.660833,,
886,청계산,清溪山,清溪山,Gyeonggi,2016 외래관광객실태조사,127.0415787,37.4141657,청계산,의왕시,청계동,127.0415787,37.4141657,,
887,소요산,牛余山,牛餘山,Gyeonggi,2016 외래관광객실태조사,127.0878091,37.9426296,소요산,동두천시,상봉암동,127.0878091,37.9426296,,
888,발산동,钵山洞,缽山洞,Seoul,2016 외래관광객실태조사,126.8196088,37.5470548,발산동,강서구,외발산동,126.8196088,37.5470548,,
889,종묘,宗庙,宗廟,Seoul,2016 외래관광객실태조사,126.994143,37.574583,종묘,종로구,훈정동,126.994143,37.574583,,
890,삼성병원 /삼성의료원,三星首尔医院,三星首爾醫院,Seoul,2016 외래관광객실태조사,127.0849885,37.4881193,삼성병원,강남구,일원동,127.0849885,37.4881193,,
891,중앙대학 병원(흑석동),中央大学医院（黑石洞）,中央大學醫院（黑石洞）,Seoul,2016 외래관광객실태조사,126.9607295,37.5066909,중앙대학병원,동작구,흑석동,126.9607295,37.5066909,,
892,건국대학교병원,建国大学医院,建國大學醫院,Seoul,2016 외래관광객실태조사,127.0719454,37.5404895,건국대학교병원,광진구,화양동,127.0719454,37.5404895,,
893,중앙대학교,中央大学,中央大學,Seoul,2016 외래관광객실태조사,126.9571012,37.5050881,중앙대학교,동작구,흑석동,126.9571012,37.5050881,,
894,경희대학교,庆熙大学,慶熙大學,Seoul,2016 외래관광객실태조사,127.0518435,37.5968367,경희대학교,동대문구,회기동,127.0518435,37.5968367,,
895,연세대학교,延世大学,延世大學,Seoul,2016 외래관광객실태조사,126.9387066,37.5663937,연세대학교,서대문구,신촌동,126.9387066,37.5663937,,
896,건국대학교,建国大学,建國大學,Seoul,2016 외래관광객실태조사,127.0759204,37.5423265,건국대학교,광진구,화양동,127.0759204,37.5423265,,
897,김포,金浦,金浦,Gyeonggi,2016 외래관광객실태조사,126.6265338,37.6818227,김포시,김포시,통진읍,126.6265338,37.6818227,,
898,부천,富川,富川,Gyeonggi,2016 외래관광객실태조사,126.7886531,37.5042687,부천시,부천시,춘의동,126.7886531,37.5042687,,
899,인천시내,仁川市内,仁川市內,Incheon,2016 외래관광객실태조사,,,,,,,,,
900,인천하얏트호텔,仁川凯悦酒店,仁川凱悅酒店,Incheon,2016 외래관광객실태조사,126.4574508,37.4404925,그랜드 하얏트 인천,중구,운서동,126.4574508,37.4404925,,
901,계양동,桂阳洞,桂陽洞,Incheon,2016 외래관광객실태조사,126.734707,37.5572857,계양구,계양구,방축동,126.734707,37.5572857,,
902,연수동,延寿洞,延壽洞,Incheon,2016 외래관광객실태조사,126.6832981,37.420418,연수동,연수구,연수동,126.6832981,37.420418,,
903,부평구,富平区,富平區,Incheon,2016 외래관광객실태조사,126.7212089,37.4966725,부평구,부평구,부평동,126.7212089,37.4966725,,
904,남동공단,南洞产业园地,南洞產業園地,Incheon,2016 외래관광객실태조사,126.726484,37.4310147,남동구,남동구,수산동,126.726484,37.4310147,,
905,인하대학교병원,仁荷大学医院,仁荷大學醫院,Incheon,2016 외래관광객실태조사,126.6341172,37.4588197,인하대학교병원,중구,신흥동3가,126.6341172,37.4588197,,
906,인천대공원,仁川大公园,仁川大公園,Incheon,2016 외래관광객실태조사,126.7522197,37.459244,인천대공원,남동구,장수동,126.7522197,37.459244,,
907,시흥시,始兴市,始興市,Gyeonggi,2016 외래관광객실태조사,126.7841675,37.3864796,시흥시,시흥시,장곡동,126.7841675,37.3864796,,
908,일산시,一山市,一山市,Gyeonggi,2016 외래관광객실태조사,126.7711774,37.6783756,일산,고양시 일산서구,일산동,126.7711774,37.6783756,,
909,용인시,龙仁市,龍仁市,Gyeonggi,2016 외래관광객실태조사,127.2218612,37.2214872,용인시,용인시 처인구,남동,127.2218612,37.2214872,,
910,동탄시,东滩市,東灘市,Gyeonggi,2016 외래관광객실태조사,127.0970177,37.199327,동탄역,화성시,오산동,127.0970177,37.199327,,
911,분당,盆唐,盆唐,Gyeonggi,2016 외래관광객실태조사,127.1060411,37.3793356,분당구,성남시 분당구,정자동,127.1060411,37.3793356,,
912,동두천,东豆川,東豆川,Gyeonggi,2016 외래관광객실태조사,127.0779171,37.916543,동두천시,동두천시,걸산동,127.0779171,37.916543,,
913,남양주,南杨州,南楊州,Gyeonggi,2016 외래관광객실태조사,127.2436632,37.6625097,남양주시,남양주시,호평동,127.2436632,37.6625097,,
914,안양시,安阳市,安陽市,Gyeonggi,2016 외래관광객실태조사,126.9279179,37.4027313,안양시,안양시 동안구,비산동,126.9279179,37.4027313,,
915,화성시,华城市,華城市,Gyeonggi,2016 외래관광객실태조사,126.8654604,37.1616306,화성시,화성시,팔탄면,126.8654604,37.1616306,,
916,성남시,城南市,城南市,Gyeonggi,2016 외래관광객실태조사,127.1162181,37.4073695,성남시,성남시 분당구,삼평동,127.1162181,37.4073695,,
917,청평,清平,清平,Gyeonggi,2016 외래관광객실태조사,127.4293452,37.7297832,청평면,가평군,청평면,127.4293452,37.7297832,,
918,송탄,松炭,松炭,Gyeonggi,2016 외래관광객실태조사,127.0514265,37.0841853,송탄,평택시,신장동,127.0514265,37.0841853,,
919,군포,军浦,軍浦,Gyeonggi,2016 외래관광객실태조사,126.9211003,37.3434691,군포시,군포시,산본동,126.9211003,37.3434691,,
920,오산,乌山,烏山,Gyeonggi,2016 외래관광객실태조사,127.0513324,37.1632991,오산시,오산시,궐동,127.0513324,37.1632991,,
921,안성,安城,安城,Gyeonggi,2016 외래관광객실태조사,127.3027301,37.035033,안성시,안성시,보개면,127.3027301,37.035033,,
922,의정부,议政府,議政府,Gyeonggi,2016 외래관광객실태조사,127.0684356,37.7361884,의정부시,의정부시,신곡동,127.0684356,37.7361884,,
923,죽전,竹田,竹田,Gyeonggi,2016 외래관광객실태조사,127.1234646,37.3295528,죽전동,용인시 수지구,죽전동,127.1234646,37.3295528,,
924,판교,板桥,板橋,Gyeonggi,2016 외래관광객실태조사,127.11116,37.394776,판교역,성남시 분당구,백현동,127.11116,37.394776,,
925,과천,果川,果川,Gyeonggi,2016 외래관광객실태조사,127.0027656,37.4338294,과천시,과천시,막계동,127.0027656,37.4338294,,
926,광명,光明,光明,Gyeonggi,2016 외래관광객실태조사,126.8646989,37.4451612,광명시,광명시,하안동,126.8646989,37.4451612,,
927,서촌,西村,西村,Seoul,2016 외래관광객실태조사,126.968313,37.5814263,서촌,종로구,옥인동,126.968313,37.5814263,,
928,장안동,长安洞,長安洞,Seoul,2016 외래관광객실태조사,127.0700249,37.570207,장안동,동대문구,장안동,127.0700249,37.570207,,
929,사당동,舍堂洞,舍堂洞,Seoul,2016 외래관광객실태조사,126.9772568,37.4798074,사당동,동작구,사당동,126.9772568,37.4798074,,
930,신촌 세브란스병원,延世大学 新村世福兰斯医院,延世大學 新村世福蘭斯醫院,Seoul,2016 외래관광객실태조사,126.9408692,37.5623371,연세세브란스병원,서대문구,신촌동,126.9408692,37.5623371,,
931,김포공항,金浦国际机场,金浦國際機場,Seoul,2016 외래관광객실태조사,126.8013282,37.5655383,김포공항,강서구,방화동,126.8013282,37.5655383,,
932,이천,利川,利川,Gyeonggi,2016 외래관광객실태조사,127.4810494,37.2097769,이천시,이천시,대월면,127.4810494,37.2097769,,
933,고양시,高阳市,高陽市,Gyeonggi,2016 외래관광객실태조사,126.8369961,37.6650719,고양시,고양시 덕양구,주교동,126.8369961,37.6650719,,
934,양주시,杨州市,楊州市,Gyeonggi,2016 외래관광객실태조사,127.001143,37.8086632,양주시,양주시,백석읍,127.001143,37.8086632,,
935,하남시,河南市,河南市,Gyeonggi,2016 외래관광객실태조사,127.2059921,37.5228824,하남시,하남시,교산동,127.2059921,37.5228824,,
936,구리시,九里市,九里市,Gyeonggi,2016 외래관광객실태조사,127.1313079,37.5990186,구리시,구리시,교문동,127.1313079,37.5990186,,
937,파주시,坡州市,坡州市,Gyeonggi,2016 외래관광객실태조사,126.8115232,37.8544244,파주시,파주시,파주읍,126.8115232,37.8544244,,
938,부천 순천향대학병원,富川顺天乡大学医院,富川順天鄉大學醫院,Gyeonggi,2016 외래관광객실태조사,126.7628536,37.4983977,부천 순천향대학병원,부천시,중동,126.7628536,37.4983977,,
939,명지병원,明知医院,明知醫院,Gyeonggi,2016 외래관광객실태조사,126.830935,37.6420879,명지병원,고양시 덕양구,화정동,126.830935,37.6420879,,
940,분당서울대병원,盆唐首尔大学医院,盆唐首爾大學醫院,Gyeonggi,2016 외래관광객실태조사,127.1231772,37.3520673,분당서울대병원,성남시 분당구,구미동,127.1231772,37.3520673,,
941,선정릉,宣靖陵,宣靖陵,Seoul,2016 외래관광객실태조사,127.0520223,37.5072995,선정릉,강남구,삼성동,127.0520223,37.5072995,,
942,남한산성,南汉山城,南漢山城,Gyeonggi,2016 외래관광객실태조사,127.1846118,37.4815237,남한산성,광주시,남한산성면,127.1846118,37.4815237,,
943,어린이대공원,儿童大公园,兒童大公園,Seoul,2016 외래관광객실태조사,127.0818126,37.549363,어린이대공원,광진구,능동,127.0818126,37.549363,,
944,아침고요수목원,晨静树木园,晨靜樹木園,Gyeonggi,2016 외래관광객실태조사,127.3524864,37.7439678,아침고요수목원,가평군,상면,127.3524864,37.7439678,,
945,삼육대학교,三育大学,三育大學,Seoul,2016 외래관광객실태조사,127.1063459,37.6435824,삼육대학교,노원구,공릉동,127.1063459,37.6435824,,
946,광나루,广渡口,廣渡口,Seoul,2016 외래관광객실태조사,127.1200384,37.5487859,광나루한강공원,강동구,천호동,127.1200384,37.5487859,,
947,신림동,新林洞,新林洞,Seoul,2016 외래관광객실태조사,126.9358124,37.4631968,신림동,관악구,신림동,126.9358124,37.4631968,,
948,중림동,中林洞,中林洞,Seoul,2016 외래관광객실태조사,126.9655633,37.5572954,중림동,중구,중림동,126.9655633,37.5572954,,
949,송정동,松亭洞,松亭洞,Seoul,2016 외래관광객실태조사,127.064491,37.5525301,송정동,성동구,송정동,127.064491,37.5525301,,
950,공덕동,孔德洞,孔德洞,Seoul,2016 외래관광객실태조사,126.9549965,37.5481125,공덕동,마포구,공덕동,126.9549965,37.5481125,,
951,화곡동,禾谷洞,禾穀洞,Seoul,2016 외래관광객실태조사,126.8472722,37.5406979,화곡동,강서구,화곡동,126.8472722,37.5406979,,
952,해방촌,解放村,解放村,Seoul,2016 외래관광객실태조사,126.9867064,37.5402259,해방촌,용산구,용산동2가,126.9867064,37.5402259,,
953,가락시장,可乐市场,可樂市場,Seoul,2016 외래관광객실태조사,127.1097998,37.4933411,가락시장,송파구,가락동,127.1097998,37.4933411,,
954,경기도,京畿道,京畿道,Gyeonggi,2016 외래관광객실태조사,,,,,,,,,
955,도봉산,道峰山,道峰山,Seoul,2016 외래관광객실태조사,127.0156843,37.7004635,도봉산,도봉구,도봉동,127.0156843,37.7004635,,
956,서울아트센터,艺术殿堂,藝術殿堂,Seoul,2016 외래관광객실태조사,127.0128613,37.4792903,예술의전당,서초구,서초동,127.0128613,37.4792903,,
957,한국예술종합학교,韩国艺术综合大学,韓國藝術綜合大學,Seoul,2016 외래관광객실태조사,,,,,,,,,
958,메이필드호텔,梅菲尔德酒店,梅菲爾德酒店,Seoul,2016 외래관광객실태조사,126.8187885,37.5475247,메이필드호텔,강서구,외발산동,126.8187885,37.5475247,,
959,세종대학교,世宗大学,世宗大學,Seoul,2016 외래관광객실태조사,127.0736345,37.5518018,세종대학교,광진구,군자동,127.0736345,37.5518018,,
960,성신여자대학교,诚信女子大学,誠信女子大學,Seoul,2016 외래관광객실태조사,127.0221068,37.5912999,성신여자대학교,성북구,돈암동,127.0221068,37.5912999,,
961,용문사,龙门寺,龍門寺,,2016 외래관광객실태조사,,,,,,,,,
962,프레이저플레이스호텔,首尔中心辉盛坊国际公寓,首爾中心輝盛坊國際公寓,,2016 외래관광객실태조사,,,,,,,,,
963,SBS,SBS,SBS,,2016 외래관광객실태조사,,,,,,,,,
964,KBS,KBS,KBS,,2016 외래관광객실태조사,,,,,,,,,
965,성북동,城北洞,城北洞,Seoul,2016 외래관광객실태조사,126.9978087,37.5952093,성북동,성북구,성북동,126.9978087,37.5952093,,
966,IFC몰,IFC Mall,IFC Mall,Seoul,2016 외래관광객실태조사,126.9258867,37.5250243,IFC몰,영등포구,여의도동,126.9258867,37.5250243,,
967,홀리데이인 서울 성북,首尔城北假日饭店,首爾城北假日飯店,Seoul,2016 외래관광객실태조사,127.03337,37.600968,홀리데이인 서울 성북,성북구,종암동,127.03337,37.600968,,
968,아주대학교,亚洲大学,亞洲大學,Gyeonggi,2016 외래관광객실태조사,127.0463409,37.2820187,아주대학교,수원시 영통구,원천동,127.0463409,37.2820187,,
969,동국대학교 일산병원,东国大学一山医院,東國大學一山醫院,Gyeonggi,2016 외래관광객실태조사,126.806398,37.6763892,동국대학교 일산병원,고양시 일산동구,식사동,126.806398,37.6763892,,
970,이천 도자기 박물관,利川陶瓷博物馆,利川陶瓷博物館,Gyeonggi,2016 외래관광객실태조사,127.4234291,37.2754435,경기도자미술관,이천시,관고동,127.4234291,37.2754435,,
971,산본,山本,山本,Gyeonggi,2016 외래관광객실태조사,126.9228713,37.3611337,산봉동,군포시,산본동,126.9228713,37.3611337,,
972,장흥면,长兴面,長興面,Gyeonggi,2016 외래관광객실태조사,126.9635106,37.717343,장흥면,양주시,장흥면,126.9635106,37.717343,,
973,동탄문화센터,东滩文化中心,東灘文化中心,Gyeonggi,2016 외래관광객실태조사,127.075223,37.2006203,동탄복합문화센터,화성시,반송동,127.075223,37.2006203,,
974,경기도문화의전당,京畿艺术中心,京畿藝術中心,Gyeonggi,2016 외래관광객실태조사,127.0374319,37.2618899,경기아트센터,수원시 팔달구,인계동,127.0374319,37.2618899,,
975,평화의계곡(일산),和平谷（一山）,和平谷（一山）,Gyeonggi,2016 외래관광객실태조사,,,,,,,,,
976,문산,文山,文山,Gyeonggi,2016 외래관광객실태조사,126.7803825,37.8742292,문산읍,파주시,문산읍,126.7803825,37.8742292,,
977,인천상륙작전기념관,仁川登陆作战纪念馆,仁川登陸作戰紀念館,Incheon,2016 외래관광객실태조사,126.6542628,37.4196092,인천상륙작전기념관,연수구,옥련동,126.6542628,37.4196092,,
978,당산동,堂山洞,堂山洞,Seoul,2016 외래관광객실태조사,126.9040058,37.5364736,당산동,영등포구,당산동,126.9040058,37.5364736,,
979,러시아대사관(중구),俄罗斯大使馆（中区）,俄羅斯大使館（中區）,Seoul,2016 외래관광객실태조사,126.9718695,37.5649804,주한 러시아 대사관,중구,정동,126.9718695,37.5649804,,
980,개봉동,开峰洞,開峰洞,Seoul,2016 외래관광객실태조사,126.8519326,37.4942409,개봉동,구로구,개봉동,126.8519326,37.4942409,,
981,고척동,高尺洞,高尺洞,Seoul,2016 외래관광객실태조사,126.858851,37.5031884,고척동,구로구,고척동,126.858851,37.5031884,,
982,서울숲,首尔林,首爾林,Seoul,2016 외래관광객실태조사,127.0374424,37.5443878,서울숲,성동구,성수동1가,127.0374424,37.5443878,,
983,하늘공원,空中公园,空中公園,Seoul,2016 외래관광객실태조사,126.8856819,37.5677554,하늘공원,마포구,상암동,126.8856819,37.5677554,,
984,아차산,峨嵯山,峨嵯山,Seoul,2016 외래관광객실태조사,127.1037627,37.5715087,아차산,광진구,중곡동,127.1037627,37.5715087,,
985,유네스코회관,UNESCO会馆,UNESCO會館,Seoul,2016 외래관광객실태조사,126.9837369,37.5634096,유네스코회관,중구,명동2가,126.9837369,37.5634096,,
986,아이파크몰,I'Park Mall,I'Park Mall,Seoul,2016 외래관광객실태조사,126.9647528,37.5297133,아이파크몰,용산구,한강로3가,126.9647528,37.5297133,,
987,북서울 꿈의 숲,北首尔梦之林,北首爾夢之林,Seoul,2016 외래관광객실태조사,127.0406246,37.6214313,북서울 꿈의 숲,강북구,번동,127.0406246,37.6214313,,
988,포시즌스 호텔,首尔四季酒店,首爾四季酒店,Seoul,2016 외래관광객실태조사,126.9754143,37.57071,포시즌스 호텔,종로구,당주동,126.9754143,37.57071,,
989,인왕산,仁王山,仁王山,Seoul,2016 외래관광객실태조사,126.9593042,37.5849489,인왕산,종로구,옥인동,126.9593042,37.5849489,,
990,한성대학교,汉城大学,漢城大學,Seoul,2016 외래관광객실태조사,127.0105811,37.5828483,한성대학교,성북구,삼선동2가,127.0105811,37.5828483,,
991,강북삼성병원,江北三星医院,江北三星醫院,Seoul,2016 외래관광객실태조사,126.9674846,37.5683585,강북삼성병원,종로구,평동,126.9674846,37.5683585,,
992,원자력병원(서울),原子能医院（首尔）,原子能醫院（首爾）,Seoul,2016 외래관광객실태조사,127.0826468,37.6294332,원자력병원(서울),노원구,공릉동,127.0826468,37.6294332,,
993,순천향 대학병원(한남동),顺天乡大学医院（汉南洞）,順天鄉大學醫院（漢南洞）,Seoul,2016 외래관광객실태조사,127.0043336,37.5339355,순천향대학교 서울병원,용산구,한남동,127.0043336,37.5339355,,
994,롯데면세점,乐天免税店,樂天免稅店,Seoul,2016 외래관광객실태조사,,,,,,,,,
995,고궁,古宫,古宮,Seoul,2017 외래관광객실태조사,,,경복궁,종로구,세종로,126.977041,37.579617,,
996,박물관(기념관),博物馆(纪念馆),博物館(紀念館),Seoul,2017 외래관광객실태조사,,,국립중앙박물관,용산구,용산동6가,126.9804702,37.5238506,,
997,인사동,仁寺洞,仁寺洞,Seoul,2017 외래관광객실태조사,126.9860732,37.5717174,인사동,종로구,인사동,126.9860732,37.5717174,,
998,남산/N서울타워,南山/N首尔塔,南山/N首爾塔,Seoul,2017 외래관광객실태조사,,,남산,용산구,후암동,126.9809696,37.5537586,,
999,명동,明洞,明洞,Seoul,2017 외래관광객실태조사,126.9858296,37.55998,명동,중구,남산동2가,126.9858296,37.55998,,
1000,남대문시장,南大门市场,南大門市場,Seoul,2017 외래관광객실태조사,126.9776692,37.5591786,남대문시장,중구,남창동,126.9776692,37.5591786,,
1001,코엑스,COEX,COEX,Seoul,2017 외래관광객실태조사,127.0595931,37.5113686,코엑스,강남구,삼성동,127.0595931,37.5113686,,
1002,동대문시장,东大门市场,東大門市場,Seoul,2017 외래관광객실태조사,127.0081119,37.5707806,동대문시장,종로구,종로6가,127.0081119,37.5707806,,
1003,이태원,梨泰院,梨泰院,Seoul,2017 외래관광객실태조사,126.9925224,37.5385051,이태원,용산구,이태원동,126.9925224,37.5385051,,
1004,잠실(롯데월드),蚕室(乐天世界),蠶室(樂天世界),Seoul,2017 외래관광객실태조사,127.098167,37.5111158,롯데월드,송파구,잠실동,127.098167,37.5111158,蚕市(乐天世界),번체/간체 번역의 생소한 표현
1005,여의도(63빌딩),汝矣岛(63大厦),汝矣島(63大廈),Seoul,2017 외래관광객실태조사,126.9401255,37.5197159,63빌딩,영등포구,여의도동,126.9401255,37.5197159,,
1006,한강/유람선,汉江/游船,漢江/遊覽船,Seoul,2017 외래관광객실태조사,,,한강유람선,영등포구,여의도동,126.9384944,37.5257811,,
1007,청계천/광화문광장,清溪川/光化门广场,清溪川/光化門廣場,Seoul,2017 외래관광객실태조사,,,광화문광장,종로구,세종로,126.9769117,37.572389,,
1008,신촌/홍대주변,新村/弘大周围,新村/弘大周圍,Seoul,2017 외래관광객실태조사,,,홍대거리,마포구,서교동,126.9241498,37.5558499,,
1009,DMC/월드컵 경기장,DMC/世界杯体育场,DMC/世界盃體育場,Seoul,2017 외래관광객실태조사,126.8972735,37.5682617,월드컵 경기장,마포구,성산동,126.8972735,37.5682617,DMC/世界盃赛场,번체/간체 번역의 생소한 표현
1010,한옥마을(남산),韩屋村(南山),韓屋村(南山),Seoul,2017 외래관광객실태조사,126.994477,37.559315,남산골 한옥마을,중구,필동2가,126.994477,37.559315,,
1011,북촌/삼청동,北村/三清洞,北村/三清洞,Seoul,2017 외래관광객실태조사,,,북촌,종로구,가회동,126.9849519,37.5814696,,
1012,청담동/압구정동,清潭洞/狎鸥亭洞,清潭洞/狎鷗亭洞,Seoul,2017 외래관광객실태조사,,,청담동,강남구,청담동,127.0479736,37.5233931,,
1013,가로수길,林荫树街,林蔭樹街,Seoul,2017 외래관광객실태조사,127.0228686,37.5210566,가로수길,강남구,신사동,127.0228686,37.5210566,,
1014,강남역,江南站,江南站,Seoul,2017 외래관광객실태조사,127.027619,37.497952,강남역,강남구,역삼동,127.027619,37.497952,,
1015,월미도/차이나타운·개항장/연안부두,月尾岛/唐人街/开港场/沿岸埠头,月尾島/中國城/開港場/沿岸埠頭,Incheon,2017 외래관광객실태조사,,,인천 차이나타운,중구,북성동2가,126.6178849,37.475589,,
1016,송도(센트럴파크/수상택시/G타워/한옥마을/커낼워크),松岛(中央公园/水上出租车/G Tower/韩屋村/Canal Walk),松島(中央公園/水上巴士/G TOWER/韓屋村/Canal Walk),Incheon,2017 외래관광객실태조사,,,송도,연수구,송도동,126.6389202,37.3860959,,
1017,강화(전등사/석모도/평화전망대),江华岛(传灯寺/石母岛/和平展望台),江華島(傳燈寺/石母島/和平眺望臺),Incheon,2017 외래관광객실태조사,,,강화도,강화군,불은면,126.4511281,37.7131742,江華島(傳燈寺/席毛島/和平眺望臺),번체/간체 오역 사례
1018,공항주변(바닷가)/인천대교/용궁사,机场周围(海边)/仁川大桥/龙宫寺,機場周邊(海邊)/仁川大橋/龍宮寺,Incheon,2017 외래관광객실태조사,,,영종도,중구,운남동,126.5358479,37.5000629,,
1019,"어시장(소래포구, 인천종합)","渔市场(苏来浦口, 仁川综合)","魚市場(蘇來浦口, 仁川綜合)",Incheon,2017 외래관광객실태조사,,,,,,,,,
1020,현대프리미엄아울렛/부평지하상가/엔타스면세점,现代PREMIUM OUTLET/富平地下街/Entas免税店,現代PREMIUM OUTLET/富平地下街/Entas免税店,Incheon,2017 외래관광객실태조사,,,,,,,,"现代PREMIUM奥莱/富平地下街/Entas免税店
現代名牌折扣購物中心/富平地下街/ENTAS免稅店",번체/간체 번역의 생소한 표현
1021,무의도/팔미도/덕적도,舞衣岛/八尾岛/德积岛,舞衣島/八尾島/德積島,Incheon,2017 외래관광객실태조사,,,인천 중구,중구,운서동,126.4685024,37.4760518,舞衣島/八馬島/德積島,번체/간체 번역의 생소한 표현
1022,에버랜드,爱宝乐园,愛寶樂園,Gyeonggi,2017 외래관광객실태조사,127.2025664,37.2939104,에버랜드,용인시 처인구,포곡읍,127.2025664,37.2939104,,
1023,수원(화성/화성행궁),水原华城/华城行宫,水原(華城/華城行宮),Gyeonggi,2017 외래관광객실태조사,,,수원화성,수원시 장안구,영화동,127.0119379,37.2871202,,
1024,임진각평화누리/제3땅꿀/통일전망대/판문점,临津阁/第三隧道/乌头山统一展望台/板门店,臨津閣/第三隧道/統一展望台/板門店,Gyeonggi,2017 외래관광객실태조사,,,임진각,파주시,문산읍,126.7402185,37.8897444,龄津阁/第三蜜路/五斗山统一眺望台/板门店,번체/간체 오역 사례
1025,한국민속촌,韩国民俗村,韓國民俗村,Gyeonggi,2017 외래관광객실태조사,127.1181126,37.258939,한국민속촌,용인시 기흥구,보라동,127.1181126,37.258939,,
1026,서울랜드/서울대공원,首尔乐园/首尔大公园,首爾樂園/首爾大公園,Gyeonggi,2017 외래관광객실태조사,,,서울대공원,과천시,막계동,127.0170252,37.4275247,,
1027,고양(킨텍스/김치스쿨/원마운트),高阳(KINTEX/泡菜学校/ONE-MOUNT主题公园),高陽(KINTEX/泡菜學校/ONE MOUNT),Gyeonggi,2017 외래관광객실태조사,,,고양시,고양시 덕양구,주교동,126.8369961,37.6650719,,
1028,헤이리예술마을/프로방스마을,Heyri国际艺术村/普罗旺斯村,HEYRI藝術村/普羅旺斯村,Gyeonggi,2017 외래관광객실태조사,,,헤이리예술마을,파주시,탄현면,126.698722,37.7888414,,
1029,"쇼핑아울렛(파주, 여주, 이천)","Outlet(坡州, 骊州, 利川)","購物Outlet(坡州, 驪州, 利川)",Gyeonggi,2017 외래관광객실태조사,,,,,,,,"折扣购物村(坡州, 骊州, 利川)",번체/간체 번역의 생소한 표현
1030,성남(판교/카페거리/남한산성),城南(板桥/咖啡街/南汉山城),城南(板橋/咖啡街/南漢山城),Gyeonggi,2017 외래관광객실태조사,,,성남시,성남시 분당구,삼평동,127.1162181,37.4073695,,
1031,포천(허브아일랜드),抱川(香草岛乐园),抱川(香草島樂園),Gyeonggi,2017 외래관광객실태조사,127.131773,37.9654806,포천 허브아일랜드,포천시,신북면,127.131773,37.9654806,抱川(薰衣草岛乐园),번체/간체 번역의 생소한 표현
1032,부천(웅진플레이도시),富川(熊津游戏城),富川(熊津遊樂城),Gyeonggi,2017 외래관광객실태조사,126.7449357,37.4999116,부천 웅진플레이도시,부천시,상동,126.7449357,37.4999116,,
1033,양평(두물머리/레일바이크),杨平(两水头/铁路自行车),楊平(兩水頭/鐵路自行車),Gyeonggi,2017 외래관광객실태조사,,,양평군,양평군,용문면,127.5792445,37.5180465,杨平(斗水头/铁路自行车),번체/간체 번역의 생소한 표현
1034,가평(자라섬/쁘띠프랑스/아침고요수목원),加平(龟岛/小法兰西/晨静园艺树木园),加平(鱉島/小法國村/晨靜樹木園),Gyeonggi,2017 외래관광객실태조사,,,가평군,가평군,가평읍,127.4502156,37.8184719,,
1035,안산(대부도/시화호/별빛마을),鞍山(大釜岛/始华湖/星光村),安山(大阜島/始華湖/星光村),Gyeonggi,2017 외래관광객실태조사,,,안산시,안산시 단원구,고잔동,126.8308848,37.3218778,"鞍山(大釜岛/施华号/星光村)
安山(大阜島/使華湖/星光村)",번체/간체 번역의 생소한 표현
1036,스키장(지산/양지/베어스타운/곤지암),滑雪场(芝山/阳智/熊城/昆池岩),滑雪場(芝山/陽智/熊城/昆池岩),Gyeonggi,2017 외래관광객실태조사,,,,,,,,滑雪场(芝山/朝阳/熊塔/昆池岩),번체/간체 번역의 생소한 표현
1037,광명동굴,光明洞窟,光明洞窟,Gyeonggi,2017 외래관광객실태조사,126.8664882,37.4264887,광명동굴,광명시,가학동,126.8664882,37.4264887,,
1038,평택시(송탄 로데오거리),平泽(松丹路五岔口),平澤(松丹路五岔口),Gyeonggi,2017 외래관광객실태조사,127.0508323,37.076363,평택 송탄 로데오거리,평택시,신장동,127.0508323,37.076363,,
1039,서대문,西大门,西大門,Seoul,2017 외래관광객실태조사,126.9390623,37.5777796,서대문구,서대문구,연희동,126.9390623,37.5777796,,
1040,노원,芦原,蘆原,Seoul,2017 외래관광객실태조사,127.075042,37.6525076,노원구,노원구,중계동,127.075042,37.6525076,,
1041,송파,松坡,松坡,Seoul,2017 외래관광객실태조사,127.1152992,37.5056205,송파구,송파구,송파동,127.1152992,37.5056205,,
1042,혜화,惠化,惠化,Seoul,2017 외래관광객실태조사,127.001893,37.58217,혜화역,종로구,동숭동,127.001893,37.58217,,
1043,서울역/서울로,首尔站,首爾站/首爾路,Seoul,2017 외래관광객실태조사,126.972317,37.555946,서울역,중구,봉래동2가,126.972317,37.555946,,
1044,종로/통인시장,钟路/通仁市场,鐘路/通仁市場,Seoul,2017 외래관광객실태조사,126.977339,37.5949159,종로구,종로구,삼청동,126.977339,37.5949159,,
1045,시청,市厅,市廳,Seoul,2017 외래관광객실태조사,126.9782038,37.5665851,서울시청,중구,태평로1가,126.9782038,37.5665851,,
1046,청와대,青瓦台,青瓦臺,Seoul,2017 외래관광객실태조사,126.974811,37.5866076,청와대,종로구,세종로,126.974811,37.5866076,,
1047,대학로,大学路,大學路,Seoul,2017 외래관광객실태조사,127.0016013,37.5782763,대학로,종로구,연건동,127.0016013,37.5782763,,
1048,마포,麻浦,麻浦,Seoul,2017 외래관광객실태조사,126.9082589,37.5593115,마포구,마포구,성산동,126.9082589,37.5593115,,
1049,충무로,忠武路,忠武路,Seoul,2017 외래관광객실태조사,126.9927416,37.5648394,충무로,중구,초동,126.9927416,37.5648394,,
1050,충무아트홀,忠武艺术中心,忠武藝術中心,Seoul,2017 외래관광객실태조사,127.0148592,37.5659291,충무아트홀,중구,흥인동,127.0148592,37.5659291,,
1051,남영동,南营洞,南營洞,Seoul,2017 외래관광객실태조사,126.9745456,37.5458902 1,남영동,용산구,갈월동,126.9745456,37.5458902,,
1052,상암동,上岩洞,上岩洞,Seoul,2017 외래관광객실태조사,126.8798744,37.5707485,상암동,마포구,상암동,126.8798744,37.5707485,,
1053,이촌동,二村洞,二村洞,Seoul,2017 외래관광객실태조사,126.9665337,37.5174531,이촌동,용산구,이촌동,126.9665337,37.5174531,,
1054,가산디지털단지,加山数码园区,加山數碼園區,Seoul,2017 외래관광객실태조사,126.882652,37.48144,가산디지털단지역,금천구,가산동,126.882652,37.48144,,
1055,구로,九老,九老,Seoul,2017 외래관광객실태조사,126.8563336,37.4944134,구로구,구로구,개봉동,126.8563336,37.4944134,,
1056,광장시장,广藏市场,廣藏市場,Seoul,2017 외래관광객실태조사,126.9996036,37.5700398,광장시장,종로구,예지동,126.9996036,37.5700398,,
1057,금천,衿川,衿川,Seoul,2017 외래관광객실태조사,126.9008183,37.4605655,금천구,금천구,독산동,126.9008183,37.4605655,,
1058,독산,秃山,禿山,Seoul,2017 외래관광객실태조사,126.8982935,37.4674733,독산동,금천구,독산동,126.8982935,37.4674733,,
1059,노량진,鹭梁津,鷺梁津,Seoul,2017 외래관광객실태조사,126.941687,37.514082,노량진역,동작구,노량진동,126.941687,37.514082,,
1060,답십리,踏十里,踏十里,Seoul,2017 외래관광객실태조사,127.052382,37.567072,답십리역,성동구,용답동,127.052382,37.567072,,
1061,목동,木洞,木洞,Seoul,2017 외래관광객실태조사,126.8745334,37.5360367,목동,양천구,목동,126.8745334,37.5360367,,
1062,장안평,长安坪,長安坪,Seoul,2017 외래관광객실태조사,127.0652943,37.5616837,장안평역,동대문구,장안동,127.0652943,37.5616837,,
1063,신당동,新堂洞,新堂洞,Seoul,2017 외래관광객실태조사,127.01367,37.5579144,신당동,중구,신당동,127.01367,37.5579144,,
1064,신천동,新川洞,新川洞,Seoul,2017 외래관광객실태조사,127.0989719,37.5239227,신천동,송파구,신천동,127.0989719,37.5239227,,
1065,건대입구,建国大学入口,建國大學入口,Seoul,2017 외래관광객실태조사,127.069276,37.540372,건대입구역,광진구,자양동,127.069276,37.540372,,
1066,이화여자대학교,梨花女子大学,梨花女子大學,Seoul,2017 외래관광객실태조사,126.9468339,37.5618588,이화여자대학교,서대문구,대현동,126.9468339,37.5618588,,
1067,서울교육대학교,首尔教育大学,首爾教育大學,Seoul,2017 외래관광객실태조사,127.0162346,37.4901737,서울교육대학교,서초구,서초동,127.0162346,37.4901737,,
1068,고속버스터미널,高速巴士总站,高速巴士總站,Seoul,2017 외래관광객실태조사,127.0049151,37.5049142,고속버스터미널,서초구,반포동,127.0049151,37.5049142,,
1069,남부터미널,南部客运站,南部客運站,Seoul,2017 외래관광객실태조사,127.015564,37.484524,남부터미널,서초구,서초동,127.015564,37.484524,,
1070,반포,盘浦,盤浦,Seoul,2017 외래관광객실태조사,127.011741,37.508221,반포역,서초구,잠원동,127.011741,37.508221,,
1071,서초구,瑞草区,瑞草區,Seoul,2017 외래관광객실태조사,127.0312101,37.4732933,서초구,서초구,양재동,127.0312101,37.4732933,,
1072,잠원동,蚕院洞,蠶院洞,Seoul,2017 외래관광객실태조사,127.0137779,37.5151065,잠원동,서초구,잠원동,127.0137779,37.5151065,,
1073,역삼동,驿三洞,驛三洞,Seoul,2017 외래관광객실태조사,127.0385419,37.5000776,역삼동,강남구,역삼동,127.0385419,37.5000776,,
1074,삼청각,三清閣,三清閣,Seoul,2017 외래관광객실태조사,126.9841513,37.5972872,삼청각,성북구,성북동,126.9841513,37.5972872,,
1075,삼성동,三成洞,三成洞,Seoul,2017 외래관광객실태조사,127.0561274,37.513975,삼성동,강남구,삼성동,127.0561274,37.513975,,
1076,중고차시장,二手车市场,二手車市場,Seoul,2017 외래관광객실태조사,127.06623,37.560173,중고차시장,성동구,용답동,127.06623,37.560173,,
1077,인삼공장,人蔘工厂,人蔘工廠,,2017 외래관광객실태조사,,,,,,,,,
1078,방화동,芳华洞,芳華洞,Seoul,2017 외래관광객실태조사,126.8135931,37.5759058,방화동,강서구,방화동,126.8135931,37.5759058,,
1079,고려대학교,高丽大学,高麗大學,Seoul,2017 외래관광객실태조사,127.0324773,37.5893876,고려대학교,성북구,안암동5가,127.0324773,37.5893876,,
1080,외국어대학교,外国语大学,外國語大學,Seoul,2017 외래관광객실태조사,127.0588002,37.5974453,한국외국어대학교,동대문구,이문동,127.0588002,37.5974453,,
1081,한양대학교,汉阳大学,漢陽大學,Seoul,2017 외래관광객실태조사,127.0454092,37.5571759,한양대학교,성동구,행당동,127.0454092,37.5571759,,
1082,동덕여자대학교,同德女子大学,同德女子大學,Seoul,2017 외래관광객실태조사,127.0423832,37.6068163,동덕여자대학교,성북구,하월곡동,127.0423832,37.6068163,,
1083,서울대학교,首尔大学,首爾大學,Seoul,2017 외래관광객실태조사,126.9511364,37.4593505,서울대학교,관악구,신림동,126.9511364,37.4593505,,
1084,숙명여자대학교,淑明女子大学,淑明女子大學,Seoul,2017 외래관광객실태조사,126.9646916,37.546475,숙명여자대학교,용산구,청파동2가,126.9646916,37.546475,,
1085,리츠칼튼호텔,丽思卡尔顿酒店,麗思卡爾頓酒店,Seoul,2017 외래관광객실태조사,127.0278731,37.5052961,리츠칼튼호텔,강남구,역삼동,127.0278731,37.5052961,,
1086,타임스퀘어,首尔时代广场,首爾時代廣場,Seoul,2017 외래관광객실태조사,126.9033411,37.5170751,타임스퀘어,영등포구,영등포동4가,126.9033411,37.5170751,,
1087,신도림,新道林,新道林,Seoul,2017 외래관광객실태조사,126.8915131,37.5089833,신도림역,구로구,신도림동,126.8915131,37.5089833,,
1088,용산,龙山,龍山,Seoul,2017 외래관광객실태조사,126.9798839,37.5313805,용산구,용산구,용산동3가,126.9798839,37.5313805,,
1089,영등포,永登浦,永登浦,Seoul,2017 외래관광객실태조사,126.9101692,37.5223245,영등포구,영등포구,영등포동2가,126.9101692,37.5223245,,
1090,대림,大林,大林,Seoul,2017 외래관광객실태조사,126.8973155,37.4932246,대림역,영등포구,대림동,126.8973155,37.4932246,,
1091,올림픽경기장,奥林匹克主竞技场,奧林匹克主競技場,Seoul,2017 외래관광객실태조사,127.0727986,37.5158376,올림픽경기장,송파구,잠실동,127.0727986,37.5158376,,
1092,힐튼호텔,希尔顿饭店,希爾頓飯店,,2017 외래관광객실태조사,,,,,,,,,
1093,올림픽공원(경기장),奥林匹克公园（体育场）,奧林匹克公園（體育場）,Seoul,2017 외래관광객실태조사,127.1214941,37.5206868,올림픽공원,송파구,방이동,127.1214941,37.5206868,,
1094,월드컵 경기장,世界杯体育场,世界盃體育場,Seoul,2017 외래관광객실태조사,126.8972735,37.5682617,월드컵 경기장,마포구,성산동,126.8972735,37.5682617,,
1095,신라호텔/신라면세점,新罗酒店,新羅酒店,Seoul,2017 외래관광객실태조사,127.0052509,37.5559034,신라호텔,중구,장충동2가,127.0052509,37.5559034,,
1096,롯데호텔,乐天饭店,樂天飯店,Seoul,2017 외래관광객실태조사,126.980979,37.5653,롯데호텔,중구,을지로1가,126.980979,37.5653,,
1097,롯데시티김포호텔,金浦乐天城市饭店,金浦樂天城市飯店,Seoul,2017 외래관광객실태조사,126.8025163,37.5637783,롯데시티김포호텔,강서구,방화동,126.8025163,37.5637783,,
1098,MBC 드라마센타,MBC梦想中心,MBC夢想中心,Gyeonggi,2017 외래관광객실태조사,126.7706487,37.6554714,MBC일산드림센터,고양시 일산동구,장항동,126.7706487,37.6554714,,
1099,워커힐 호텔,华克山庄酒店,華克山莊酒店,Seoul,2017 외래관광객실태조사,127.1108905,37.5552126,그랜드 워커힐 서울,광진구,광장동,127.1108905,37.5552126,,
1100,JW메리어트 호텔,JW万豪酒店,JW萬豪酒店,Seoul,2017 외래관광객실태조사,,,,,,,,,
1101,미즈매디병원,MizMedi妇幼综合医院,MizMedi婦幼綜合醫院,Seoul,2017 외래관광객실태조사,126.8359888,37.5521496,미즈매디병원,강서구,내발산동,126.8359888,37.5521496,,
1102,수목원,植物园,植物園,,2017 외래관광객실태조사,,,,,,,,,
1103,호텔,饭店,飯店,,2017 외래관광객실태조사,,,,,,,,,
1104,한남동,汉南洞,漢南洞,Seoul,2017 외래관광객실태조사,127.0051334,37.5375279,한남동,용산구,한남동,127.0051334,37.5375279,,
1105,회기동,回基洞,回基洞,Seoul,2017 외래관광객실태조사,127.0516746,37.5920886,회기동,동대문구,회기동,127.0516746,37.5920886,,
1106,양재동,良才洞,良才洞,Seoul,2017 외래관광객실태조사,127.0374623,37.4719823,양재동,서초구,양재동,127.0374623,37.4719823,,
1107,논현동,论岘洞,論峴洞,Seoul,2017 외래관광객실태조사,127.0317124,37.5136787,논현동,강남구,논현동,127.0317124,37.5136787,,
1108,서래마을,瑞来村,瑞來村,Seoul,2017 외래관광객실태조사,126.9982698,37.4969306,서래마을,서초구,반포동,126.9982698,37.4969306,,
1109,신설동,新设洞,新設洞,Seoul,2017 외래관광객실태조사,127.0255567,37.5749456,신설동,동대문구,신설동,127.0255567,37.5749456,,
1110,충정로,忠正路,忠正路,Seoul,2017 외래관광객실태조사,126.9645745,37.562683,충정로,서대문구,충정로3가,126.9645745,37.562683,,
1111,불광동,佛光洞,佛光洞,Seoul,2017 외래관광객실태조사,126.9355669,37.6191594,불광동,은평구,불광동,126.9355669,37.6191594,,
1112,왕십리,往十里,往十里,Seoul,2017 외래관광객실태조사,127.0252724,37.568832,왕십리,성동구,상왕십리동,127.0252724,37.568832,,
1113,을지로,乙支路,乙支路,Seoul,2017 외래관광객실태조사,126.9954924,37.5660286,을지로,중구,을지로4가,126.9954924,37.5660286,,
1114,청량리동,清凉里洞,清涼里洞,Seoul,2017 외래관광객실태조사,127.0452806,37.5888074,청량리동,동대문구,청량리동,127.0452806,37.5888074,,
1115,동서울 터미널,东首尔客运站,東首爾客運站,Seoul,2017 외래관광객실태조사,127.0933675,37.5333713,동서울 터미널,광진구,구의동,127.0933675,37.5333713,,
1116,테크노마트,科技商场,科技商場,Seoul,2017 외래관광객실태조사,127.095505,37.5355072,테크노마트,광진구,구의동,127.095505,37.5355072,,
1117,제기동(경동시장),祭基洞(京东市场),祭基洞(京東市場),Seoul,2017 외래관광객실태조사,127.03854,37.57973,경동시장,동대문구,제기동,127.03854,37.57973,,
1118,성수동,圣水洞,聖水洞,Seoul,2017 외래관광객실태조사,127.0566319,37.5406846,성수동,성동구,성수동2가,127.0566319,37.5406846,,
1119,양천구,阳川区,陽川區,Seoul,2017 외래관광객실태조사,126.8553909,37.5247402,양천구,양천구,신정동,126.8553909,37.5247402,,
1120,코리아나 호텔,韩国饭店,韓國飯店,Seoul,2017 외래관광객실태조사,126.9765031,37.5681809,코리아나 호텔,중구,태평로1가,126.9765031,37.5681809,,
1121,한국의집,韩国之家,韓國之家,Seoul,2017 외래관광객실태조사,126.9947198,37.5602041,한국의 집,중구,필동2가,126.9947198,37.5602041,,
1122,예술의전당,艺术殿堂,藝術殿堂,Seoul,2017 외래관광객실태조사,127.0128613,37.4792903,예술의전당,서초구,서초동,127.0128613,37.4792903,,
1123,서울미술관,首尔市立美术馆,首爾市立美術館,Seoul,2017 외래관광객실태조사,126.9738125,37.5640625,서울시립미술관,중구,서소문동,126.9738125,37.5640625,,
1124,국제뮤지엄,国际博物馆,國際博物館,Seoul,2017 외래관광객실태조사,,,,,,,,,
1125,DDP (동대문디자인플라자),DDP（东大门设计广场）,DDP（東大門設計廣場）,Seoul,2017 외래관광객실태조사,127.0092236,37.5665256,DDP 동대문디자인플라자,중구,을지로7가,127.0092236,37.5665256,,
1126,경마장,首尔赛马公园,首爾賽馬公園,Gyeonggi,2017 외래관광객실태조사,127.0122176,37.4452762,경마장,과천시,주암동,127.0122176,37.4452762,,
1127,세종문화회관,世宗文化会馆,世宗文化會館,Seoul,2017 외래관광객실태조사,126.9756429,37.5725254,세종문화회관,종로구,세종로,126.9756429,37.5725254,,
1128,서울성곽길,首尔城墙路,首爾城牆路,Seoul,2017 외래관광객실태조사,127.0084459,37.5779633,서울성곽길,종로구,창신동,127.0084459,37.5779633,,
1129,망우리묘지,忘忧里公墓,忘憂里公墓,Seoul,2017 외래관광객실태조사,127.1124001,37.5947282,망우리묘지,중랑구,망우동,127.1124001,37.5947282,,
1130,봉은사,奉恩寺,奉恩寺,Seoul,2017 외래관광객실태조사,127.0573766,37.514852,봉은사,강남구,삼성동,127.0573766,37.514852,,
1131,조계사,曹溪寺,曹溪寺,Seoul,2017 외래관광객실태조사,126.982202,37.5738369,조계사,종로구,견지동,126.982202,37.5738369,,
1132,중부시장,中部市场,中部市場,Seoul,2017 외래관광객실태조사,127.0004122,37.5653903,중부시장,중구,오장동,127.0004122,37.5653903,,
1133,서울특별시,首尔特别市,首爾特別市,Seoul,2017 외래관광객실태조사,,,,,,,,,
1134,절/사찰,寺庙,寺廟,,2017 외래관광객실태조사,,,,,,,,,
1135,라마다호텔,华美达饭店,華美達飯店,,2017 외래관광객실태조사,,,,,,,,,
1136,인터컨티넨탈호텔,洲际酒店及度假村,洲際酒店及度假村,Seoul,2017 외래관광객실태조사,127.0574219,37.5126864,인터컨티넨탈호텔,강남구,삼성동,127.0574219,37.5126864,,
1137,김포시티호텔,金浦市酒店,金浦市酒店,Gyeonggi,2017 외래관광객실태조사,,,김포시,김포시,통진읍,126.6265338,37.6818227,,
1138,르네상스호텔,万丽酒店,萬麗酒店,,2017 외래관광객실태조사,,,,,,,,,
1139,그랜드호텔,大饭店,大飯店,,2017 외래관광객실태조사,,,,,,,,,
1140,엠베서더호텔,大使酒店,大使酒店,,2017 외래관광객실태조사,,,,,,,,,
1141,프라자호텔,广场饭店,廣場飯店,,2017 외래관광객실태조사,,,,,,,,,
1142,하얏트호텔,首尔君悦酒店,首爾君悅酒店,,2017 외래관광객실태조사,,,,,,,,,
1143,팔레스호텔,皇宫饭店,皇宮飯店,,2017 외래관광객실태조사,,,,,,,,,
1144,콘래드호텔,首尔康莱德酒店,首爾康萊德酒店,Seoul,2017 외래관광객실태조사,126.9265549,37.5253343,콘래드호텔,영등포구,여의도동,126.9265549,37.5253343,,
1145,웨스틴조선호텔,首尔威斯汀朝鲜酒店,首爾威斯汀朝鮮酒店,Seoul,2017 외래관광객실태조사,126.980058,37.564378,웨스틴조선호텔,중구,소공동,126.980058,37.564378,,
1146,아르누보씨티,江南新艺术城市饭店,江南新藝術城市飯店,Seoul,2017 외래관광객실태조사,127.0281593,37.4933907,아르누보씨티,서초구,서초동,127.0281593,37.4933907,,
1147,연세세브란스병원,延世大学 新村世福兰斯医院,延世大學 新村世福蘭斯醫院,Seoul,2017 외래관광객실태조사,126.9408692,37.5623371,연세세브란스병원,서대문구,신촌동,126.9408692,37.5623371,,
1148,이화여자대학병원,梨花女子附属首尔医院,梨花女子附屬首爾醫院,Seoul,2017 외래관광객실태조사,126.8362637,37.55732,이화여자대학병원,강서구,마곡동,126.8362637,37.55732,,
1149,경희대학병원,庆熙大学医院,慶熙大學醫院,Seoul,2017 외래관광객실태조사,127.0513235,37.5938755,경희대학병원,동대문구,회기동,127.0513235,37.5938755,,
1150,강남성모병원,江南圣母医院,江南聖母醫院,Seoul,2017 외래관광객실태조사,127.0047678,37.5016116,강남성모병원,서초구,반포동,127.0047678,37.5016116,,
1151,한양대학병원,汉阳大学医院,漢陽大學醫院,Seoul,2017 외래관광객실태조사,127.0439991,37.5596514,한양대학병원,성동구,사근동,127.0439991,37.5596514,,
1152,서울대학병원,首尔大学医院,首爾大學醫院,Seoul,2017 외래관광객실태조사,126.9990602,37.5795427,서울대학교병원,종로구,연건동,126.9990602,37.5795427,,
1153,병원,医院,醫院,,2017 외래관광객실태조사,,,,,,,,,
1154,절두산,切头山,切頭山,Seoul,2017 외래관광객실태조사,126.9116248,37.5444056,절두산,마포구,합정동,126.9116248,37.5444056,,
1155,까치산,喜鹊山,喜鵲山,,2017 외래관광객실태조사,,,,,,,,,
1156,북한산,北汉山,北漢山,Seoul,2017 외래관광객실태조사,126.993333,37.660833,북한산,강북구,우이동,126.993333,37.660833,,
1157,청계산,清溪山,清溪山,Gyeonggi,2017 외래관광객실태조사,127.0415787,37.4141657,청계산,의왕시,청계동,127.0415787,37.4141657,,
1158,관악산,冠岳山,冠岳山,Seoul,2017 외래관광객실태조사,126.9610024,37.4429385,관악산,관악구,신림동,126.9610024,37.4429385,,
1159,소요산,牛余山,牛餘山,Gyeonggi,2017 외래관광객실태조사,127.0878091,37.9426296,소요산,동두천시,상봉암동,127.0878091,37.9426296,,
1160,구의동/뚝섬,九宜洞/纛島,九宜洞/纛島,Seoul,2017 외래관광객실태조사,,,뚝섬한강공원,광진구,자양동,127.0699562,37.5293507,,
1161,소공동,小公洞,小公洞,Seoul,2017 외래관광객실태조사,126.9749183,37.5644131,소공동,중구,서소문동,126.9749183,37.5644131,,
1162,삼각지,三角地,三角地,Seoul,2017 외래관광객실태조사,126.972987,37.534547,삼각지역,용산구,한강로1가,126.972987,37.534547,,
1163,발산동,钵山洞,缽山洞,Seoul,2017 외래관광객실태조사,126.8196088,37.5470548,발산동,강서구,외발산동,126.8196088,37.5470548,,
1164,동숭동,东崇洞,東崇洞,Seoul,2017 외래관광객실태조사,127.0048867,37.581408,동숭동,종로구,동숭동,127.0048867,37.581408,,
1165,봉천동,奉川洞,奉川洞,Seoul,2017 외래관광객실태조사,126.9534883,37.4779671,봉천동,관악구,봉천동,126.9534883,37.4779671,,
1166,종묘,宗庙,宗廟,Seoul,2017 외래관광객실태조사,126.994143,37.574583,종묘,종로구,훈정동,126.994143,37.574583,,
1167,제일병원,第一医院,第一醫院,Seoul,2017 외래관광객실태조사,126.995025,37.4878254,제일병원,서초구,방배동,126.995025,37.4878254,,
1168,삼성병원 / 삼성의료원,三星首尔医院,三星首爾醫院,Seoul,2017 외래관광객실태조사,127.0849885,37.4881193,삼성병원,강남구,일원동,127.0849885,37.4881193,,
1169,중앙대학병원(흑석동),中央大学医院（黑石洞）,中央大學醫院（黑石洞）,Seoul,2017 외래관광객실태조사,126.9607295,37.5066909,중앙대학병원,동작구,흑석동,126.9607295,37.5066909,,
1170,건국대학교병원,建国大学医院,建國大學醫院,Seoul,2017 외래관광객실태조사,127.0719454,37.5404895,건국대학교병원,광진구,화양동,127.0719454,37.5404895,,
1171,명지대학교,明知大学,明知大學,Seoul,2017 외래관광객실태조사,126.9226047,37.5802219,명지대학교,서대문구,남가좌동,126.9226047,37.5802219,,
1172,중앙대학교,中央大学,中央大學,Seoul,2017 외래관광객실태조사,126.9571012,37.5050881,중앙대학교,동작구,흑석동,126.9571012,37.5050881,,
1173,경희대학교,庆熙大学,慶熙大學,Seoul,2017 외래관광객실태조사,127.0518435,37.5968367,경희대학교,동대문구,회기동,127.0518435,37.5968367,,
1174,연세대학교,延世大学,延世大學,Seoul,2017 외래관광객실태조사,126.9387066,37.5663937,연세대학교,서대문구,신촌동,126.9387066,37.5663937,,
1175,홍익대학교,弘益大学,弘益大學,Seoul,2017 외래관광객실태조사,126.9254901,37.5507563,홍익대학교,마포구,상수동,126.9254901,37.5507563,,
1176,서강대학교,西江大学,西江大學,Seoul,2017 외래관광객실태조사,126.9410023,37.5509442,서강대학교,마포구,대흥동,126.9410023,37.5509442,,
1177,건국대학교,建国大学,建國大學,Seoul,2017 외래관광객실태조사,127.0759204,37.5423265,건국대학교,광진구,화양동,127.0759204,37.5423265,,
1178,김포,金浦,金浦,Gyeonggi,2017 외래관광객실태조사,126.6265338,37.6818227,김포시,김포시,통진읍,126.6265338,37.6818227,,
1179,부천,富川,富川,Gyeonggi,2017 외래관광객실태조사,126.7886531,37.5042687,부천시,부천시,춘의동,126.7886531,37.5042687,,
1180,을왕,乙旺,乙旺,Incheon,2017 외래관광객실태조사,126.3725042,37.4477331,을왕리해수욕장,중구,을왕동,126.3725042,37.4477331,,
1181,인천광역시/인천시내,仁川广域市/仁川市内,仁川廣域市/仁川市內,Incheon,2017 외래관광객실태조사,,,,,,,,,
1182,인천하얏트호텔,仁川凯悦酒店,仁川凱悅酒店,Incheon,2017 외래관광객실태조사,126.4574508,37.4404925,그랜드 하얏트 인천,중구,운서동,126.4574508,37.4404925,,
1183,베스트웨스턴호텔,贝斯特韦斯特饭店,貝斯特韋斯特飯店,,2017 외래관광객실태조사,,,,,,,,,
1184,운서동,云西洞,雲西洞,Incheon,2017 외래관광객실태조사,126.4507804,37.4695092,운서동,중구,운서동,126.4507804,37.4695092,,
1185,계양동,桂阳洞,桂陽洞,Incheon,2017 외래관광객실태조사,126.734707,37.5572857,계양구,계양구,방축동,126.734707,37.5572857,,
1186,연수동,延寿洞,延壽洞,Incheon,2017 외래관광객실태조사,126.6832981,37.420418,연수동,연수구,연수동,126.6832981,37.420418,,
1187,부평구,富平区,富平區,Incheon,2017 외래관광객실태조사,126.7212089,37.4966725,부평구,부평구,부평동,126.7212089,37.4966725,,
1188,남동공단,南洞产业园地,南洞產業園地,Incheon,2017 외래관광객실태조사,126.726484,37.4310147,남동구,남동구,수산동,126.726484,37.4310147,,
1189,간석동,间石洞,間石洞,Incheon,2017 외래관광객실태조사,126.7072025,37.4655363,간석동,남동구,간석동,126.7072025,37.4655363,,
1190,주안동,朱安洞,朱安洞,Incheon,2017 외래관광객실태조사,126.6809956,37.4569758,주안동,미추홀구,주안동,126.6809956,37.4569758,,
1191,검단동(인천),黔丹洞(仁川),黔丹洞(仁川),Incheon,2017 외래관광객실태조사,126.6522426,37.6121724,검단동,서구,금곡동,126.6522426,37.6121724,,
1192,보문사,普门寺,普門寺,,2017 외래관광객실태조사,,,,,,,,,
1193,흥륜사,兴轮寺,興輪寺,Incheon,2017 외래관광객실태조사,126.6595568,37.4161587,흥륜사,연수구,동춘동,126.6595568,37.4161587,,
1194,인하대학교병원,仁荷大学医院,仁荷大學醫院,Incheon,2017 외래관광객실태조사,126.6341172,37.4588197,인하대학교병원,중구,신흥동3가,126.6341172,37.4588197,,
1195,인천공항호텔,仁川机场饭店,仁川機場飯店,Incheon,2017 외래관광객실태조사,,,,,,,,,
1196,인천월드컵경기장,仁川世界杯体育场,仁川世界盃體育場,Incheon,2017 외래관광객실태조사,126.6430109,37.4660127,인천월드컵경기장,미추홀구,도원동,126.6430109,37.4660127,,
1197,인천문학경기장,仁川文鹤体育场,仁川文鶴體育場,Incheon,2017 외래관광객실태조사,126.6907212,37.4350619,인천문학경기장,미추홀구,문학동,126.6907212,37.4350619,,
1198,인천아시아드주경기장,仁川亚运主体育场,仁川亞運主體育場,Incheon,2017 외래관광객실태조사,126.6665509,37.5475394,인천아시아드주경기장,서구,연희동,126.6665509,37.5475394,,
1199,인천대공원,仁川大公园,仁川大公園,Incheon,2017 외래관광객실태조사,126.7522197,37.459244,인천대공원,남동구,장수동,126.7522197,37.459244,,
1200,인천항,仁川港,仁川港,Incheon,2017 외래관광객실태조사,126.6256454,37.4594575,인천항,중구,항동7가,126.6256454,37.4594575,,
1201,인천대학교,仁川大学,仁川大學,Incheon,2017 외래관광객실태조사,126.6322345,37.3749658,인천대학교,연수구,송도동,126.6322345,37.3749658,,
1202,인하대학교,仁荷大学,仁荷大學,Incheon,2017 외래관광객실태조사,126.653488,37.4500221,인하대학교,미추홀구,용현동,126.653488,37.4500221,,
1203,시흥시,始兴市,始興市,Gyeonggi,2017 외래관광객실태조사,126.7841675,37.3864796,시흥시,시흥시,장곡동,126.7841675,37.3864796,,
1204,일산시,一山市,一山市,Gyeonggi,2017 외래관광객실태조사,126.7711774,37.6783756,일산,고양시 일산서구,일산동,126.7711774,37.6783756,,
1205,용인시,龙仁市,龍仁市,Gyeonggi,2017 외래관광객실태조사,127.2218612,37.2214872,용인시,용인시 처인구,남동,127.2218612,37.2214872,,
1206,동탄시,东滩市,東灘市,Gyeonggi,2017 외래관광객실태조사,127.0970177,37.199327,동탄역,화성시,오산동,127.0970177,37.199327,,
1207,동두천(한탄강),东豆川(汉滩江),東豆川(漢灘江),Gyeonggi,2017 외래관광객실태조사,127.010833,38.004722,동두천 한탄강,연천군,전곡읍,127.010833,38.004722,,
1208,남양주,南杨州,南楊州,Gyeonggi,2017 외래관광객실태조사,127.2436632,37.6625097,남양주시,남양주시,호평동,127.2436632,37.6625097,,
1209,안양시,安阳市,安陽市,Gyeonggi,2017 외래관광객실태조사,126.9279179,37.4027313,안양시,안양시 동안구,비산동,126.9279179,37.4027313,,
1210,화성시,华城市,華城市,Gyeonggi,2017 외래관광객실태조사,126.8654604,37.1616306,화성시,화성시,팔탄면,126.8654604,37.1616306,,
1211,안산시,安山市,安山市,Gyeonggi,2017 외래관광객실태조사,126.8308848,37.3218778,안산시,안산시 단원구,고잔동,126.8308848,37.3218778,,
1212,성남시,城南市,城南市,Gyeonggi,2017 외래관광객실태조사,127.1162181,37.4073695,성남시,성남시 분당구,삼평동,127.1162181,37.4073695,,
1213,청평,清平,清平,Gyeonggi,2017 외래관광객실태조사,127.4293452,37.7297832,청평면,가평군,청평면,127.4293452,37.7297832,,
1214,서현,西贤,西賢,Gyeonggi,2017 외래관광객실태조사,127.1344396,37.3822656,서현동,성남시 분당구,서현동,127.1344396,37.3822656,,
1215,송탄,松炭,松炭,Gyeonggi,2017 외래관광객실태조사,127.0514265,37.0841853,송탄,평택시,신장동,127.0514265,37.0841853,,
1216,의왕시,义王市,義王市,Gyeonggi,2017 외래관광객실태조사,126.9896996,37.3624626,의왕시,의왕시,오전동,126.9896996,37.3624626,,
1217,군포,军浦,軍浦,Gyeonggi,2017 외래관광객실태조사,126.9211003,37.3434691,군포시,군포시,산본동,126.9211003,37.3434691,,
1218,오산,乌山,烏山,Gyeonggi,2017 외래관광객실태조사,127.0513324,37.1632991,오산시,오산시,궐동,127.0513324,37.1632991,,
1219,기흥,器兴,器興,Gyeonggi,2017 외래관광객실태조사,127.1213604,37.2674312,기흥구,용인시 기흥구,상갈동,127.1213604,37.2674312,,
1220,광주(경기),光州（京畿道）,光州（京畿道）,Gyeonggi,2017 외래관광객실태조사,127.3011624,37.4030854,경기 광주시,광주시,초월읍,127.3011624,37.4030854,,
1221,분당,盆唐,盆唐,Gyeonggi,2017 외래관광객실태조사,127.1060411,37.3793356,분당구,성남시 분당구,정자동,127.1060411,37.3793356,,
1222,안성,安城,安城,Gyeonggi,2017 외래관광객실태조사,127.3027301,37.035033,안성시,안성시,보개면,127.3027301,37.035033,,
1223,의정부,议政府,議政府,Gyeonggi,2017 외래관광객실태조사,127.0684356,37.7361884,의정부시,의정부시,신곡동,127.0684356,37.7361884,,
1224,죽전,竹田,竹田,Gyeonggi,2017 외래관광객실태조사,127.1234646,37.3295528,죽전동,용인시 수지구,죽전동,127.1234646,37.3295528,,
1225,판교,板桥,板橋,Gyeonggi,2017 외래관광객실태조사,127.11116,37.394776,판교역,성남시 분당구,백현동,127.11116,37.394776,,
1226,성남서울공항,城南首尔机场,城南首爾機場,Gyeonggi,2017 외래관광객실태조사,127.1078131,37.4449885,성남서울공항,성남시 수정구,심곡동,127.1078131,37.4449885,,
1227,과천,果川,果川,Gyeonggi,2017 외래관광객실태조사,127.0027656,37.4338294,과천시,과천시,막계동,127.0027656,37.4338294,,
1228,광명,光明,光明,Gyeonggi,2017 외래관광객실태조사,126.8646989,37.4451612,광명시,광명시,하안동,126.8646989,37.4451612,,
1229,평촌,坪村,坪村,Gyeonggi,2017 외래관광객실태조사,126.9680004,37.3887438,평촌동,안양시 동안구,평촌동,126.9680004,37.3887438,,
1230,서촌,西村,西村,Seoul,2017 외래관광객실태조사,126.968313,37.5814263,서촌,종로구,옥인동,126.968313,37.5814263,,
1231,장안동,长安洞,長安洞,Seoul,2017 외래관광객실태조사,127.0700249,37.570207,장안동,동대문구,장안동,127.0700249,37.570207,,
1232,한림대학병원,翰林大学医院,翰林大學醫院,,2017 외래관광객실태조사,,,,,,,,,
1233,숭실대학교,崇实大学,崇實大學,Seoul,2017 외래관광객실태조사,126.9572222,37.4963538,숭실대학교,동작구,상도동,126.9572222,37.4963538,,
1234,용산공원,龙山公园,龍山公園,Seoul,2017 외래관광객실태조사,126.9839378,37.5211389,용산가족공원,용산구,용산동6가,126.9839378,37.5211389,,
1235,모던뮤지엄,现代美术馆,現代美術館,,2017 외래관광객실태조사,,,,,,,,,
1236,동작구,铜雀区,銅雀區,Seoul,2017 외래관광객실태조사,126.9516345,37.4988794,동작구,동작구,상도동,126.9516345,37.4988794,,
1237,마장동,马场洞,馬場洞,Seoul,2017 외래관광객실태조사,127.040228,37.5669747,마장동,성동구,마장동,127.040228,37.5669747,,
1238,석촌동,石村洞,石村洞,Seoul,2017 외래관광객실태조사,127.1026694,37.5024352,석촌동,송파구,석촌동,127.1026694,37.5024352,,
1239,염창동,盐仓洞,鹽倉洞,Seoul,2017 외래관광객실태조사,126.8707482,37.5527315,염창동,강서구,염창동,126.8707482,37.5527315,,
1240,사당동,舍堂洞,舍堂洞,Seoul,2017 외래관광객실태조사,126.9772568,37.4798074,사당동,동작구,사당동,126.9772568,37.4798074,,
1241,대치동,大峙洞,大峙洞,Seoul,2017 외래관광객실태조사,127.0633458,37.4991887,대치동,강남구,대치동,127.0633458,37.4991887,,
1242,수유동,水踰洞,水踰洞,Seoul,2017 외래관광객실태조사,127.0073721,37.6383275,수유동,강북구,수유동,127.0073721,37.6383275,,
1243,천호동,千户洞,千戶洞,Seoul,2017 외래관광객실태조사,127.1276202,37.5443765,천호동,강동구,천호동,127.1276202,37.5443765,,
1244,망원동,望远洞,望遠洞,Seoul,2017 외래관광객실태조사,126.8998606,37.5554884,망원동,마포구,망원동,126.8998606,37.5554884,,
1245,장충동,奖忠洞,獎忠洞,Seoul,2017 외래관광객실태조사,127.0035937,37.5580498,장충동,중구,장충동2가,127.0035937,37.5580498,,
1246,구기동,旧基洞,舊基洞,Seoul,2017 외래관광객실태조사,126.9592855,37.6193848,구기동,종로구,구기동,126.9592855,37.6193848,,
1247,오금동,梧琴洞,梧琴洞,Seoul,2017 외래관광객실태조사,127.1344585,37.5041934,오금동,송파구,오금동,127.1344585,37.5041934,,
1248,중랑구,中浪区,中浪區,Seoul,2017 외래관광객실태조사,127.0928927,37.5978139,중랑구,중랑구,망우동,127.0928927,37.5978139,,
1249,신촌 세브란스병원,延世大学 新村世福兰斯医院,延世大學 新村世福蘭斯醫院,Seoul,2017 외래관광객실태조사,126.9408692,37.5623371,연세세브란스병원,서대문구,신촌동,126.9408692,37.5623371,,
1250,삼성 리움박물관,三星美术馆 Leeum,三星美術館 Leeum,Seoul,2017 외래관광객실태조사,126.9993937,37.5378932,리움미술관,용산구,한남동,126.9993937,37.5378932,,
1251,김포공항,金浦国际机场,金浦國際機場,Seoul,2017 외래관광객실태조사,126.8013282,37.5655383,김포공항,강서구,방화동,126.8013282,37.5655383,,
1252,이천,利川,利川,Gyeonggi,2017 외래관광객실태조사,127.4810494,37.2097769,이천시,이천시,대월면,127.4810494,37.2097769,,
1253,고양시,高阳市,高陽市,Gyeonggi,2017 외래관광객실태조사,126.8369961,37.6650719,고양시,고양시 덕양구,주교동,126.8369961,37.6650719,,
1254,양주시,杨州市,楊州市,Gyeonggi,2017 외래관광객실태조사,127.001143,37.8086632,양주시,양주시,백석읍,127.001143,37.8086632,,
1255,하남시,河南市,河南市,Gyeonggi,2017 외래관광객실태조사,127.2059921,37.5228824,하남시,하남시,교산동,127.2059921,37.5228824,,
1256,구리시,九里市,九里市,Gyeonggi,2017 외래관광객실태조사,127.1313079,37.5990186,구리시,구리시,교문동,127.1313079,37.5990186,,
1257,파주시,坡州市,坡州市,Gyeonggi,2017 외래관광객실태조사,126.8115232,37.8544244,파주시,파주시,파주읍,126.8115232,37.8544244,,
1258,명지병원,明知医院,明知醫院,Gyeonggi,2017 외래관광객실태조사,126.830935,37.6420879,명지병원,고양시 덕양구,화정동,126.830935,37.6420879,,
1259,분당서울대병원,盆唐首尔大学医院,盆唐首爾大學醫院,Gyeonggi,2017 외래관광객실태조사,127.1231772,37.3520673,분당서울대병원,성남시 분당구,구미동,127.1231772,37.3520673,,
1260,선정릉,宣靖陵,宣靖陵,Seoul,2017 외래관광객실태조사,127.0520223,37.5072995,선정릉,강남구,삼성동,127.0520223,37.5072995,,
1261,남한산성,南汉山城,南漢山城,Gyeonggi,2017 외래관광객실태조사,127.1846118,37.4815237,남한산성,광주시,남한산성면,127.1846118,37.4815237,,
1262,어린이대공원,儿童大公园,兒童大公園,Seoul,2017 외래관광객실태조사,127.0818126,37.549363,어린이대공원,광진구,능동,127.0818126,37.549363,,
1263,아침고요수목원,晨静树木园,晨靜樹木園,Gyeonggi,2017 외래관광객실태조사,127.3524864,37.7439678,아침고요수목원,가평군,상면,127.3524864,37.7439678,,
1264,삼육대학교,三育大学,三育大學,Seoul,2017 외래관광객실태조사,127.1063459,37.6435824,삼육대학교,노원구,공릉동,127.1063459,37.6435824,,
1265,광나루,广渡口,廣渡口,Seoul,2017 외래관광객실태조사,127.1200384,37.5487859,광나루한강공원,강동구,천호동,127.1200384,37.5487859,,
1266,신림동,新林洞,新林洞,Seoul,2017 외래관광객실태조사,126.9358124,37.4631968,신림동,관악구,신림동,126.9358124,37.4631968,,
1267,안국동,安國洞,安國洞,Seoul,2017 외래관광객실태조사,126.9836297,37.5773998,안국동,종로구,안국동,126.9836297,37.5773998,,
1268,중림동,中林洞,中林洞,Seoul,2017 외래관광객실태조사,126.9655633,37.5572954,중림동,중구,중림동,126.9655633,37.5572954,,
1269,송정동,松亭洞,松亭洞,Seoul,2017 외래관광객실태조사,127.064491,37.5525301,송정동,성동구,송정동,127.064491,37.5525301,,
1270,공덕동,孔德洞,孔德洞,Seoul,2017 외래관광객실태조사,126.9549965,37.5481125,공덕동,마포구,공덕동,126.9549965,37.5481125,,
1271,화곡동,禾谷洞,禾穀洞,Seoul,2017 외래관광객실태조사,126.8472722,37.5406979,화곡동,강서구,화곡동,126.8472722,37.5406979,,
1272,해방촌,解放村,解放村,Seoul,2017 외래관광객실태조사,126.9867064,37.5402259,해방촌,용산구,용산동2가,126.9867064,37.5402259,,
1273,가락시장,可乐市场,可樂市場,Seoul,2017 외래관광객실태조사,127.1097998,37.4933411,가락시장,송파구,가락동,127.1097998,37.4933411,,
1274,인천그랜드파크호텔,仁川大公園飯店,仁川大公園飯店,Incheon,2017 외래관광객실태조사,,,,,,,,,
1275,옹진군,瓮津郡,甕津郡,Incheon,2017 외래관광객실태조사,124.6778869,37.9535884,옹진군,옹진군,백령면,124.6778869,37.9535884,,
1276,강화도,江华岛,江華島,Incheon,2017 외래관광객실태조사,126.4511281,37.7131742,강화도,강화군,불은면,126.4511281,37.7131742,,
1277,경기도,京畿道,京畿道,Gyeonggi,2017 외래관광객실태조사,,,,,,,,,
1278,도봉산,道峰山,道峰山,Seoul,2017 외래관광객실태조사,127.0156843,37.7004635,도봉산,도봉구,도봉동,127.0156843,37.7004635,,
1279,서울아트센터,艺术殿堂,藝術殿堂,Seoul,2017 외래관광객실태조사,127.0128613,37.4792903,예술의전당,서초구,서초동,127.0128613,37.4792903,,
1280,한국예술종합학교,韩国艺术综合大学,韓國藝術綜合大學,Seoul,2017 외래관광객실태조사,,,,,,,,,
1281,메이필드호텔,梅菲尔德酒店,梅菲爾德酒店,Seoul,2017 외래관광객실태조사,126.8187885,37.5475247,메이필드호텔,강서구,외발산동,126.8187885,37.5475247,,
1282,세종대학교,世宗大学,世宗大學,Seoul,2017 외래관광객실태조사,127.0736345,37.5518018,세종대학교,광진구,군자동,127.0736345,37.5518018,,
1283,성신여자대학교,诚信女子大学,誠信女子大學,Seoul,2017 외래관광객실태조사,127.0221068,37.5912999,성신여자대학교,성북구,돈암동,127.0221068,37.5912999,,
1284,와우정사,卧牛精舍,臥牛精舍,Gyeonggi,2017 외래관광객실태조사,127.2784719,37.1935802,와우정사,용인시 처인구,해곡동,127.2784719,37.1935802,,
1285,용문사,龙门寺,龍門寺,,2017 외래관광객실태조사,,,,,,,,,
1286,프레이저플레이스호텔,首尔中心辉盛坊国际公寓,首爾中心輝盛坊國際公寓,,2017 외래관광객실태조사,,,,,,,,,
1287,SBS,SBS,SBS,,2017 외래관광객실태조사,,,,,,,,,
1288,KBS,KBS,KBS,,2017 외래관광객실태조사,,,,,,,,,
1289,드라마아트센타,戏剧艺术中心,戲劇藝術中心,,2017 외래관광객실태조사,,,,,,,,,
1290,삼성디지털센터,三星数字中心,三星數位中心,,2017 외래관광객실태조사,,,,,,,,,
1291,삼성본사,三星本社,三星本社,,2017 외래관광객실태조사,,,,,,,,,
1292,성북동,城北洞,城北洞,Seoul,2017 외래관광객실태조사,126.9978087,37.5952093,성북동,성북구,성북동,126.9978087,37.5952093,,
1293,신도림 쉐라톤 디큐브시티 호텔,首尔喜来登D Cube城市酒店,首爾喜來登D Cube城市酒店,Seoul,2017 외래관광객실태조사,126.8897939,37.508807,신도림 쉐라톤 디큐브시티 호텔,구로구,신도림동,126.8897939,37.508807,,
1294,IFC몰,IFC Mall,IFC Mall,Seoul,2017 외래관광객실태조사,126.9258867,37.5250243,IFC몰,영등포구,여의도동,126.9258867,37.5250243,,
1295,홀리데이인 서울 성북,首尔城北假日饭店,首爾城北假日飯店,Seoul,2017 외래관광객실태조사,127.03337,37.600968,홀리데이인 서울 성북,성북구,종암동,127.03337,37.600968,,
1296,성균관대학교,成均馆大学,成均館大學,Seoul,2017 외래관광객실태조사,126.993606,37.588227,성균관대학교,종로구,명륜3가,126.993606,37.588227,,
1297,용인대학교,龙仁大学,龍仁大學,Gyeonggi,2017 외래관광객실태조사,127.1681805,37.2266747,용인대학교,용인시 처인구,삼가동,127.1681805,37.2266747,,
1298,서울예술대학교,首尔艺术大学,首爾藝術大學,Gyeonggi,2017 외래관광객실태조사,126.8362407,37.3340318,서울예술대학교,안산시 단원구,고잔동,126.8362407,37.3340318,,
1299,아주대학교,亚洲大学,亞洲大學,Gyeonggi,2017 외래관광객실태조사,127.0463409,37.2820187,아주대학교,수원시 영통구,원천동,127.0463409,37.2820187,,
1300,안양대학교,安养大学,安養大學,Gyeonggi,2017 외래관광객실태조사,126.9205866,37.3921415,안양대학교,안양시 만안구,안양동,126.9205866,37.3921415,,
1301,검암/청라,黔岩/青罗,黔岩/青羅,Incheon,2017 외래관광객실태조사,,,청라국제도시역,서구,청라동,126.626489,37.5551229,,
1302,우장산,雨装山,雨裝山,Seoul,2017 외래관광객실태조사,126.836351,37.548794,우장산역,강서구,화곡동,126.836351,37.548794,,
1303,군자,君子,君子,Seoul,2017 외래관광객실태조사,127.079415,37.557193,군자역,광진구,군자동,127.079415,37.557193,,
1304,연남동,延南洞,延南洞,Seoul,2017 외래관광객실태조사,126.9214088,37.5627439,연남동,마포구,연남동,126.9214088,37.5627439,,
1305,가양동,加阳洞,加陽洞,Seoul,2017 외래관광객실태조사,126.8510787,37.5678802,가양동,강서구,가양동,126.8510787,37.5678802,,
1306,인천 논현동,仁川论岘洞,仁川論峴洞,Incheon,2017 외래관광객실태조사,126.724735,37.4046715,인천 논현동,남동구,논현동,126.724735,37.4046715,,
1307,인천예술문화회관,仁川文化艺术会馆,仁川文化藝術會館,Incheon,2017 외래관광객실태조사,126.7000885,37.4477691,인천예술문화회관,남동구,구월동,126.7000885,37.4477691,,
1308,산타마리아 병원,圣玛丽亚医院,聖瑪麗亞醫院,,2017 외래관광객실태조사,,,,,,,,,
1309,동국대학교 일산병원,东国大学一山医院,東國大學一山醫院,Gyeonggi,2017 외래관광객실태조사,126.806398,37.6763892,동국대학교 일산병원,고양시 일산동구,식사동,126.806398,37.6763892,,
1310,일산 백병원,一山白医院,一山白醫院,Gyeonggi,2017 외래관광객실태조사,126.750367,37.6742288,일산 백병원,고양시 일산서구,대화동,126.750367,37.6742288,,
1311,인천 서구,仁川西区,仁川西區,Incheon,2017 외래관광객실태조사,126.6561702,37.5578549,인천 서구,서구,경서동,126.6561702,37.5578549,,
1312,동인천,东仁川,東仁川,Incheon,2017 외래관광객실태조사,126.6288894,37.4745242,인천 차이나타운,중구,북성동2가,126.6178849,37.475589,,
1313,이천 도자기 박물관,利川陶瓷博物馆,利川陶瓷博物館,Gyeonggi,2017 외래관광객실태조사,127.4234291,37.2754435,경기도자미술관,이천시,관고동,127.4234291,37.2754435,,
1314,산본,山本,山本,Gyeonggi,2017 외래관광객실태조사,126.9228713,37.3611337,산봉동,군포시,산본동,126.9228713,37.3611337,,
1315,장흥면,长兴面,長興面,Gyeonggi,2017 외래관광객실태조사,126.9635106,37.717343,장흥면,양주시,장흥면,126.9635106,37.717343,,
1316,동탄문화센터,东滩文化中心,東灘文化中心,Gyeonggi,2017 외래관광객실태조사,127.075223,37.2006203,동탄복합문화센터,화성시,반송동,127.075223,37.2006203,,
1317,경기도문화의전당,京畿艺术中心,京畿藝術中心,Gyeonggi,2017 외래관광객실태조사,127.0374319,37.2618899,경기아트센터,수원시 팔달구,인계동,127.0374319,37.2618899,,
1318,평화의계곡(일산),和平谷（一山）,和平谷（一山）,Gyeonggi,2017 외래관광객실태조사,,,,,,,,,
1319,문산,文山,文山,Gyeonggi,2017 외래관광객실태조사,126.7803825,37.8742292,문산읍,파주시,문산읍,126.7803825,37.8742292,,
1320,원당,元堂,元堂,Gyeonggi,2017 외래관광객실태조사,126.842985,37.65326,원당역,고양시 덕양구,성사동,126.842985,37.65326,,
1321,인천경기장,仁川体育场,仁川體育場,Incheon,2017 외래관광객실태조사,,,,,,,,,
1322,교보문고,教保文库,教保文庫,,2017 외래관광객실태조사,,,,,,,,,
1323,부암동,付岩洞,付巖洞,Seoul,2017 외래관광객실태조사,126.9624425,37.5975499,부암동,종로구,부암동,126.9624425,37.5975499,,
1324,한국의 집,韩国之家,韓國之家,Seoul,2017 외래관광객실태조사,126.9947198,37.5602041,한국의 집,중구,필동2가,126.9947198,37.5602041,,
1325,국민대학교,国民大学,國民大學,Seoul,2017 외래관광객실태조사,126.9972889,37.6108694,국민대학교,성북구,정릉동,126.9972889,37.6108694,,
1326,국기원,国技院,國技院,Seoul,2017 외래관광객실태조사,127.0302469,37.501965,국기원,강남구,역삼동,127.0302469,37.501965,,
1327,카톨릭대학교,韩国天主教大学,韓國天主教大學,,2017 외래관광객실태조사,,,,,,,,,
1328,문래동,文来洞,文來洞,Seoul,2017 외래관광객실태조사,126.891505,37.516637,문래동,영등포구,문래동3가,126.891505,37.516637,,
1329,렉스턴호텔,莱克斯顿饭店,萊克斯頓飯店,Gyeonggi,2017 외래관광객실태조사,127.043847,37.736543,렉스턴호텔,의정부시,의정부동,127.043847,37.736543,,
1330,선릉,宣陵,宣陵,Seoul,2017 외래관광객실태조사,127.045531,37.5087078,선릉,강남구,삼성동,127.045531,37.5087078,,
1331,마두,马杜,馬杜,Gyeonggi,2017 외래관광객실태조사,126.777641,37.652185,마두역,고양시 일산동구,장항동,126.777641,37.652185,,
1332,곤지암리조트,昆池岩度假村,昆池岩度假村,Gyeonggi,2017 외래관광객실태조사,127.2953076,37.3372414,곤지암리조트,광주시,도척면,127.2953076,37.3372414,,
1333,레이크힐스리조트,湖山度假村,湖山度假村,,2017 외래관광객실태조사,,,,,,,,,
1334,단국대학교,檀国大学,檀國大學,Gyeonggi,2017 외래관광객실태조사,127.1267503,37.3215984,단국대학교,용인시 수지구,죽전동,127.1267503,37.3215984,,
1335,등촌동,登村洞,登村洞,Seoul,2017 외래관광객실태조사,126.8559611,37.5575223,등촌동,강서구,등촌동,126.8559611,37.5575223,,
1336,망우동,忘忧洞,忘憂洞,Seoul,2017 외래관광객실태조사,127.106326,37.5995872,망우동,중랑구,망우동,127.106326,37.5995872,,
1337,강동구,江东区,江東區,Seoul,2017 외래관광객실태조사,127.1440351,37.5508094,강동구,강동구,명일동,127.1440351,37.5508094,,
1338,창동,仓洞,倉洞,Seoul,2017 외래관광객실태조사,127.044059,37.6477423,창동,도봉구,창동,127.044059,37.6477423,,
1339,장교동,长桥洞,長橋洞,Seoul,2017 외래관광객실태조사,126.9869866,37.5674499,장교동,중구,장교동,126.9869866,37.5674499,,
1340,관악구,冠岳区,冠岳區,Seoul,2017 외래관광객실태조사,126.9453359,37.4673709,관악구,관악구,신림동,126.9453359,37.4673709,,
1341,전쟁기념관,战争纪念馆,戰爭紀念館,Seoul,2017 외래관광객실태조사,126.9771397,37.5366059,전쟁기념관,용산구,용산동1가,126.9771397,37.5366059,,
1342,김포 현대프리미엄아울렛,金浦现代outlet,金浦現代outlet,Gyeonggi,2017 외래관광객실태조사,126.7856279,37.5994092,김포 현대프리미엄아울렛,김포시,고촌읍,126.7856279,37.5994092,,
1343,서울 풍물시장,首尔民俗跳蚤市场,首爾民俗跳蚤市場,Seoul,2017 외래관광객실태조사,127.0255106,37.5726757,서울 풍물시장,동대문구,신설동,127.0255106,37.5726757,,
1344,동화면세점,东和免税店,東和免稅店,Seoul,2017 외래관광객실태조사,126.976142,37.569635,동화면세점,종로구,신문로1가,126.976142,37.569635,,
1345,서울아산병원,首尔峨山医院,首爾峨山醫院,Seoul,2017 외래관광객실태조사,127.1081223,37.5265455,서울아산병원,송파구,풍납동,127.1081223,37.5265455,,
1346,강북구,江北区,江北區,Seoul,2017 외래관광객실태조사,127.0111839,37.6434801,강북구,강북구,수유동,127.0111839,37.6434801,,
1347,백령도,白翎岛,白翎島,Incheon,2017 외래관광객실태조사,124.6653814,37.9590027,백령도,옹진군,백령면,124.6653814,37.9590027,,
1348,금촌,金村,金村,Gyeonggi,2017 외래관광객실태조사,126.7702794,37.758708,금촌동,파주시,금촌동,126.7702794,37.758708,,
1349,연천군,涟川郡,漣川郡,Gyeonggi,2017 외래관광객실태조사,127.0275846,38.0964416,연천군,연천군,군남면,127.0275846,38.0964416,,
1350,경원대학교,暻園大学,暻園大學,Gyeonggi,2017 외래관광객실태조사,127.1288495,37.4507128,가천대학교,성남시 수정구,복정동,127.1288495,37.4507128,,
1351,인천연꽃마을,仁川莲花村,仁川蓮花村,Incheon,2017 외래관광객실태조사,126.6585298,37.4509282,인천연꽃마을,미추홀구,용현동,126.6585298,37.4509282,,
1352,메디플렉스 세종병원,Mediplex世宗医院,Mediplex世宗醫院,Incheon,2017 외래관광객실태조사,126.7368433,37.5321071,메디플렉스 세종병원,계양구,작전동,126.7368433,37.5321071,,
1353,인천상륙작전기념관,仁川登陆作战纪念馆,仁川登陸作戰紀念館,Incheon,2017 외래관광객실태조사,126.6542628,37.4196092,인천상륙작전기념관,연수구,옥련동,126.6542628,37.4196092,,
1354,웅진(해수욕장),瓮津(海水浴场),瓮津(海水浴場),Incheon,2017 외래관광객실태조사,124.6778869,37.9535884,옹진군,옹진군,백령면,124.6778869,37.9535884,,
1355,인천 동화마을,仁川童话村,仁川童話村,Incheon,2017 외래관광객실태조사,126.6205827,37.4776611,송월동 동화마을,중구,송월동3가,126.6205827,37.4776611,,
1356,영흥도,灵兴岛,靈興島,Incheon,2017 외래관광객실태조사,126.4627227,37.2636183,영흥도,옹진군,영흥면,126.4627227,37.2636183,,
1357,제부도,济扶岛,濟扶島,Gyeonggi,2017 외래관광객실태조사,126.6241539,37.1707991,제부도,화성시,서신면,126.6241539,37.1707991,,
1358,아라뱃길,京仁运河,京仁運河,Incheon,2017 외래관광객실태조사,126.605784,37.5568349,아라빛섬,서구,오류동,126.605784,37.5568349,,
1359,합정동,合井洞,合井洞,Seoul,2017 외래관광객실태조사,126.9111751,37.5483014,합정동,마포구,합정동,126.9111751,37.5483014,,
1360,옥수동,玉水洞,玉水洞,Seoul,2017 외래관광객실태조사,127.013956,37.5438285,옥수동,성동구,옥수동,127.013956,37.5438285,,
1361,정동,贞洞,貞洞,Seoul,2017 외래관광객실태조사,126.9731481,37.5666082,정동,중구,정동,126.9731481,37.5666082,,
1362,서초동,瑞草洞,瑞草洞,Seoul,2017 외래관광객실태조사,127.0167954,37.4883869,서초동,서초구,서초동,127.0167954,37.4883869,,
1363,당산동,堂山洞,堂山洞,Seoul,2017 외래관광객실태조사,126.9040058,37.5364736,당산동,영등포구,당산동,126.9040058,37.5364736,,
1364,모래네시장,莫莱内传统市场,莫萊內傳統市場,Incheon,2017 외래관광객실태조사,126.7214931,37.4541517,모래내시장,남동구,구월동,126.7214931,37.4541517,,
1365,정릉(북악스카이웨이등),贞陵（北岳天空路等）,貞陵（北岳天空路等）,Seoul,2017 외래관광객실태조사,126.9806646,37.6015529,북악스카이웨이,성북구,성북동,126.9806646,37.6015529,,
1366,동묘/동묘시장,东庙/东庙市场,東廟/東廟市場,Seoul,2017 외래관광객실태조사,,,동묘시장,종로구,숭인동,127.0176409,37.5732171,,
1367,마곡동,麻谷洞,麻谷洞,Seoul,2017 외래관광객실태조사,126.8298909,37.5706297,마곡동,강서구,마곡동,126.8298909,37.5706297,,
1368,서울 비밥공연장,首尔CHEF拌饭秀公演场,首爾CHEF拌飯秀公演場,Seoul,2017 외래관광객실태조사,127.063646,37.6542333,서울 비밥공연장,노원구,상계동,127.063646,37.6542333,,
1369,노원구(서울과학기술대학교),芦原区（首尔科学技术大学）,蘆原區（首爾科學技術大學）,Seoul,2017 외래관광객실태조사,127.0774813,37.6316684,서울과학기술대학교,노원구,공릉동,127.0774813,37.6316684,,
1370,SM타운,SM Town,SM Town,Seoul,2017 외래관광객실태조사,127.0595931,37.5113686,코엑스,강남구,삼성동,127.0595931,37.5113686,,
1371,개봉동,开峰洞,開峰洞,Seoul,2017 외래관광객실태조사,126.8519326,37.4942409,개봉동,구로구,개봉동,126.8519326,37.4942409,,
1372,고척동,高尺洞,高尺洞,Seoul,2017 외래관광객실태조사,126.858851,37.5031884,고척동,구로구,고척동,126.858851,37.5031884,,
1373,서울숲,首尔林,首爾林,Seoul,2017 외래관광객실태조사,127.0374424,37.5443878,서울숲,성동구,성수동1가,127.0374424,37.5443878,,
1374,하늘공원,空中公园,空中公園,Seoul,2017 외래관광객실태조사,126.8856819,37.5677554,하늘공원,마포구,상암동,126.8856819,37.5677554,,
1375,아차산,峨嵯山,峨嵯山,Seoul,2017 외래관광객실태조사,127.1037627,37.5715087,아차산,광진구,중곡동,127.1037627,37.5715087,,
1376,유네스코회관,UNESCO会馆,UNESCO會館,Seoul,2017 외래관광객실태조사,126.9837369,37.5634096,유네스코회관,중구,명동2가,126.9837369,37.5634096,,
1377,아이파크몰,I'Park Mall,I'Park Mall,Seoul,2017 외래관광객실태조사,126.9647528,37.5297133,아이파크몰,용산구,한강로3가,126.9647528,37.5297133,,
1378,북서울 꿈의 숲,北首尔梦之林,北首爾夢之林,Seoul,2017 외래관광객실태조사,127.0406246,37.6214313,북서울 꿈의 숲,강북구,번동,127.0406246,37.6214313,,
1379,강서구(서울),江西区 (首尔),江西區 (首爾),Seoul,2017 외래관광객실태조사,126.8070377,37.5617969,강서구,강서구,방화동,126.8070377,37.5617969,,
1380,포시즌스 호텔,首尔四季酒店,首爾四季酒店,Seoul,2017 외래관광객실태조사,126.9754143,37.57071,포시즌스 호텔,종로구,당주동,126.9754143,37.57071,,
1381,인왕산,仁王山,仁王山,Seoul,2017 외래관광객실태조사,126.9593042,37.5849489,인왕산,종로구,옥인동,126.9593042,37.5849489,,
1382,한성대학교,首尔大学,首爾大學,Seoul,2017 외래관광객실태조사,126.9511364,37.4593505,서울대학교,관악구,신림동,126.9511364,37.4593505,,
1383,강북삼성병원,江北三星医院,江北三星醫院,Seoul,2017 외래관광객실태조사,126.9674846,37.5683585,강북삼성병원,종로구,평동,126.9674846,37.5683585,,
1384,원자력병원(서울),原子能医院（首尔）,原子能醫院（首爾）,Seoul,2017 외래관광객실태조사,127.0826468,37.6294332,원자력병원(서울),노원구,공릉동,127.0826468,37.6294332,,
1385,순천향대학병원(한남동),顺天乡大学医院（汉南洞）,順天鄉大學醫院（漢南洞）,Seoul,2017 외래관광객실태조사,127.0043336,37.5339355,순천향대학교 서울병원,용산구,한남동,127.0043336,37.5339355,,
1386,응봉산,鹰峰山,鷹峰山,Seoul,2017 외래관광객실태조사,127.0298261,37.5481769,응봉산,성동구,응봉동,127.0298261,37.5481769,,
1387,캐나다대사관,加拿大大使馆,加拿大大使館,Seoul,2017 외래관광객실태조사,126.9708266,37.566855,캐나다대사관,중구,정동,126.9708266,37.566855,,
1388,신세계 백화점,新世界百货,新世界百貨,,2017 외래관광객실태조사,,,,,,,,,
1389,난타공연장,乱打秀公演场,亂打秀公演場,Seoul,2017 외래관광객실태조사,126.9836186,37.5635748,명동난타극장,중구,명동2가,126.9836186,37.5635748,,
1390,상계동,上溪洞,上溪洞,Seoul,2017 외래관광객실태조사,127.0703498,37.6729909,상계동,노원구,상계동,127.0703498,37.6729909,,
1391,명동/남대문/북창,明洞/南大门/北仓,明洞/南大門/北倉,Seoul,2018 외래관광객실태조사,,,명동,중구,남산동2가,126.9858296,37.55998,,
1392,"이태원 (이태원 세계 음식거리, 한남동)","梨泰院(梨泰院世界美食街, 汉南洞)","梨泰院(梨泰院世界美食街, 漢南洞)",Seoul,2018 외래관광객실태조사,,,이태원,용산구,이태원동,126.9925224,37.5385051,,
1393,동대문 패션타운,东大门时装中心,東大門時裝中心,Seoul,2018 외래관광객실태조사,127.0122873,37.5675841,동대문 패션타운,중구,신당동,127.0122873,37.5675841,,
1394,종로/청계,锺路/清溪,鍾路/清溪,Seoul,2018 외래관광객실태조사,,,청계천,중구,무교동,126.9786692,37.5691015,,
1395,잠실,蚕室,蠶室,Seoul,2018 외래관광객실태조사,127.1001336,37.5132612,잠실역,송파구,신천동,127.1001336,37.5132612,,
1396,코엑스,COEX,COEX,Seoul,2018 외래관광객실태조사,127.0595931,37.5113686,코엑스,강남구,삼성동,127.0595931,37.5113686,,
1397,여의도 (63빌딩),汝矣岛(63大厦),汝矣島 (63大廈),Seoul,2018 외래관광객실태조사,126.9401255,37.5197159,63빌딩,영등포구,여의도동,126.9401255,37.5197159,,
1398,한강/유람선,汉江/游船,漢江/遊覽船,Seoul,2018 외래관광객실태조사,,,한강유람선,영등포구,여의도동,126.9384944,37.5257811,,
1399,광화문광장,光化门广场,光化門廣場,Seoul,2018 외래관광객실태조사,,,광화문광장,종로구,세종로,126.9769117,37.572389,,
1400,신촌/홍대주변,新村/弘大周围,新村/弘大周邊,Seoul,2018 외래관광객실태조사,,,홍대거리,마포구,서교동,126.9241498,37.5558499,,
1401,DMC/월드컵경기장,DMC/世界杯体育场,DMC/世界盃體育場,Seoul,2018 외래관광객실태조사,126.8972735,37.5682617,월드컵 경기장,마포구,성산동,126.8972735,37.5682617,,
1402,청담동/압구정동,清潭洞/狎鸥亭洞,清潭洞/狎鷗亭洞,Seoul,2018 외래관광객실태조사,,,청담동,강남구,청담동,127.0479736,37.5233931,,
1403,가로수길,林荫树街,林蔭樹道,Seoul,2018 외래관광객실태조사,127.0228686,37.5210566,가로수길,강남구,신사동,127.0228686,37.5210566,,
1404,강남역,江南站,江南站,Seoul,2018 외래관광객실태조사,127.027619,37.497952,강남역,강남구,역삼동,127.027619,37.497952,,
1405,월미도,月尾岛,月尾島,Incheon,2018 외래관광객실태조사,126.5978148,37.4754003,월미도,중구,북성동1가,126.5978148,37.4754003,,
1406,송도,松岛,松島,Incheon,2018 외래관광객실태조사,126.6389202,37.3860959,송도,연수구,송도동,126.6389202,37.3860959,,
1407,강화 (전등사/석모도/평화전망대),江华岛(传灯寺/石母岛/和平展望台),江華島(傳燈寺/石母島/和平眺望臺),Incheon,2018 외래관광객실태조사,,,강화도,강화군,불은면,126.4511281,37.7131742,,
1408,공항주변 (바닷가)/인천대교/용궁사,机场周围(海边)/仁川大桥/龙宫寺,機場周邊(海邊)/仁川大橋/龍宮寺,Incheon,2018 외래관광객실태조사,,,영종도,중구,운남동,126.5358479,37.5000629,,
1409,"어시장(소래포구, 인천종합)","渔市场(苏来浦口, 仁川综合)","魚市場(蘇來浦口, 仁川綜合)",Incheon,2018 외래관광객실태조사,,,,,,,,,
1410,현대프리미엄아울렛/부평지하상가/엔타스면세점,现代PREMIUM OUTLET/富平地下街/Entas免税店,現代PREMIUM OUTLET/富平地下街/Entas免税店,Incheon,2018 외래관광객실태조사,,,,,,,,,
1411,무의도/팔미도/덕적도,舞衣岛/八尾岛/德积岛,舞衣島/八尾島/德積島,Incheon,2018 외래관광객실태조사,,,영종도,중구,운남동,126.5358479,37.5000629,,
1412,동두천,东豆川,東豆川,Gyeonggi,2018 외래관광객실태조사,127.0779171,37.916543,동두천시,동두천시,걸산동,127.0779171,37.916543,,
1413,"평택시 송탄 (국제 중앙시장, 신장 쇼핑몰)","平泽市 松炭(国际中央市场, 新场购物中心)","平澤市 松炭(國際中央市場, 新場購物中心)",Gyeonggi,2018 외래관광객실태조사,,,평택 송탄 로데오거리,평택시,신장동,127.0508323,37.076363,,
1414,"고양 (고양 킨텍스, 김치스쿨, 원마운트)",高阳(KINTEX/泡菜学校/ONE-MOUNT主题公园),高陽(KINTEX/泡菜學校/ONE MOUNT),Gyeonggi,2018 외래관광객실태조사,,,고양시,고양시 덕양구,주교동,126.8369961,37.6650719,,
1415,수원 화성,水原华城,水原華城,Gyeonggi,2018 외래관광객실태조사,127.0119379,37.2871202,수원화성,수원시 장안구,영화동,127.0119379,37.2871202,,
1416,에버랜드,爱宝乐园,愛寶樂園,Gyeonggi,2018 외래관광객실태조사,127.2025664,37.2939104,에버랜드,용인시 처인구,포곡읍,127.2025664,37.2939104,,
1417,"임진각, 제3땅굴/통일전망대/판문점","临津阁, 第三隧道/统一展望台/板门店","臨津閣, 第三地道/統一展望臺/板門店",Gyeonggi,2018 외래관광객실태조사,,,임진각,파주시,문산읍,126.7402185,37.8897444,,
1418,한국민속촌,韩国民俗村,韓國民俗村,Gyeonggi,2018 외래관광객실태조사,127.1181126,37.258939,한국민속촌,용인시 기흥구,보라동,127.1181126,37.258939,,
1419,서울랜드/서울대공원,首尔乐园/首尔大公园,首爾樂園/首爾大公園,Gyeonggi,2018 외래관광객실태조사,,,서울대공원,과천시,막계동,127.0170252,37.4275247,,
1420,헤이리 예술마을/프로방스마을,Heyri国际艺术村/普罗旺斯村,HEYRI藝術村/普羅旺斯村,Gyeonggi,2018 외래관광객실태조사,,,헤이리예술마을,파주시,탄현면,126.698722,37.7888414,,
1421,"쇼핑아울렛 (파주, 여주, 이천)","Outlet(坡州, 骊州, 利川)","購物Outlet(坡州, 驪州, 利川)",Gyeonggi,2018 외래관광객실태조사,,,,,,,,,
1422,성남 (판교/카페거리/남한산성),城南(板桥/咖啡街/南汉山城),城南(板橋/咖啡街/南漢山城),Gyeonggi,2018 외래관광객실태조사,,,성남시,성남시 분당구,삼평동,127.1162181,37.4073695,,
1423,포천 (허브 아일랜드),抱川(香草岛乐园),抱川(香草島樂園),Gyeonggi,2018 외래관광객실태조사,127.131773,37.9654806,포천 허브아일랜드,포천시,신북면,127.131773,37.9654806,,
1424,부천 (웅진 플레이 도시),富川(熊津游戏城),富川(熊津遊樂城),Gyeonggi,2018 외래관광객실태조사,126.7449357,37.4999116,부천 웅진플레이도시,부천시,상동,126.7449357,37.4999116,,
1425,양평 (두물머리/레일 바이크),杨平(两水头/铁路自行车),楊平(兩水頭/鐵路自行車),Gyeonggi,2018 외래관광객실태조사,,,양평군,양평군,용문면,127.5792445,37.5180465,,
1426,가평 (자라섬/쁘띠프랑스/아침고요 수목원),加平(龟岛/小法兰西/晨静园艺树木园),加平(鱉島/小法國村/晨靜樹木園),Gyeonggi,2018 외래관광객실태조사,,,가평군,가평군,가평읍,127.4502156,37.8184719,,
1427,안산 (대부도/시화호/별빛마을),鞍山(大釜岛/始华湖/星光村),安山(大阜島/始華湖/星光村),Gyeonggi,2018 외래관광객실태조사,,,안산시,안산시 단원구,고잔동,126.8308848,37.3218778,,
1428,스키장 (지산/양지/베어스타운/곤지암),滑雪场(芝山/阳智/熊城/昆池岩),滑雪場(芝山/陽智/熊城/昆池岩),Gyeonggi,2018 외래관광객실태조사,,,,,,,,,
1429,광명동굴,光明洞窟,光明洞窟,Gyeonggi,2018 외래관광객실태조사,126.8664882,37.4264887,광명동굴,광명시,가학동,126.8664882,37.4264887,,
1430,평택시 (송탄 로데오 거리),平泽(松丹路五岔口),平澤(松丹路五岔口),Gyeonggi,2018 외래관광객실태조사,127.0508323,37.076363,평택 송탄 로데오거리,평택시,신장동,127.0508323,37.076363,,
1431,"광진구 (건국 대학교, 건대 입구역)","广津区(建国大学, 建国大学入口站)","廣津區(建國大學, 建國大學入口站)",Seoul,2018 외래관광객실태조사,,,건대입구역,광진구,자양동,127.069276,37.540372,,
1432,"영등포 (타임 스퀘어, 영등포시장 등)","永登浦(时代广场, 永登浦市场等)","永登浦(時代廣場, 永登浦市場等)",Seoul,2018 외래관광객실태조사,,,영등포구,영등포구,영등포동2가,126.9101692,37.5223245,,
1433,"반포 (고속버스 터미널, 고투몰)","盘浦(高速巴士站, Goto Mall)","盤浦(高速巴士站, Goto Mall)",Seoul,2018 외래관광객실태조사,,,고투몰,서초구,잠원동,127.0050378,37.5062379,,
1434,합정/성수,合井/圣水,合井/聖水,Seoul,2018 외래관광객실태조사,,,,,,,,,
1435,마포,麻浦,麻浦,Seoul,2018 외래관광객실태조사,126.9082589,37.5593115,마포구,마포구,성산동,126.9082589,37.5593115,,
1436,서대문 (서대문 형무소),西大门(西大门刑务所),西大門(西大門刑務所),Seoul,2018 외래관광객실태조사,126.956071,37.574271,서대문 형무소,서대문구,현저동,126.956071,37.574271,,
1437,고려대학교,高丽大学,高麗大學,Seoul,2018 외래관광객실태조사,127.0324773,37.5893876,고려대학교,성북구,안암동5가,127.0324773,37.5893876,,
1438,서초 (현대 자동차 본사),瑞草(现代汽车总公司),瑞草(現代汽車總公司),Seoul,2018 외래관광객실태조사,127.0430687,37.4646651,현대 자동차 본사,서초구,양재동,127.0430687,37.4646651,,
1439,시흥동/독산,始兴洞/秃山,始興洞/禿山,Seoul,2018 외래관광객실태조사,,,독산역,금천구,가산동,126.889396,37.466107,,
1440,"흑석동 (중앙대, 중앙대 병원)","黑石洞(中央大学, 中央大学医院)","黑石洞(中央大學, 中央大學醫院)",Seoul,2018 외래관광객실태조사,,,중앙대학교,동작구,흑석동,126.9571012,37.5050881,,
1441,"노량진 (노량진 수산시장, 사육신묘)","鹭樑津(鹭樑津水产市场, 死六辰庙)","鷺樑津(鷺樑津水產市場, 死六辰廟)",Seoul,2018 외래관광객실태조사,,,노량진동,동작구,노량진동,126.9418959,37.5116108,,
1442,김포공항 주변,金浦机场周边,金浦機場周邊,Seoul,2018 외래관광객실태조사,126.8013282,37.5655383,김포공항,강서구,방화동,126.8013282,37.5655383,,
1443,삼성동,三圣洞,三聖洞,Seoul,2018 외래관광객실태조사,127.0561274,37.513975,삼성동,강남구,삼성동,127.0561274,37.513975,,
1444,서울역/서울로,首尔站/首尔路,首爾站/首爾路,Seoul,2018 외래관광객실태조사,126.972317,37.555946,서울역,중구,봉래동2가,126.972317,37.555946,,
1445,가산디지털,加山数码园区,加山數碼園區,Seoul,2018 외래관광객실태조사,126.882652,37.48144,가산디지털단지역,금천구,가산동,126.882652,37.48144,,
1446,신림/봉천/낙성대,新林/奉天/落星臺,新林/奉天/落星臺,Seoul,2018 외래관광객실태조사,,,관악구,관악구,신림동,126.9453359,37.4673709,,
1447,노원/상계,芦原/上溪,蘆原/上溪,Seoul,2018 외래관광객실태조사,,,노원구,노원구,중계동,127.075042,37.6525076,,
1448,충무로,忠武路,忠武路,Seoul,2018 외래관광객실태조사,126.9927416,37.5648394,충무로,중구,초동,126.9927416,37.5648394,,
1449,청량리,清凉里,清涼里,Seoul,2018 외래관광객실태조사,,,청량리역,동대문구,전농동,127.048958,37.581381,,
1450,양재 (양재 시민의 숲 등),良才(良才市民之林等),良才(良才市民之林等),Seoul,2018 외래관광객실태조사,127.035758,37.4710677,양재 시민의 숲,서초구,양재동,127.035758,37.4710677,,
1451,왕십리,往十里,往十里,Seoul,2018 외래관광객실태조사,127.0252724,37.568832,왕십리,성동구,상왕십리동,127.0252724,37.568832,,
1452,"이촌 (국립중앙박물관, 용산 가족공원)","二村(国立中央博物馆, 龙山家庭公园)","二村(國立中央博物館, 龍山家庭公園)",Seoul,2018 외래관광객실태조사,,,국립중앙박물관,용산구,용산동6가,126.9804702,37.5238506,,
1453,성북 (헤화문),城北(惠化门),城北(惠化門),Seoul,2018 외래관광객실태조사,127.0037323,37.587926,혜화문,종로구,혜화동,127.0037323,37.587926,,
1454,신라호텔,新罗饭店,新羅飯店,Seoul,2018 외래관광객실태조사,127.0052509,37.5559034,신라호텔,중구,장충동2가,127.0052509,37.5559034,,
1455,베스트웨스턴 뉴서울 호텔,新首尔饭店,新首爾飯店,Seoul,2018 외래관광객실태조사,126.9781164,37.5679974,뉴서울호텔,중구,태평로1가,126.9781164,37.5679974,,
1456,웨스턴 조선호텔,首尔威斯汀朝鲜饭店,首爾威斯汀朝鮮飯店,Seoul,2018 외래관광객실태조사,126.980058,37.564378,웨스틴조선호텔,중구,소공동,126.980058,37.564378,,
1457,신라면세점,新罗免税店,新羅免稅店,Seoul,2018 외래관광객실태조사,127.0078383,37.5568859,신라면세점,중구,장충동2가,127.0078383,37.5568859,,
1458,힐튼호텔,希尔顿饭店,希爾頓飯店,Seoul,2018 외래관광객실태조사,,,,,,,,,
1459,북한산,北汉山,北漢山,Seoul,2018 외래관광객실태조사,126.993333,37.660833,북한산,강북구,우이동,126.993333,37.660833,,
1460,세종대학교,世宗大学,世宗大學,Seoul,2018 외래관광객실태조사,127.0736345,37.5518018,세종대학교,광진구,군자동,127.0736345,37.5518018,,
1461,수유동,水逾洞,水逾洞,Seoul,2018 외래관광객실태조사,127.0073721,37.6383275,수유동,강북구,수유동,127.0073721,37.6383275,,
1462,오류/개봉,梧柳/开封,梧柳/開封,Seoul,2018 외래관광객실태조사,,,구로구,구로구,개봉동,126.8563336,37.4944134,,
1463,구로,九老,九老,Seoul,2018 외래관광객실태조사,126.8563336,37.4944134,구로구,구로구,개봉동,126.8563336,37.4944134,,
1464,목동,木洞,木洞,Seoul,2018 외래관광객실태조사,126.8745334,37.5360367,목동,양천구,목동,126.8745334,37.5360367,,
1465,상암동,上岩洞,上岩洞,Seoul,2018 외래관광객실태조사,126.8798744,37.5707485,상암동,마포구,상암동,126.8798744,37.5707485,,
1466,대림,大林,大林,Seoul,2018 외래관광객실태조사,126.8973155,37.4932246,대림역,영등포구,대림동,126.8973155,37.4932246,,
1467,당산동,堂山洞,堂山洞,Seoul,2018 외래관광객실태조사,126.9040058,37.5364736,당산동,영등포구,당산동,126.9040058,37.5364736,,
1468,봉은사,奉恩寺,奉恩寺,Seoul,2018 외래관광객실태조사,127.0573766,37.514852,봉은사,강남구,삼성동,127.0573766,37.514852,,
1469,연세대학교,延世大学,延世大學,Seoul,2018 외래관광객실태조사,126.9387066,37.5663937,연세대학교,서대문구,신촌동,126.9387066,37.5663937,,
1470,성균관대학교,成均馆大学,成均館大學,Seoul,2018 외래관광객실태조사,126.993606,37.588227,성균관대학교,종로구,명륜3가,126.993606,37.588227,,
1471,순천향대학교 서울병원,顺天乡大学首尔医院,順天鄉大學首爾醫院,Seoul,2018 외래관광객실태조사,127.0043336,37.5339355,순천향대학교 서울병원,용산구,한남동,127.0043336,37.5339355,,
1472,더 플라자 호텔,首尔广场傲途格精选饭店,首爾廣場傲途格精選飯店,Seoul,2018 외래관광객실태조사,126.9781534,37.5646452,더 플라자 호텔,중구,태평로2가,126.9781534,37.5646452,,
1473,K-POP로드,K-Star Road,K-Star Road,Seoul,2018 외래관광객실태조사,127.0420501,37.5274312,K-POP로드,강남구,청담동,127.0420501,37.5274312,,
1474,강남(sm타운 등),江南(SM Town等),江南(SM Town等),Seoul,2018 외래관광객실태조사,,,강남구,강남구,대치동,127.0629804,37.4966645,,
1475,강동구,江东区,江東區,Seoul,2018 외래관광객실태조사,127.1440351,37.5508094,강동구,강동구,명일동,127.1440351,37.5508094,,
1476,강서구,江西区,江西區,Seoul,2018 외래관광객실태조사,126.8070377,37.5617969,강서구,강서구,방화동,126.8070377,37.5617969,,
1477,성동구,城东区,城東區,Seoul,2018 외래관광객실태조사,127.0410394,37.5510171,성동구,성동구,성수동1가,127.0410394,37.5510171,,
1478,남영동/청파동/숙대입구,南营洞/青坡洞/淑大入口,南營洞/青坡洞/淑大入口,Seoul,2018 외래관광객실태조사,,,숙대입구역,용산구,갈월동,126.971987,37.545097,,
1479,사당동,舍堂洞,舍堂洞,Seoul,2018 외래관광객실태조사,126.9772568,37.4798074,사당동,동작구,사당동,126.9772568,37.4798074,,
1480,국기원,国技院,國技院,Seoul,2018 외래관광객실태조사,127.0302469,37.501965,국기원,강남구,역삼동,127.0302469,37.501965,,
1481,서울둘레길,首尔步道,首爾步道,Seoul,2018 외래관광객실태조사,,,,,,,,,
1482,방배동 (서래마을 등),方背洞(瑞来村等),方背洞(瑞來村等),Seoul,2018 외래관광객실태조사,126.9982698,37.4969306,서래마을,서초구,반포동,126.9982698,37.4969306,,
1483,망원동,望远洞,望遠洞,Seoul,2018 외래관광객실태조사,126.8998606,37.5554884,망원동,마포구,망원동,126.8998606,37.5554884,,
1484,고척스카이돔,高尺天空巨蛋,高尺天空巨蛋,Seoul,2018 외래관광객실태조사,126.8670082,37.498182,고척스카이돔,구로구,고척동,126.8670082,37.498182,,
1485,송파,松坡,松坡,Seoul,2018 외래관광객실태조사,127.1152992,37.5056205,송파구,송파구,송파동,127.1152992,37.5056205,,
1486,등촌동,登村洞,登村洞,Seoul,2018 외래관광객실태조사,126.8559611,37.5575223,등촌동,강서구,등촌동,126.8559611,37.5575223,,
1487,현대아산병원,现代峨山医院,現代峨山醫院,Seoul,2018 외래관광객실태조사,127.1081223,37.5265455,서울아산병원,송파구,풍납동,127.1081223,37.5265455,,
1488,을지로,乙支路,乙支路,Seoul,2018 외래관광객실태조사,126.9954924,37.5660286,을지로,중구,을지로4가,126.9954924,37.5660286,,
1489,회기동(경희대학교),回基洞(庆熙大学),回基洞(慶熙大學),Seoul,2018 외래관광객실태조사,127.0518435,37.5968367,경희대학교,동대문구,회기동,127.0518435,37.5968367,,
1490,이화여대,梨花女子大学,梨花女子大學,Seoul,2018 외래관광객실태조사,126.9468339,37.5618588,이화여자대학교,서대문구,대현동,126.9468339,37.5618588,,
1491,서울대부속병원,首尔大学附属医院,首爾大學附屬醫院,Seoul,2018 외래관광객실태조사,126.9990602,37.5795427,서울대학교병원,종로구,연건동,126.9990602,37.5795427,,
1492,서울대학교,首尔大学,首爾大學,Seoul,2018 외래관광객실태조사,126.9511364,37.4593505,서울대학교,관악구,신림동,126.9511364,37.4593505,,
1493,한양대학교,汉阳大学,漢陽大學,Seoul,2018 외래관광객실태조사,127.0454092,37.5571759,한양대학교,성동구,행당동,127.0454092,37.5571759,,
1494,쉐라톤 워커힐 호텔,华克山庄首尔大酒店,華克山莊首爾大酒店,Seoul,2018 외래관광객실태조사,127.1108905,37.5552126,그랜드 워커힐 서울,광진구,광장동,127.1108905,37.5552126,,
1495,한전아트센터,韩电艺术中心,韓電藝術中心,Seoul,2018 외래관광객실태조사,127.0279981,37.4856988,한전아트센터,서초구,서초동,127.0279981,37.4856988,,
1496,대학로/혜화동,大学路/惠化洞,大學路/惠化洞,Seoul,2018 외래관광객실태조사,,,대학로,종로구,연건동,127.0016013,37.5782763,,
1497,신도림,新道林,新道林,Seoul,2018 외래관광객실태조사,126.8915131,37.5089833,신도림역,구로구,신도림동,126.8915131,37.5089833,,
1498,마곡,马谷,馬谷,Seoul,2018 외래관광객실태조사,126.8298909,37.5706297,마곡동,강서구,마곡동,126.8298909,37.5706297,,
1499,관악산,冠岳山,冠岳山,Seoul,2018 외래관광객실태조사,126.9610024,37.4429385,관악산,관악구,신림동,126.9610024,37.4429385,,
1500,선릉/역삼,宣陵,宣陵,Seoul,2018 외래관광객실태조사,127.045531,37.5087078,선릉,강남구,삼성동,127.045531,37.5087078,,
1501,수색동,水色洞,水色洞,Seoul,2018 외래관광객실태조사,126.8933245,37.5861575,수색동,은평구,수색동,126.8933245,37.5861575,,
1502,강남 세브란스병원,江南Severance医院,江南Severance醫院,Seoul,2018 외래관광객실태조사,127.0465277,37.4925494,강남 세브란스병원,강남구,도곡동,127.0465277,37.4925494,,
1503,한국외대,韩国外国语大学,韓國外國語大學,Seoul,2018 외래관광객실태조사,127.0588002,37.5974453,한국외국어대학교,동대문구,이문동,127.0588002,37.5974453,,
1504,단국대학교,檀国大学,檀國大學,Gyeonggi,2018 외래관광객실태조사,127.1267503,37.3215984,단국대학교,용인시 수지구,죽전동,127.1267503,37.3215984,,
1505,동서울,东首尔,東首爾,Seoul,2018 외래관광객실태조사,127.0933675,37.5333713,동서울 터미널,광진구,구의동,127.0933675,37.5333713,,
1506,동국대학교,东国大学,東國大學,Seoul,2018 외래관광객실태조사,127.0001671,37.5582876,동국대학교,중구,장충동2가,127.0001671,37.5582876,,
1507,논현동,论岘洞,論峴洞,Seoul,2018 외래관광객실태조사,127.0317124,37.5136787,논현동,강남구,논현동,127.0317124,37.5136787,,
1508,장한평,长汉坪,長漢坪,Seoul,2018 외래관광객실태조사,127.064657,37.561472,장한평역,동대문구,장안동,127.064657,37.561472,,
1509,동인천,东仁川,東仁川,Incheon,2018 외래관광객실태조사,126.6288894,37.4745242,인천 차이나타운,중구,북성동2가,126.6178849,37.475589,,
1510,인천 서구,仁川西区,仁川西區,Incheon,2018 외래관광객실태조사,126.6561702,37.5578549,인천 서구,서구,경서동,126.6561702,37.5578549,,
1511,부평,富平,富平,Incheon,2018 외래관광객실태조사,126.7212089,37.4966725,부평구,부평구,부평동,126.7212089,37.4966725,,
1512,베스트웨스턴인천 호텔,仁川机场贝斯特韦斯特高级饭店,仁川機場貝斯特韋斯特高級飯店,Incheon,2018 외래관광객실태조사,126.4596059,37.4386499,베스트웨스턴인천 호텔,중구,운서동,126.4596059,37.4386499,,
1513,남동구,南洞区,南洞區,Incheon,2018 외래관광객실태조사,126.726484,37.4310147,남동구,남동구,수산동,126.726484,37.4310147,,
1514,파라다이스 시티호텔 &리조트,仁川百乐达斯城度假村,仁川百樂達斯城度假村,Incheon,2018 외래관광객실태조사,126.4559197,37.4370234,파라다이스 시티호텔 &리조트,중구,운서동,126.4559197,37.4370234,,
1515,인천 유나이티드 경기장,仁川足球场,仁川足球場,Incheon,2018 외래관광객실태조사,126.6430109,37.4660127,인천 유나이티드 경기장,미추홀구,도원동,126.6430109,37.4660127,,
1516,인천 중구,仁川中区,仁川中區,Incheon,2018 외래관광객실태조사,126.4685024,37.4760518,인천공항,중구,운서동,126.4513395,37.4493342,,
1517,인천대공원,仁川大公园,仁川大公園,Incheon,2018 외래관광객실태조사,126.7522197,37.459244,인천대공원,남동구,장수동,126.7522197,37.459244,,
1518,메디플렉스 세종병원,Mediplex世宗医院,Mediplex世宗醫院,Incheon,2018 외래관광객실태조사,126.7368433,37.5321071,메디플렉스 세종병원,계양구,작전동,126.7368433,37.5321071,,
1519,인천 노보텔 호텔,仁川诺富特酒店,仁川諾富特酒店,Incheon,2018 외래관광객실태조사,,,,,,,,,
1520,주안,朱安,朱安,Incheon,2018 외래관광객실태조사,126.679709,37.465074,주안역,미추홀구,주안동,126.679709,37.465074,,
1521,인하대학교,仁荷大学,仁荷大學,Incheon,2018 외래관광객실태조사,126.653488,37.4500221,인하대학교,미추홀구,용현동,126.653488,37.4500221,,
1522,그랜드하얏트 인천,仁川君悦酒店,仁川君悅酒店,Incheon,2018 외래관광객실태조사,126.4574508,37.4404925,그랜드 하얏트 인천,중구,운서동,126.4574508,37.4404925,,
1523,계양구,桂阳区,桂陽區,Incheon,2018 외래관광객실태조사,126.734707,37.5572857,계양구,계양구,방축동,126.734707,37.5572857,,
1524,송월동 동화마을,松月洞童话村,松月洞童話村,Incheon,2018 외래관광객실태조사,126.6205827,37.4776611,송월동 동화마을,중구,송월동3가,126.6205827,37.4776611,,
1525,인천길병원,嘉泉大吉医院,嘉泉大吉醫院,Incheon,2018 외래관광객실태조사,126.7092631,37.4518347,가천대 길병원,남동구,구월동,126.7092631,37.4518347,,
1526,인천대학교,仁川大学,仁川大學,Incheon,2018 외래관광객실태조사,126.6322345,37.3749658,인천대학교,연수구,송도동,126.6322345,37.3749658,,
1527,신포국제시장,新浦国际市场,新浦國際市場,Incheon,2018 외래관광객실태조사,126.6272078,37.4713875,신포국제시장,중구,신포동,126.6272078,37.4713875,,
1528,라마다인천호텔,仁川华美达酒店,仁川華美達酒店,Incheon,2018 외래관광객실태조사,126.7356312,37.4003606,라마다인천호텔,남동구,논현동,126.7356312,37.4003606,,
1529,남동체육관,南洞体育馆,南洞體育館,Incheon,2018 외래관광객실태조사,126.7335833,37.4345875,남동체육관,남동구,수산동,126.7335833,37.4345875,,
1530,안양,安阳,安陽,Gyeonggi,2018 외래관광객실태조사,126.9279179,37.4027313,안양시,안양시 동안구,비산동,126.9279179,37.4027313,,
1531,동탄,东滩,東灘,Gyeonggi,2018 외래관광객실태조사,127.0970177,37.199327,동탄역,화성시,오산동,127.0970177,37.199327,,
1532,경기 광주,京畿光州,京畿光州,Gyeonggi,2018 외래관광객실태조사,127.3011624,37.4030854,경기 광주시,광주시,초월읍,127.3011624,37.4030854,,
1533,시흥시,始兴市,始興市,Gyeonggi,2018 외래관광객실태조사,126.7841675,37.3864796,시흥시,시흥시,장곡동,126.7841675,37.3864796,,
1534,용인,龙仁,龍仁,Gyeonggi,2018 외래관광객실태조사,127.2218612,37.2214872,용인시,용인시 처인구,남동,127.2218612,37.2214872,,
1535,남양주,南杨州,南楊州,Gyeonggi,2018 외래관광객실태조사,127.2436632,37.6625097,남양주시,남양주시,호평동,127.2436632,37.6625097,,
1536,하남시,河南市,河南市,Gyeonggi,2018 외래관광객실태조사,127.2059921,37.5228824,하남시,하남시,교산동,127.2059921,37.5228824,,
1537,오산,乌山,烏山,Gyeonggi,2018 외래관광객실태조사,127.0513324,37.1632991,오산시,오산시,궐동,127.0513324,37.1632991,,
1538,안성,安城,安城,Gyeonggi,2018 외래관광객실태조사,127.3027301,37.035033,안성시,안성시,보개면,127.3027301,37.035033,,
1539,장호원,长湖院,長湖院,Gyeonggi,2018 외래관광객실태조사,127.5964362,37.1346899,장호원,이천시,장호원읍,127.5964362,37.1346899,,
1540,의정부,议政府,議政府,Gyeonggi,2018 외래관광객실태조사,127.0684356,37.7361884,의정부시,의정부시,신곡동,127.0684356,37.7361884,,
1541,김포,金浦,金浦,Gyeonggi,2018 외래관광객실태조사,126.6265338,37.6818227,김포시,김포시,통진읍,126.6265338,37.6818227,,
1542,이천,利川,利川,Gyeonggi,2018 외래관광객실태조사,127.4810494,37.2097769,이천시,이천시,대월면,127.4810494,37.2097769,,
1543,양주,扬州,揚州,Gyeonggi,2018 외래관광객실태조사,127.001143,37.8086632,양주시,양주시,백석읍,127.001143,37.8086632,,
1544,군포,军浦,軍浦,Gyeonggi,2018 외래관광객실태조사,126.9211003,37.3434691,군포시,군포시,산본동,126.9211003,37.3434691,,
1545,광명,光明,光明,Gyeonggi,2018 외래관광객실태조사,126.8646989,37.4451612,광명시,광명시,하안동,126.8646989,37.4451612,,
1546,의왕시,义王市,義王市,Gyeonggi,2018 외래관광객실태조사,126.9896996,37.3624626,의왕시,의왕시,오전동,126.9896996,37.3624626,,
1547,파주,坡州,坡州,Gyeonggi,2018 외래관광객실태조사,126.8115232,37.8544244,파주시,파주시,파주읍,126.8115232,37.8544244,,
1548,부천 순천향병원,富川顺天乡医院,富川順天鄉醫院,Gyeonggi,2018 외래관광객실태조사,126.7628536,37.4983977,부천 순천향대학병원,부천시,중동,126.7628536,37.4983977,,
1549,문산,文山,文山,Gyeonggi,2018 외래관광객실태조사,126.7803825,37.8742292,문산읍,파주시,문산읍,126.7803825,37.8742292,,
1550,분당,盆唐,盆唐,Gyeonggi,2018 외래관광객실태조사,127.1060411,37.3793356,분당구,성남시 분당구,정자동,127.1060411,37.3793356,,
1551,구리,九里,九里,Gyeonggi,2018 외래관광객실태조사,127.1313079,37.5990186,구리시,구리시,교문동,127.1313079,37.5990186,,
1552,청평,清平,清平,Gyeonggi,2018 외래관광객실태조사,127.4293452,37.7297832,청평면,가평군,청평면,127.4293452,37.7297832,,
1553,과천,果川,果川,Gyeonggi,2018 외래관광객실태조사,127.0027656,37.4338294,과천시,과천시,막계동,127.0027656,37.4338294,,
1554,청계산,清溪山,清溪山,Gyeonggi,2018 외래관광객실태조사,127.0415787,37.4141657,청계산,의왕시,청계동,127.0415787,37.4141657,,
1555,평택 캠프험프리,平泽汉弗莱营,平澤漢弗萊營,Gyeonggi,2018 외래관광객실태조사,127.044458,36.95815,평택 캠프험프리,평택시,팽성읍,127.044458,36.95815,,
1556,모란시장,牡丹市场,牡丹市場,Gyeonggi,2018 외래관광객실태조사,127.1271027,37.4291736,모란시장,성남시 중원구,성남동,127.1271027,37.4291736,,
1557,명동/남대문/북창,明洞/南大门/北仓,明洞/南大門/北倉,Seoul,2019 외래관광객실태조사,,,명동,중구,남산동2가,126.9858296,37.55998,,
1558,"이태원 (이태원 세계 음식거리, 한남동)","梨泰院(梨泰院世界美食街, 汉南洞)","梨泰院(梨泰院世界美食街, 漢南洞)",Seoul,2019 외래관광객실태조사,,,이태원,용산구,이태원동,126.9925224,37.5385051,,
1559,동대문 패션타운,东大门时装中心,東大門時裝中心,Seoul,2019 외래관광객실태조사,127.0122873,37.5675841,동대문 패션타운,중구,신당동,127.0122873,37.5675841,,
1560,종로/청계,锺路/清溪,鍾路/清溪,Seoul,2019 외래관광객실태조사,,,청계천,중구,무교동,126.9786692,37.5691015,,
1561,잠실,蚕室,蠶室,Seoul,2019 외래관광객실태조사,127.1001336,37.5132612,잠실역,송파구,신천동,127.1001336,37.5132612,,
1562,코엑스,COEX,COEX,Seoul,2019 외래관광객실태조사,127.0595931,37.5113686,코엑스,강남구,삼성동,127.0595931,37.5113686,,
1563,여의도 (63빌딩),汝矣岛(63大厦),汝矣島 (63大廈),Seoul,2019 외래관광객실태조사,126.9401255,37.5197159,63빌딩,영등포구,여의도동,126.9401255,37.5197159,,
1564,한강/유람선,汉江/游船,漢江/遊覽船,Seoul,2019 외래관광객실태조사,,,한강유람선,영등포구,여의도동,126.9384944,37.5257811,,
1565,시청/광화문광장,市厅/光化门广场,市廳/光化門廣場,Seoul,2019 외래관광객실태조사,,,광화문광장,종로구,세종로,126.9769117,37.572389,,
1566,신촌/홍대주변,新村/弘大周围,新村/弘大周邊,Seoul,2019 외래관광객실태조사,,,홍대거리,마포구,서교동,126.9241498,37.5558499,,
1567,DMC/월드컵경기장,DMC/世界杯体育场,DMC/世界盃體育場,Seoul,2019 외래관광객실태조사,126.8972735,37.5682617,월드컵 경기장,마포구,성산동,126.8972735,37.5682617,,
1568,청담동/압구정동,清潭洞/狎鸥亭洞,清潭洞/狎鷗亭洞,Seoul,2019 외래관광객실태조사,,,청담동,강남구,청담동,127.0479736,37.5233931,,
1569,가로수길,林荫树街,林蔭樹道,Seoul,2019 외래관광객실태조사,127.0228686,37.5210566,가로수길,강남구,신사동,127.0228686,37.5210566,,
1570,강남역,江南站,江南站,Seoul,2019 외래관광객실태조사,127.027619,37.497952,강남역,강남구,역삼동,127.027619,37.497952,,
1571,월미도,月尾岛,月尾島,Incheon,2019 외래관광객실태조사,126.5978148,37.4754003,월미도,중구,북성동1가,126.5978148,37.4754003,,
1572,송도,松岛,松島,Incheon,2019 외래관광객실태조사,126.6389202,37.3860959,송도,연수구,송도동,126.6389202,37.3860959,,
1573,강화 (전등사/석모도/평화전망대),江华岛(传灯寺/石母岛/和平展望台),江華島(傳燈寺/石母島/和平眺望臺),Incheon,2019 외래관광객실태조사,,,강화도,강화군,불은면,126.4511281,37.7131742,,
1574,공항주변 (바닷가)/인천대교/용궁사,机场周围(海边)/仁川大桥/龙宫寺,機場周邊(海邊)/仁川大橋/龍宮寺,Incheon,2019 외래관광객실태조사,,,영종도,중구,운남동,126.5358479,37.5000629,,
1575,"어시장(소래포구, 인천종합)","渔市场(苏来浦口, 仁川综合)","魚市場(蘇來浦口, 仁川綜合)",Incheon,2019 외래관광객실태조사,,,,,,,,,
1576,현대프리미엄아울렛/부평지하상가/엔타스면세점,现代PREMIUM OUTLET/富平地下街/Entas免税店,現代PREMIUM OUTLET/富平地下街/Entas免税店,Incheon,2019 외래관광객실태조사,,,,,,,,,
1577,무의도/팔미도/덕적도,舞衣岛/八尾岛/德积岛,舞衣島/八尾島/德積島,Incheon,2019 외래관광객실태조사,,,영종도,중구,운남동,126.5358479,37.5000629,,
1578,동두천,东豆川,東豆川,Gyeonggi,2019 외래관광객실태조사,127.0779171,37.916543,동두천시,동두천시,걸산동,127.0779171,37.916543,,
1579,"평택시 송탄 (국제 중앙시장, 신장 쇼핑몰)","平泽市 松炭(国际中央市场, 新场购物中心)","平澤市 松炭(國際中央市場, 新場購物中心)",Gyeonggi,2019 외래관광객실태조사,,,평택 송탄 로데오거리,평택시,신장동,127.0508323,37.076363,,
1580,"고양 (고양 킨텍스, 김치스쿨, 원마운트)",高阳(KINTEX/泡菜学校/ONE-MOUNT主题公园),高陽(KINTEX/泡菜學校/ONE MOUNT),Gyeonggi,2019 외래관광객실태조사,,,고양시,고양시 덕양구,주교동,126.8369961,37.6650719,,
1581,수원 화성,水原华城,水原華城,Gyeonggi,2019 외래관광객실태조사,127.0119379,37.2871202,수원화성,수원시 장안구,영화동,127.0119379,37.2871202,,
1582,에버랜드,爱宝乐园,愛寶樂園,Gyeonggi,2019 외래관광객실태조사,127.2025664,37.2939104,에버랜드,용인시 처인구,포곡읍,127.2025664,37.2939104,,
1583,"임진각, 제3땅굴/통일전망대/판문점","临津阁, 第三隧道/统一展望台/板门店","臨津閣, 第三地道/統一展望臺/板門店",Gyeonggi,2019 외래관광객실태조사,,,임진각,파주시,문산읍,126.7402185,37.8897444,,
1584,한국민속촌,韩国民俗村,韓國民俗村,Gyeonggi,2019 외래관광객실태조사,127.1181126,37.258939,한국민속촌,용인시 기흥구,보라동,127.1181126,37.258939,,
1585,서울랜드/서울대공원,首尔乐园/首尔大公园,首爾樂園/首爾大公園,Gyeonggi,2019 외래관광객실태조사,,,서울대공원,과천시,막계동,127.0170252,37.4275247,,
1586,헤이리 예술마을/프로방스마을,Heyri国际艺术村/普罗旺斯村,HEYRI藝術村/普羅旺斯村,Gyeonggi,2019 외래관광객실태조사,,,헤이리예술마을,파주시,탄현면,126.698722,37.7888414,,
1587,"쇼핑아울렛 (파주, 여주, 이천)","Outlet(坡州, 骊州, 利川)","購物Outlet(坡州, 驪州, 利川)",Gyeonggi,2019 외래관광객실태조사,,,,,,,,,
1588,성남 (판교/카페거리/남한산성),城南(板桥/咖啡街/南汉山城),城南(板橋/咖啡街/南漢山城),Gyeonggi,2019 외래관광객실태조사,,,성남시,성남시 분당구,삼평동,127.1162181,37.4073695,,
1589,포천 (허브 아일랜드),抱川(香草岛乐园),抱川(香草島樂園),Gyeonggi,2019 외래관광객실태조사,127.131773,37.9654806,포천 허브아일랜드,포천시,신북면,127.131773,37.9654806,,
1590,부천 (웅진 플레이 도시),富川(熊津游戏城),富川(熊津遊樂城),Gyeonggi,2019 외래관광객실태조사,126.7449357,37.4999116,부천 웅진플레이도시,부천시,상동,126.7449357,37.4999116,,
1591,양평 (두물머리/레일 바이크),杨平(两水头/铁路自行车),楊平(兩水頭/鐵路自行車),Gyeonggi,2019 외래관광객실태조사,,,양평군,양평군,용문면,127.5792445,37.5180465,,
1592,가평 (자라섬/쁘띠프랑스/아침고요 수목원),加平(龟岛/小法兰西/晨静园艺树木园),加平(鱉島/小法國村/晨靜樹木園),Gyeonggi,2019 외래관광객실태조사,,,가평군,가평군,가평읍,127.4502156,37.8184719,,
1593,안산 (대부도/시화호/별빛마을),鞍山(大釜岛/始华湖/星光村),安山(大阜島/始華湖/星光村),Gyeonggi,2019 외래관광객실태조사,,,안산시,안산시 단원구,고잔동,126.8308848,37.3218778,,
1594,스키장 (지산/양지/베어스타운/곤지암),滑雪场(芝山/阳智/熊城/昆池岩),滑雪場(芝山/陽智/熊城/昆池岩),Gyeonggi,2019 외래관광객실태조사,,,,,,,,,
1595,광명동굴,光明洞窟,光明洞窟,Gyeonggi,2019 외래관광객실태조사,126.8664882,37.4264887,광명동굴,광명시,가학동,126.8664882,37.4264887,,
1596,평택시 (송탄 로데오 거리),平泽(松丹路五岔口),平澤(松丹路五岔口),Gyeonggi,2019 외래관광객실태조사,127.0508323,37.076363,평택 송탄 로데오거리,평택시,신장동,127.0508323,37.076363,,
1597,"광진구 (건국 대학교, 건대 입구역)","广津区(建国大学, 建国大学入口站)","廣津區(建國大學, 建國大學入口站)",Seoul,2019 외래관광객실태조사,,,건대입구역,광진구,자양동,127.069276,37.540372,,
1598,"영등포 (타임 스퀘어, 영등포시장 등)","永登浦(时代广场, 永登浦市场等)","永登浦(時代廣場, 永登浦市場等)",Seoul,2019 외래관광객실태조사,,,영등포구,영등포구,영등포동2가,126.9101692,37.5223245,,
1599,"반포 (고속버스 터미널, 고투몰)","盘浦(高速巴士站, Goto Mall)","盤浦(高速巴士站, Goto Mall)",Seoul,2019 외래관광객실태조사,,,고투몰,서초구,잠원동,127.0050378,37.5062379,,
1600,합정/성수,合井/圣水,合井/聖水,Seoul,2019 외래관광객실태조사,,,,,,,,,
1601,마포,麻浦,麻浦,Seoul,2019 외래관광객실태조사,126.9082589,37.5593115,마포구,마포구,성산동,126.9082589,37.5593115,,
1602,서대문 (서대문 형무소),西大门(西大门刑务所),西大門(西大門刑務所),Seoul,2019 외래관광객실태조사,126.956071,37.574271,서대문 형무소,서대문구,현저동,126.956071,37.574271,,
1603,고려대학교,高丽大学,高麗大學,Seoul,2019 외래관광객실태조사,127.0324773,37.5893876,고려대학교,성북구,안암동5가,127.0324773,37.5893876,,
1604,서초 (현대 자동차 본사),瑞草(现代汽车总公司),瑞草(現代汽車總公司),Seoul,2019 외래관광객실태조사,127.0430687,37.4646651,현대 자동차 본사,서초구,양재동,127.0430687,37.4646651,,
1605,시흥동/독산,始兴洞/秃山,始興洞/禿山,Seoul,2019 외래관광객실태조사,,,독산역,금천구,가산동,126.889396,37.466107,,
1606,"흑석동 (중앙대, 중앙대 병원)","黑石洞(中央大学, 中央大学医院)","黑石洞(中央大學, 中央大學醫院)",Seoul,2019 외래관광객실태조사,,,중앙대학교,동작구,흑석동,126.9571012,37.5050881,,
1607,"노량진 (노량진 수산시장, 사육신묘)","鹭樑津(鹭樑津水产市场, 死六辰庙)","鷺樑津(鷺樑津水產市場, 死六辰廟)",Seoul,2019 외래관광객실태조사,,,노량진동,동작구,노량진동,126.9418959,37.5116108,,
1608,방화동/김포공항 주변,金浦机场周边,金浦機場周邊,Seoul,2019 외래관광객실태조사,126.8013282,37.5655383,김포공항,강서구,방화동,126.8013282,37.5655383,,
1609,삼성동,三圣洞,三聖洞,Seoul,2019 외래관광객실태조사,127.0561274,37.513975,삼성동,강남구,삼성동,127.0561274,37.513975,,
1610,서울역/서울로,首尔站/首尔路,首爾站/首爾路,Seoul,2019 외래관광객실태조사,126.972317,37.555946,서울역,중구,봉래동2가,126.972317,37.555946,,
1611,가산디지털,加山数码园区,加山數碼園區,Seoul,2019 외래관광객실태조사,126.882652,37.48144,가산디지털단지역,금천구,가산동,126.882652,37.48144,,
1612,신림/봉천/낙성대,新林/奉天/落星臺,新林/奉天/落星臺,Seoul,2019 외래관광객실태조사,,,관악구,관악구,신림동,126.9453359,37.4673709,,
1613,노원/상계,芦原/上溪,蘆原/上溪,Seoul,2019 외래관광객실태조사,,,노원구,노원구,중계동,127.075042,37.6525076,,
1614,충무로,忠武路,忠武路,Seoul,2019 외래관광객실태조사,126.9927416,37.5648394,충무로,중구,초동,126.9927416,37.5648394,,
1615,양재 (양재 시민의 숲 등),良才(良才市民之林等),良才(良才市民之林等),Seoul,2019 외래관광객실태조사,127.035758,37.4710677,양재 시민의 숲,서초구,양재동,127.035758,37.4710677,,
1616,왕십리,往十里,往十里,Seoul,2019 외래관광객실태조사,127.0252724,37.568832,왕십리,성동구,상왕십리동,127.0252724,37.568832,,
1617,"용산/이촌 (국립중앙박물관, 용산 가족공원)","二村(国立中央博物馆, 龙山家庭公园)","龍山/二村(國立中央博物館, 龍山家庭公園)",Seoul,2019 외래관광객실태조사,,,국립중앙박물관,용산구,용산동6가,126.9804702,37.5238506,,
1618,성북 (헤화문),城北(惠化门),城北(惠化門),Seoul,2019 외래관광객실태조사,127.0037323,37.587926,혜화문,종로구,혜화동,127.0037323,37.587926,,
1619,신라호텔,新罗饭店,新羅飯店,Seoul,2019 외래관광객실태조사,127.0052509,37.5559034,신라호텔,중구,장충동2가,127.0052509,37.5559034,,
1620,신라면세점,新罗免税店,新羅免稅店,Seoul,2019 외래관광객실태조사,127.0078383,37.5568859,신라면세점,중구,장충동2가,127.0078383,37.5568859,,
1621,북한산,北汉山,北漢山,Seoul,2019 외래관광객실태조사,126.993333,37.660833,북한산,강북구,우이동,126.993333,37.660833,,
1622,세종대학교,世宗大学,世宗大學,Seoul,2019 외래관광객실태조사,127.0736345,37.5518018,세종대학교,광진구,군자동,127.0736345,37.5518018,,
1623,수유동,水逾洞,水逾洞,Seoul,2019 외래관광객실태조사,127.0073721,37.6383275,수유동,강북구,수유동,127.0073721,37.6383275,,
1624,오류/개봉,梧柳/开封,梧柳/開封,Seoul,2019 외래관광객실태조사,,,구로구,구로구,개봉동,126.8563336,37.4944134,,
1625,구로,九老,九老,Seoul,2019 외래관광객실태조사,126.8563336,37.4944134,구로구,구로구,개봉동,126.8563336,37.4944134,,
1626,목동,木洞,木洞,Seoul,2019 외래관광객실태조사,126.8745334,37.5360367,목동,양천구,목동,126.8745334,37.5360367,,
1627,성산동/상암동,城山洞/上岩洞,城山洞/上岩洞,Seoul,2019 외래관광객실태조사,126.8798744,37.5707485,상암동,마포구,상암동,126.8798744,37.5707485,,
1628,대림,大林,大林,Seoul,2019 외래관광객실태조사,126.8973155,37.4932246,대림역,영등포구,대림동,126.8973155,37.4932246,,
1629,당산동,堂山洞,堂山洞,Seoul,2019 외래관광객실태조사,126.9040058,37.5364736,당산동,영등포구,당산동,126.9040058,37.5364736,,
1630,봉은사,奉恩寺,奉恩寺,Seoul,2019 외래관광객실태조사,127.0573766,37.514852,봉은사,강남구,삼성동,127.0573766,37.514852,,
1631,연세대학교,延世大学,延世大學,Seoul,2019 외래관광객실태조사,126.9387066,37.5663937,연세대학교,서대문구,신촌동,126.9387066,37.5663937,,
1632,성균관대학교,成均馆大学,成均館大學,Seoul,2019 외래관광객실태조사,126.993606,37.588227,성균관대학교,종로구,명륜3가,126.993606,37.588227,,
1633,순천향대학교 서울병원,顺天乡大学首尔医院,順天鄉大學首爾醫院,Seoul,2019 외래관광객실태조사,127.0043336,37.5339355,순천향대학교 서울병원,용산구,한남동,127.0043336,37.5339355,,
1634,강남(sm타운 등),江南(SM Town等),江南(SM Town等),Seoul,2019 외래관광객실태조사,,,강남구,강남구,대치동,127.0629804,37.4966645,,
1635,강동구,江东区,江東區,Seoul,2019 외래관광객실태조사,127.1440351,37.5508094,강동구,강동구,명일동,127.1440351,37.5508094,,
1636,강서구,江西区,江西區,Seoul,2019 외래관광객실태조사,126.8070377,37.5617969,강서구,강서구,방화동,126.8070377,37.5617969,,
1637,성동구,城东区,城東區,Seoul,2019 외래관광객실태조사,127.0410394,37.5510171,성동구,성동구,성수동1가,127.0410394,37.5510171,,
1638,남영동/청파동/숙대입구,南营洞/青坡洞/淑大入口,南營洞/青坡洞/淑大入口,Seoul,2019 외래관광객실태조사,,,숙대입구역,용산구,갈월동,126.971987,37.545097,,
1639,사당동,舍堂洞,舍堂洞,Seoul,2019 외래관광객실태조사,126.9772568,37.4798074,사당동,동작구,사당동,126.9772568,37.4798074,,
1640,국기원,国技院,國技院,Seoul,2019 외래관광객실태조사,127.0302469,37.501965,국기원,강남구,역삼동,127.0302469,37.501965,,
1641,방배동 (서래마을 등),方背洞(瑞来村等),方背洞(瑞來村等),Seoul,2019 외래관광객실태조사,126.9982698,37.4969306,서래마을,서초구,반포동,126.9982698,37.4969306,,
1642,망원동,望远洞,望遠洞,Seoul,2019 외래관광객실태조사,126.8998606,37.5554884,망원동,마포구,망원동,126.8998606,37.5554884,,
1643,국립현대미술관,国立现代美术馆,國立現代美術館,Seoul,2019 외래관광객실태조사,126.9805862,37.5795117,국립현대미술관,종로구,소격동,126.9805862,37.5795117,,
1644,고척스카이돔,高尺天空巨蛋,高尺天空巨蛋,Seoul,2019 외래관광객실태조사,126.8670082,37.498182,고척스카이돔,구로구,고척동,126.8670082,37.498182,,
1645,송파,松坡,松坡,Seoul,2019 외래관광객실태조사,127.1152992,37.5056205,송파구,송파구,송파동,127.1152992,37.5056205,,
1646,현대아산병원,现代峨山医院,現代峨山醫院,Seoul,2019 외래관광객실태조사,127.1081223,37.5265455,서울아산병원,송파구,풍납동,127.1081223,37.5265455,,
1647,을지로,乙支路,乙支路,Seoul,2019 외래관광객실태조사,126.9954924,37.5660286,을지로,중구,을지로4가,126.9954924,37.5660286,,
1648,회기동(경희대학교),回基洞(庆熙大学),回基洞(慶熙大學),Seoul,2019 외래관광객실태조사,127.0518435,37.5968367,경희대학교,동대문구,회기동,127.0518435,37.5968367,,
1649,이화여자대학교,梨花女子大学,梨花女子大學,Seoul,2019 외래관광객실태조사,126.9468339,37.5618588,이화여자대학교,서대문구,대현동,126.9468339,37.5618588,,
1650,서울대부속병원,首尔大学附属医院,首爾大學附屬醫院,Seoul,2019 외래관광객실태조사,126.9990602,37.5795427,서울대학교병원,종로구,연건동,126.9990602,37.5795427,,
1651,서울대학교,首尔大学,首爾大學,Seoul,2019 외래관광객실태조사,126.9511364,37.4593505,서울대학교,관악구,신림동,126.9511364,37.4593505,,
1652,한양대학교,汉阳大学,漢陽大學,Seoul,2019 외래관광객실태조사,127.0454092,37.5571759,한양대학교,성동구,행당동,127.0454092,37.5571759,,
1653,쉐라톤 워커힐 호텔,华克山庄首尔大酒店,華克山莊首爾大酒店,Seoul,2019 외래관광객실태조사,127.1108905,37.5552126,그랜드 워커힐 서울,광진구,광장동,127.1108905,37.5552126,,
1654,대학로/혜화동,大学路/惠化洞,大學路/惠化洞,Seoul,2019 외래관광객실태조사,,,대학로,종로구,연건동,127.0016013,37.5782763,,
1655,신도림,新道林,新道林,Seoul,2019 외래관광객실태조사,126.8915131,37.5089833,신도림역,구로구,신도림동,126.8915131,37.5089833,,
1656,마곡,马谷,馬谷,Seoul,2019 외래관광객실태조사,126.8298909,37.5706297,마곡동,강서구,마곡동,126.8298909,37.5706297,,
1657,관악산,冠岳山,冠岳山,Seoul,2019 외래관광객실태조사,126.9610024,37.4429385,관악산,관악구,신림동,126.9610024,37.4429385,,
1658,선릉/역삼,宣陵,宣陵,Seoul,2019 외래관광객실태조사,127.045531,37.5087078,선릉,강남구,삼성동,127.045531,37.5087078,,
1659,강남 세브란스병원,江南Severance医院,江南Severance醫院,Seoul,2019 외래관광객실태조사,127.0465277,37.4925494,강남 세브란스병원,강남구,도곡동,127.0465277,37.4925494,,
1660,한국외대,韩国外国语大学,韓國外國語大學,Seoul,2019 외래관광객실태조사,127.0588002,37.5974453,한국외국어대학교,동대문구,이문동,127.0588002,37.5974453,,
1661,동국대학교,东国大学,東國大學,Seoul,2019 외래관광객실태조사,127.0001671,37.5582876,동국대학교,중구,장충동2가,127.0001671,37.5582876,,
1662,논현동,论岘洞,論峴洞,Seoul,2019 외래관광객실태조사,127.0317124,37.5136787,논현동,강남구,논현동,127.0317124,37.5136787,,
1663,장한평,长汉坪,長漢坪,Seoul,2019 외래관광객실태조사,127.064657,37.561472,장한평역,동대문구,장안동,127.064657,37.561472,,
1664,동인천,东仁川,東仁川,Incheon,2019 외래관광객실태조사,126.6288894,37.4745242,인천 차이나타운,중구,북성동2가,126.6178849,37.475589,,
1665,인천 서구,仁川西区,仁川西區,Incheon,2019 외래관광객실태조사,126.6561702,37.5578549,인천 서구,서구,경서동,126.6561702,37.5578549,,
1666,부평,富平,富平,Incheon,2019 외래관광객실태조사,126.7212089,37.4966725,부평구,부평구,부평동,126.7212089,37.4966725,,
1667,남동구,南洞区,南洞區,Incheon,2019 외래관광객실태조사,126.726484,37.4310147,남동구,남동구,수산동,126.726484,37.4310147,,
1668,파라다이스 시티호텔 &리조트,仁川百乐达斯城度假村,仁川百樂達斯城度假村,Incheon,2019 외래관광객실태조사,126.4559197,37.4370234,파라다이스 시티호텔 &리조트,중구,운서동,126.4559197,37.4370234,,
1669,인천 중구,仁川中区,仁川中區,Incheon,2019 외래관광객실태조사,126.4685024,37.4760518,인천공항,중구,운서동,126.4513395,37.4493342,,
1670,인천대공원,仁川大公园,仁川大公園,Incheon,2019 외래관광객실태조사,126.7522197,37.459244,인천대공원,남동구,장수동,126.7522197,37.459244,,
1671,메디플렉스 세종병원,Mediplex世宗医院,Mediplex世宗醫院,Incheon,2019 외래관광객실태조사,126.7368433,37.5321071,메디플렉스 세종병원,계양구,작전동,126.7368433,37.5321071,,
1672,인하대학교,仁荷大学,仁荷大學,Incheon,2019 외래관광객실태조사,126.653488,37.4500221,인하대학교,미추홀구,용현동,126.653488,37.4500221,,
1673,계양구,桂阳区,桂陽區,Incheon,2019 외래관광객실태조사,126.734707,37.5572857,계양구,계양구,방축동,126.734707,37.5572857,,
1674,송월동 동화마을,松月洞童话村,松月洞童話村,Incheon,2019 외래관광객실태조사,126.6205827,37.4776611,송월동 동화마을,중구,송월동3가,126.6205827,37.4776611,,
1675,인천길병원,嘉泉大吉医院,嘉泉大吉醫院,Incheon,2019 외래관광객실태조사,126.7092631,37.4518347,가천대 길병원,남동구,구월동,126.7092631,37.4518347,,
1676,인천대학교,仁川大学,仁川大學,Incheon,2019 외래관광객실태조사,126.6322345,37.3749658,인천대학교,연수구,송도동,126.6322345,37.3749658,,
1677,연수동,延寿洞,延壽洞,Incheon,2019 외래관광객실태조사,126.6832981,37.420418,연수동,연수구,연수동,126.6832981,37.420418,,
1678,청라국제도시,青罗国际都市,青羅國際都市,Incheon,2019 외래관광객실태조사,126.626489,37.5551229,청라국제도시역,서구,청라동,126.626489,37.5551229,,
1679,아라뱃길,京仁运河,京仁運河,Incheon,2019 외래관광객실태조사,126.605784,37.5568349,아라빛섬,서구,오류동,126.605784,37.5568349,,
1680,인천상륙작전기념관,仁川登陆作战纪念馆,仁川登陸作戰紀念館,Incheon,2019 외래관광객실태조사,126.6542628,37.4196092,인천상륙작전기념관,연수구,옥련동,126.6542628,37.4196092,,
1681,인천아시아드주경기장,仁川亚运主体育场,仁川亞運主體育場,Incheon,2019 외래관광객실태조사,126.6665509,37.5475394,인천아시아드주경기장,서구,연희동,126.6665509,37.5475394,,
1682,인천 남구,仁川南区,仁川南區,Incheon,2019 외래관광객실태조사,126.6646603,37.452589,인천 남구,미추홀구,용현동,126.6646603,37.452589,,
1683,옹진군,瓮津郡,甕津郡,Incheon,2019 외래관광객실태조사,124.6778869,37.9535884,옹진군,옹진군,백령면,124.6778869,37.9535884,,
1684,카톨릭대학교 인천성모병원,天主教大学仁川圣母医院,天主教大學仁川聖母醫院,Incheon,2019 외래관광객실태조사,126.7249147,37.4844074,카톨릭대학교 인천성모병원,부평구,부평동,126.7249147,37.4844074,,
1685,안양,安阳,安陽,Gyeonggi,2019 외래관광객실태조사,126.9279179,37.4027313,안양시,안양시 동안구,비산동,126.9279179,37.4027313,,
1686,동탄,东滩,東灘,Gyeonggi,2019 외래관광객실태조사,127.0970177,37.199327,동탄역,화성시,오산동,127.0970177,37.199327,,
1687,경기 광주,京畿光州,京畿光州,Gyeonggi,2019 외래관광객실태조사,127.3011624,37.4030854,경기 광주시,광주시,초월읍,127.3011624,37.4030854,,
1688,시흥시,始兴市,始興市,Gyeonggi,2019 외래관광객실태조사,126.7841675,37.3864796,시흥시,시흥시,장곡동,126.7841675,37.3864796,,
1689,용인,龙仁,龍仁,Gyeonggi,2019 외래관광객실태조사,127.2218612,37.2214872,용인시,용인시 처인구,남동,127.2218612,37.2214872,,
1690,남양주,南杨州,南楊州,Gyeonggi,2019 외래관광객실태조사,127.2436632,37.6625097,남양주시,남양주시,호평동,127.2436632,37.6625097,,
1691,하남시,河南市,河南市,Gyeonggi,2019 외래관광객실태조사,127.2059921,37.5228824,하남시,하남시,교산동,127.2059921,37.5228824,,
1692,오산,乌山,烏山,Gyeonggi,2019 외래관광객실태조사,127.0513324,37.1632991,오산시,오산시,궐동,127.0513324,37.1632991,,
1693,안성,安城,安城,Gyeonggi,2019 외래관광객실태조사,127.3027301,37.035033,안성시,안성시,보개면,127.3027301,37.035033,,
1694,의정부,议政府,議政府,Gyeonggi,2019 외래관광객실태조사,127.0684356,37.7361884,의정부시,의정부시,신곡동,127.0684356,37.7361884,,
1695,김포,金浦,金浦,Gyeonggi,2019 외래관광객실태조사,126.6265338,37.6818227,김포시,김포시,통진읍,126.6265338,37.6818227,,
1696,이천,利川,利川,Gyeonggi,2019 외래관광객실태조사,127.4810494,37.2097769,이천시,이천시,대월면,127.4810494,37.2097769,,
1697,양주,扬州,揚州,Gyeonggi,2019 외래관광객실태조사,127.001143,37.8086632,양주시,양주시,백석읍,127.001143,37.8086632,,
1698,군포,军浦,軍浦,Gyeonggi,2019 외래관광객실태조사,126.9211003,37.3434691,군포시,군포시,산본동,126.9211003,37.3434691,,
1699,광명,光明,光明,Gyeonggi,2019 외래관광객실태조사,126.8646989,37.4451612,광명시,광명시,하안동,126.8646989,37.4451612,,
1700,의왕시,义王市,義王市,Gyeonggi,2019 외래관광객실태조사,126.9896996,37.3624626,의왕시,의왕시,오전동,126.9896996,37.3624626,,
1701,파주,坡州,坡州,Gyeonggi,2019 외래관광객실태조사,126.8115232,37.8544244,파주시,파주시,파주읍,126.8115232,37.8544244,,
1702,부천,富川,富川,Gyeonggi,2019 외래관광객실태조사,126.7886531,37.5042687,부천시,부천시,춘의동,126.7886531,37.5042687,,
1703,분당,盆唐,盆唐,Gyeonggi,2019 외래관광객실태조사,127.1060411,37.3793356,분당구,성남시 분당구,정자동,127.1060411,37.3793356,,
1704,여주,骊州,驪州,Gyeonggi,2019 외래관광객실태조사,127.6157502,37.3024585,여주시,여주시,세종대왕면,127.6157502,37.3024585,,
1705,구리,九里,九里,Gyeonggi,2019 외래관광객실태조사,127.1313079,37.5990186,구리시,구리시,교문동,127.1313079,37.5990186,,
1706,청평,清平,清平,Gyeonggi,2019 외래관광객실태조사,127.4293452,37.7297832,청평면,가평군,청평면,127.4293452,37.7297832,,
1707,과천,果川,果川,Gyeonggi,2019 외래관광객실태조사,127.0027656,37.4338294,과천시,과천시,막계동,127.0027656,37.4338294,,
1708,일산 백병원,一山白医院,一山白醫院,Gyeonggi,2019 외래관광객실태조사,126.750367,37.6742288,일산 백병원,고양시 일산서구,대화동,126.750367,37.6742288,,
1709,수원,水原,水原,Gyeonggi,2019 외래관광객실태조사,127.0077847,37.2803896,수원시,수원시 팔달구,화서동,127.0077847,37.2803896,,
1710,기흥,器兴,器興,Gyeonggi,2019 외래관광객실태조사,127.1213604,37.2674312,기흥구,용인시 기흥구,상갈동,127.1213604,37.2674312,,
1711,제기동,祭基洞,祭基洞,Seoul,2019 외래관광객실태조사,127.0372351,37.5837593,제기동,동대문구,제기동,127.0372351,37.5837593,,
1712,삼성미술관 리움,三星美术馆Leeum,三星美術館Leeum,Seoul,2019 외래관광객실태조사,126.9993937,37.5378932,리움미술관,용산구,한남동,126.9993937,37.5378932,,
1713,상도동,上道洞,上道洞,Seoul,2019 외래관광객실태조사,126.9440592,37.4987343,상도동,동작구,상도동,126.9440592,37.4987343,,
1714,답십리,踏十里,踏十里,Seoul,2019 외래관광객실태조사,127.052382,37.567072,답십리역,성동구,용답동,127.052382,37.567072,,
1715,신길/대방/신대방,新吉/大方/新大方,新吉/大方/新大方,Seoul,2019 외래관광객실태조사,,,,,,,,,
1716,면목동,面牧洞,面牧洞,Seoul,2019 외래관광객실태조사,127.0892215,37.5823776,면목동,중랑구,면목동,127.0892215,37.5823776,,
1717,IFC(국제금융센터),IFC(首尔国际金融中心),IFC(首爾國際金融中心),Seoul,2019 외래관광객실태조사,126.926025,37.525219,IFC(국제금융센터),영등포구,여의도동,126.926025,37.525219,,
1718,동묘시장,东庙市场,東廟市場,Seoul,2019 외래관광객실태조사,127.0176409,37.5732171,동묘시장,종로구,숭인동,127.0176409,37.5732171,,
1719,북한강,北汉江,北漢江,Seoul,2019 외래관광객실태조사,,,,,,,,,
1720,도봉구,道峰区,道峰區,Seoul,2019 외래관광객실태조사,127.0323527,37.6691065,도봉구,도봉구,방학동,127.0323527,37.6691065,,
1721,연남동,延南洞,延南洞,Seoul,2019 외래관광객실태조사,126.9214088,37.5627439,연남동,마포구,연남동,126.9214088,37.5627439,,
1722,은평구,恩平区,恩平區,Seoul,2019 외래관광객실태조사,126.9270142,37.6191784,은평구,은평구,불광동,126.9270142,37.6191784,,
1723,수서,水西,水西,Seoul,2019 외래관광객실태조사,127.1013245,37.4874685,수서역,강남구,수서동,127.1013245,37.4874685,,
1724,KDI(한국개발연구원),KDI(韩国开发研究院),KDI(韓國開發研究院),Seoul,2019 외래관광객실태조사,,,,,,,,,
1725,동작구,铜雀区,銅雀區,Seoul,2019 외래관광객실태조사,126.9516345,37.4988794,동작구,동작구,상도동,126.9516345,37.4988794,,
1726,신월동/화곡동,新月洞/禾穀洞,新月洞/禾穀洞,Seoul,2019 외래관광객실태조사,,,,,,,,,
1727,삼성서울병원,三星首尔医院,三星首爾醫院,Seoul,2019 외래관광객실태조사,127.0849885,37.4881193,삼성병원,강남구,일원동,127.0849885,37.4881193,,
1728,삼성출판박물관,三省出版博物馆,三省出版博物館,Seoul,2019 외래관광객실태조사,126.9570365,37.6086049,삼성출판박물관,종로구,구기동,126.9570365,37.6086049,,
1729,KBS 스튜디오,KBS电视台,KBS電視台,Seoul,2019 외래관광객실태조사,126.916382,37.5253618,KBS 스튜디오,영등포구,여의도동,126.916382,37.5253618,,
1730,약수동,药水洞,藥水洞,Seoul,2019 외래관광객실태조사,127.0109839,37.5513128,약수동,중구,신당동,127.0109839,37.5513128,,
1731,낙산공원,骆山公园,駱山公園,Seoul,2019 외래관광객실태조사,127.0074835,37.5806571,낙산공원,종로구,동숭동,127.0074835,37.5806571,,
1732,강북,江北,江北,Seoul,2019 외래관광객실태조사,127.0111839,37.6434801,강북구,강북구,수유동,127.0111839,37.6434801,,
1733,황학동,黄鹤洞,黃鶴洞,Seoul,2019 외래관광객실태조사,127.020839,37.5685466,황학동,중구,황학동,127.020839,37.5685466,,
1734,국립극장,国立剧场,國立劇場,Seoul,2019 외래관광객실태조사,126.9998129,37.5528597,국립극장,중구,장충동2가,126.9998129,37.5528597,,
1735,BTS팝업스토어,BTS快闪店,BTS快閃店,Seoul,2019 외래관광객실태조사,127.0279468,37.5029132,BTS팝업스토어,강남구,역삼동,127.0279468,37.5029132,,
1736,국민대학교,国民大学,國民大學,Seoul,2019 외래관광객실태조사,126.9972889,37.6108694,국민대학교,성북구,정릉동,126.9972889,37.6108694,,
1737,그랜드 앰버서더,首尔铂尔曼格兰德大使酒店,首爾鉑爾曼格蘭德大使酒店,Seoul,2019 외래관광객실태조사,127.0024791,37.5604038,그랜드 앰버서더,중구,장충동2가,127.0024791,37.5604038,,
1738,한국농기계공업협동조합,韩国农机械工业协同组合,韓國農機工業協同組合,Seoul,2019 외래관광객실태조사,127.0779337,37.505183,한국농기계공업협동조합,송파구,잠실동,127.0779337,37.505183,,
